Address,City,State,Zip
2000 RIDGEHILL AV,Baltimore,MD,
500 LONEYS LA,Baltimore,MD,
2000 BRUNT ST,Baltimore,MD,
4500 LOCH RAVEN BD,Baltimore,MD,
2000 WOODBOURNE AVE,Baltimore,MD,
2000 E FAIRMOUNT AV,Baltimore,MD,
3500 4TH ST,Baltimore,MD,
4700 GARRISON BD,Baltimore,MD,
1400 E MONUMENT ST,Baltimore,MD,
3500 BEECH AV,Baltimore,MD,
0 W BALTIMORE ST,Baltimore,MD,
2000 E NORTH AV,Baltimore,MD,
2400 SEABURY RD,Baltimore,MD,
2400 SEABURY RD,Baltimore,MD,
3100 COWAN AV,Baltimore,MD,
5800 EASTERN AV,Baltimore,MD,
2400 SEABURY RD,Baltimore,MD,
2400 SEABURY RD,Baltimore,MD,
900 VALLEY ST,Baltimore,MD,
1000 WILMOT CT,Baltimore,MD,
2400 ST PAUL ST,Baltimore,MD,
4700 LOCH RAVEN BD,Baltimore,MD,
2400 SEABURY RD,Baltimore,MD,
1400 LOCHNER RD,Baltimore,MD,
2100 HARFORD RD,Baltimore,MD,
3100 COWAN AV,Baltimore,MD,
1500 -BLK BRUNT ST,Baltimore,MD,
2900 SYLVAN AV,Baltimore,MD,
0 S CHARLES ST,Baltimore,MD,
3100 VIRGINIA AVE,Baltimore,MD,
200 N EUTAW ST,Baltimore,MD,
3200 CHESTERFIELD AV,Baltimore,MD,
2400 ROUND RD,Baltimore,MD,
1200 W 37TH ST,Baltimore,MD,
3400 EASTERN AV,Baltimore,MD,
200 S GILMOR ST,Baltimore,MD,
3300 ELLERSLIE AV,Baltimore,MD,
1300 WALKER AV,Baltimore,MD,
100 S CAREY ST,Baltimore,MD,
1500 N CAROLINE ST,Baltimore,MD,
2800 KIRK AV,Baltimore,MD,
1200 W 37TH ST,Baltimore,MD,
2500 EDGECOMBE CR N     #APT B,Baltimore,MD,
1300 W LEXINGTON ST,Baltimore,MD,
2300 W NORTH AV,Baltimore,MD,
0 N EDEN ST,Baltimore,MD,
2300 N CHARLES ST,Baltimore,MD,
4200 FLOWERTON RD,Baltimore,MD,
4000 BREHMS LA,Baltimore,MD,
5800 BELAIR RD,Baltimore,MD,
3100 SHANNON DR,Baltimore,MD,
1100 RIGGS AVE,Baltimore,MD,
1500 N CAROLINE ST,Baltimore,MD,
3500 5TH ST,Baltimore,MD,
1200 CHURCH ST,Baltimore,MD,
300 ILCHESTER AV,Baltimore,MD,
2000 E PRESTON ST,Baltimore,MD,
400 E 28TH ST,Baltimore,MD,
3800 CLAREMONT AV,Baltimore,MD,
600 LAURENS ST,Baltimore,MD,
300 S PAYSON ST,Baltimore,MD,
MONUMENT ST & N LUZERNE AV,Baltimore,MD,
3400 WALBROOK AVE,Baltimore,MD,
1600 HOLLINS ST,Baltimore,MD,
5300 BELAIR RD,Baltimore,MD,
2600 LEHMAN ST,Baltimore,MD,
700 MCKEWIN AV,Baltimore,MD,
600 E 33RD ST,Baltimore,MD,
5000 BELAIR RD,Baltimore,MD,
4500 MARY AV,Baltimore,MD,
800 WOODWARD ST,Baltimore,MD,
MONUMENT ST & N LUZERNE AV,Baltimore,MD,
1200 ASHBURTON ST,Baltimore,MD,
3200 N CHARLES ST,Baltimore,MD,
2400 W BELVEDERE AV,Baltimore,MD,
2900 REISTERSTOWN RD,Baltimore,MD,
3800 HICKORY AVE,Baltimore,MD,
500 GLENWOOD AV,Baltimore,MD,
6200 ALTA AV,Baltimore,MD,
6200 ALTA AV,Baltimore,MD,
1500 PENNSYLVANIA AV,Baltimore,MD,
1500 PENNSYLVANIA AV,Baltimore,MD,
4200 NICHOLAS AV,Baltimore,MD,
4200 NICHOLAS AV,Baltimore,MD,
2000 WHEELER AV,Baltimore,MD,
1900 DIVISION ST,Baltimore,MD,
4800 CLIFTON AV,Baltimore,MD,
500 E BALTIMORE ST,Baltimore,MD,
0 MARKET PL,Baltimore,MD,
0 MARKET PL,Baltimore,MD,
2900 REISTERSTOWN RD,Baltimore,MD,
1500 MCKEAN AV,Baltimore,MD,
1500 PENNSYLVANIA AV,Baltimore,MD,
4100 FREDERICK AV,Baltimore,MD,
1500 N CAREY ST,Baltimore,MD,
5300 PARK HEIGHTS AV,Baltimore,MD,
3100 BRIGHTON ST,Baltimore,MD,
700 N LINWOOD AV,Baltimore,MD,
1000 ORLEANS ST,Baltimore,MD,
3300 ABELL AV,Baltimore,MD,
2500 W NORTH AV,Baltimore,MD,
3600 KESWICK RD,Baltimore,MD,
3700 EASTERN AVE,Baltimore,MD,
200 S CHESTER ST,Baltimore,MD,
400 E SARATOGA ST,Baltimore,MD,
2800 CLIFTON PARK TER,Baltimore,MD,
1900 LEMMON ST,Baltimore,MD,
1900 RIDGEHILL AV,Baltimore,MD,
1000 ORLEANS ST,Baltimore,MD,
700 S MONTFORD AV,Baltimore,MD,
1200 ROSSITER AV,Baltimore,MD,
2800 E CHASE ST,Baltimore,MD,
400 E SARATOGA ST,Baltimore,MD,
2800 CLIFTON PARK TR,Baltimore,MD,
2900 E FAYETTE ST,Baltimore,MD,
1000 ORLEANS ST,Baltimore,MD,
1000 ORLEANS ST,Baltimore,MD,
1000 ORLEANS ST,Baltimore,MD,
5400 MOORES RUN DR,Baltimore,MD,
700 N BROADWAY,Baltimore,MD,
5100 YORK RD,Baltimore,MD,
300 S EDEN ST,Baltimore,MD,
900 BUNCHE RD,Baltimore,MD,
600 N SCHROEDER ST,Baltimore,MD,
1200 ORLEANS ST,Baltimore,MD,
3700 CLAREMONT AV,Baltimore,MD,
0 S EUTAW ST,Baltimore,MD,
5400 MOORES RUN DR,Baltimore,MD,
2400 CALVERTON HEIGHTS AV,Baltimore,MD,
1800 ORLEANS ST,Baltimore,MD,
2500 GREENMOUNT AV,Baltimore,MD,
0 S EUTAW ST,Baltimore,MD,
2800 BAKER ST,Baltimore,MD,
1300 GORSUCH AV,Baltimore,MD,
5400 GIST AVE,Baltimore,MD,
5400 GREENHILL AV,Baltimore,MD,
2200 PENNSYLVANIA AV,Baltimore,MD,
2200 PENNSYLVANIA AV,Baltimore,MD,
0 S CATON AV,Baltimore,MD,
LINWOOD AV & PULASKI HW,Baltimore,MD,
1000 S CHARLES ST,Baltimore,MD,
1000 S CHARLES ST,Baltimore,MD,
1000 S CHARLES ST,Baltimore,MD,
1000 S CHARLES ST,Baltimore,MD,
2700 W PATAPSCO AV,Baltimore,MD,
3700 E LOMBARD ST,Baltimore,MD,
400 N LINWOOD AV,Baltimore,MD,
900 S CATON AV,Baltimore,MD,
400 N LINWOOD AV,Baltimore,MD,
400 N LINWOOD AV,Baltimore,MD,
2600 W PATAPSCO AV,Baltimore,MD,
300 S CAROLINE ST,Baltimore,MD,
1200 PENNSYLVANIA AV,Baltimore,MD,
700 SPRINGFIELD AV,Baltimore,MD,
2000 PENNSYLVANIA AV,Baltimore,MD,
300 N PACA ST,Baltimore,MD,
300 S SMALLWOOD ST,Baltimore,MD,
3700 BROOKLYN AV,Baltimore,MD,
3700 BROOKLYN AV,Baltimore,MD,
1100 ENSOR ST,Baltimore,MD,
900 WILMOT CT,Baltimore,MD,
3700 BROOKLYN AV,Baltimore,MD,
3800 JUNIPER RD,Baltimore,MD,
2100 POPLAR GROVE ST,Baltimore,MD,
4200 WOODLEA AVE,Baltimore,MD,
1500 POPLAR GROVE ST,Baltimore,MD,
1700 DUNDALK AVE,Baltimore,MD,
100 E 32ND ST,Baltimore,MD,
600 PRESIDENT ST,Baltimore,MD,
3500 ELMLEY AV,Baltimore,MD,
6300 BELAIR RD,Baltimore,MD,
200 N ELLWOOD AV,Baltimore,MD,
1500 E 33RD ST,Baltimore,MD,
3800 W BELVEDERE AV,Baltimore,MD,
200 N ELLWOOD AV,Baltimore,MD,
700 N MLK JR BD,Baltimore,MD,
0 WASHBURN AV,Baltimore,MD,
500 W 28TH ST,Baltimore,MD,
1500 PENNSYLVANIA AV,Baltimore,MD,
800 BEAUMONT AV,Baltimore,MD,
800 BEAUMONT AV,Baltimore,MD,
800 BEAUMONT AV,Baltimore,MD,
5000 YORK RD,Baltimore,MD,
0 WASHBURN AV,Baltimore,MD,
600 N BELNORD AV,Baltimore,MD,
2400 N CHARLES ST,Baltimore,MD,
1000 CATHEDRAL ST,Baltimore,MD,
600 N BELNORD AVE,Baltimore,MD,
2400 E NORTHERN PW,Baltimore,MD,
300 THE FALLSWAY     #RM 203,Baltimore,MD,
300 THE FALLSWAY     #RM 203,Baltimore,MD,
4100 DUANE AV,Baltimore,MD,
5600 RADECKE AV,Baltimore,MD,
600 N EAST AV,Baltimore,MD,
600 N EAST AV,Baltimore,MD,
600 N EAST AV,Baltimore,MD,
2800 E BALTIMORE ST,Baltimore,MD,
600 N EAST AV,Baltimore,MD,
5400 RADECKE AV,Baltimore,MD,
5200 MORAVIA RD,Baltimore,MD,
5400 BELAIR RD,Baltimore,MD,
1100 POPLAR GROVE ST,Baltimore,MD,
5800 THE ALAMEDA,Baltimore,MD,
4000 WOODRIDGE RD,Baltimore,MD,
500 N CURLEY ST,Baltimore,MD,
500 N CURLEY ST,Baltimore,MD,
500 N CURLEY ST,Baltimore,MD,
500 N CURLEY ST,Baltimore,MD,
1700 BAKER ST,Baltimore,MD,
4300 BELAIR RD,Baltimore,MD,
500 N CURLEY ST,Baltimore,MD,
600 N HILTON ST,Baltimore,MD,
300 N GAY ST,Baltimore,MD,
1300 PONTIAC AV,Baltimore,MD,
1600 MAY CT,Baltimore,MD,
1200 DIVISION ST,Baltimore,MD,
2400 W BELVEDERE AV,Baltimore,MD,
4400 EASTERN AVE,Baltimore,MD,
2700 E HOFFMAN ST,Baltimore,MD,
800 N ROSE ST,Baltimore,MD,
3400 ALTO RD,Baltimore,MD,
5200 W NORTH AV,Baltimore,MD,
700 POPLAR GROVE ST,Baltimore,MD,
6700 PARK HEIGHTS AV,Baltimore,MD,
0 S EXETER ST,Baltimore,MD,
3200 LABYRINTH RD,Baltimore,MD,
400 S NEWKIRK ST,Baltimore,MD,
3800 CRESTLYN RD,Baltimore,MD,
3800 WOODHAVEN AV,Baltimore,MD,
3100 BRENDAN AV,Baltimore,MD,
200 N PAYSON ST,Baltimore,MD,
1900 E 28TH ST,Baltimore,MD,
200 W SARATOGA ST,Baltimore,MD,
700 DRUID HILL AV,Baltimore,MD,
2500 W LAFAYETTE ST,Baltimore,MD,
2400 GILES RD,Baltimore,MD,
200 S LOUDON AVE,Baltimore,MD,
2000 ELLSWORTH ST,Baltimore,MD,
5200 PARK HEIGHTS AV,Baltimore,MD,
2700 ROSLYN AV,Baltimore,MD,
4100 FAIRHAVEN AV,Baltimore,MD,
400 E BALTIMORE ST,Baltimore,MD,
1400 W PATAPSCO AV,Baltimore,MD,
300 N GAY ST,Baltimore,MD,
6600 HARFORD RD,Baltimore,MD,
2500 E HOFFMAN ST,Baltimore,MD,
3200 WESTWOOD AV,Baltimore,MD,
2500 LIBERTY HGTS AV,Baltimore,MD,
600 S EXETER ST,Baltimore,MD,
4200 OLD FREDERICK RD,Baltimore,MD,
7200 HARFORD RD,Baltimore,MD,
4800 BAYONNE AV,Baltimore,MD,
1200 W BALTIMORE ST,Baltimore,MD,
400 S REGESTER ST,Baltimore,MD,
2800 ASHLAND AV,Baltimore,MD,
500 ALBEMARLE ST,Baltimore,MD,
500 ALBEMARLE ST,Baltimore,MD,
4900 GREENSPRING AV,Baltimore,MD,
KENWOOD AV & ASHLAND AV,Baltimore,MD,
1800 N FULTON AV,Baltimore,MD,
2200 E FAIRMOUNT AV,Baltimore,MD,
600 E 38TH ST,Baltimore,MD,
1200 W BALTIMORE ST,Baltimore,MD,
2500 SEABURY RD,Baltimore,MD,
1100 Hargrove St,Baltimore,MD,
200 N KENWOOD AV,Baltimore,MD,
100 KANE ST,Baltimore,MD,
4200 FRANKFORD AV,Baltimore,MD,
100 E BALTIMORE ST,Baltimore,MD,
1300 BOLTON ST,Baltimore,MD,
2000 EDGEWOOD ST,Baltimore,MD,
4300 10TH ST,Baltimore,MD,
2800 WINWOOD CT,Baltimore,MD,
6500 EBERLE DR,Baltimore,MD,
300 S HIGHLAND AVE,Baltimore,MD,
2100 ECHODALE AV,Baltimore,MD,
4500 EDMONDSON AVE,Baltimore,MD,
600 N CARROLLTON AV,Baltimore,MD,
3000 THORNDALE AV,Baltimore,MD,
5200 DENMORE AV,Baltimore,MD,
5200 DENMORE AV,Baltimore,MD,
3200 THE ALAMEDA,Baltimore,MD,
100 W 39TH ST,Baltimore,MD,
3900 FORDLEIGH RD,Baltimore,MD,
600 N CARROLLTON AV,Baltimore,MD,
2400 GREENMOUNT AV,Baltimore,MD,
1400 EUTAW PL,Baltimore,MD,
400 FEDERAL ST,Baltimore,MD,
1900 DRUID HILL AV,Baltimore,MD,
2300 W BALTIMORE ST,Baltimore,MD,
3200 HAMILTON AV,Baltimore,MD,
5200 DENMORE AV,Baltimore,MD,
3400 PIEDMONT AV,Baltimore,MD,
2200 RUSKIN AVE,Baltimore,MD,
3000 MATHEWS ST,Baltimore,MD,
400 N CLINTON ST,Baltimore,MD,
3400 CLIFTON AV,Baltimore,MD,
900 N KRESSON ST,Baltimore,MD,
0 N COLLINGTON AV,Baltimore,MD,
200 N HIGHLAND AV,Baltimore,MD,
2900 PULASKI HWY,Baltimore,MD,
2800 W BALTIMORE ST,Baltimore,MD,
4300 FAIRFAX RD,Baltimore,MD,
4300 FAIRFAX RD,Baltimore,MD,
2500 E NORTHERN PW,Baltimore,MD,
500 N LINWOOD AV,Baltimore,MD,
1200 BRADDISH AVE,Baltimore,MD,
2900 PULASKI HWY,Baltimore,MD,
1400 E NORTH AV,Baltimore,MD,
2500 BROOKFIELD AVE,Baltimore,MD,
3700 MANCHESTER AV,Baltimore,MD,
3000 ARUNAH AV,Baltimore,MD,
6600 HARFORD RD,Baltimore,MD,
6600 HOLABIRD AV,Baltimore,MD,
0 W BIDDLE ST,Baltimore,MD,
2000 N EDGEWOOD ST,Baltimore,MD,
4100 WALRAD ST,Baltimore,MD,
1200 WOODBOURNE AV,Baltimore,MD,
1500 COLE ST,Baltimore,MD,
2100 W LEXINGTON ST,Baltimore,MD,
900 S CLINTON ST,Baltimore,MD,
800 E NORTH AV,Baltimore,MD,
4000 PIMLICO RD,Baltimore,MD,
2900 ROUND RD,Baltimore,MD,
2300 W BALTIMORE ST,Baltimore,MD,
2300 W BALTIMORE ST,Baltimore,MD,
800 E PRATT ST,Baltimore,MD,
300 S CENTRAL AV,Baltimore,MD,
1200 POPLAR GROVE ST,Baltimore,MD,
5000 EUGENE AV,Baltimore,MD,
4000 FORDS LA,Baltimore,MD,
400 N LAKEWOOD AV,Baltimore,MD,
3200 HARFORD RD,Baltimore,MD,
1100 W NORTH AV,Baltimore,MD,
1200 BEAUMONT AV,Baltimore,MD,
3800 BARTWOOD RD,Baltimore,MD,
6300 BELAIR RD,Baltimore,MD,
1400 N COLLINGTON AV,Baltimore,MD,
2900 RIDGEWOOD AV,Baltimore,MD,
PATTERSON PARK AV & EASTERN AV,Baltimore,MD,
PATTERSON PARK AV & EASTERN AV,Baltimore,MD,
4000 PIMLICO RD,Baltimore,MD,
2400 ETTING ST,Baltimore,MD,
1500 COLE ST,Baltimore,MD,
1200 WOODBOURBE,Baltimore,MD,
200 E 25TH ST,Baltimore,MD,
2000 W BALTIMORE ST,Baltimore,MD,
200 E 25TH ST,Baltimore,MD,
400 S ELLWOOD AV,Baltimore,MD,
400 E PRATT ST,Baltimore,MD,
3200 LEVERTON AV,Baltimore,MD,
100 S HAVEN ST,Baltimore,MD,
500 W PRATT ST,Baltimore,MD,
1700 PONCABIRD PS,Baltimore,MD,
2200 E OLIVER ST,Baltimore,MD,
1400 E FAYETTE ST,Baltimore,MD,
4800 ODONNELL ST,Baltimore,MD,
300 FURROW ST,Baltimore,MD,
2200 E OLIVER ST,Baltimore,MD,
800 N PAYSON ST,Baltimore,MD,
300 FURROW ST,Baltimore,MD,
4800 ODONNELL ST,Baltimore,MD,
5600 LOCH RAVEN BD,Baltimore,MD,
3000 INDEPENDENCE ST,Baltimore,MD,
2200 E OLIVER ST,Baltimore,MD,
2200 E OLIVER ST,Baltimore,MD,
2200 E OLIVER ST,Baltimore,MD,
4800 ODONNELL ST,Baltimore,MD,
4800 ODONNELL ST,Baltimore,MD,
4300 WENTWORTH RD,Baltimore,MD,
1800 FLEET ST,Baltimore,MD,
300 E 33RD ST,Baltimore,MD,
2200 W BALTIMORE ST,Baltimore,MD,
0 W BALTIMORE ST,Baltimore,MD,
3500 N ROGERS AV,Baltimore,MD,
800 N PAYSON ST,Baltimore,MD,
200 N SCHROEDER ST,Baltimore,MD,
1700 W NORTH AV,Baltimore,MD,
0 MARKET PL,Baltimore,MD,
6400 EASTERN AV,Baltimore,MD,
1900 E LAFAYETTE AV,Baltimore,MD,
3200 E FAIRMOUNT AVE,Baltimore,MD,
3600 W COLD SPRING LA,Baltimore,MD,
4300 PARK HEIGHTS AVE,Baltimore,MD,
6500 ODONNELL ST,Baltimore,MD,
2000 DRUID HILL AV,Baltimore,MD,
1300 HOLLINS ST,Baltimore,MD,
3000 S HANOVER ST,Baltimore,MD,
800 JACK ST,Baltimore,MD,
700 DRUID PK LAKE DR,Baltimore,MD,
0 E 25TH ST,Baltimore,MD,
2700 ASHLAND AV,Baltimore,MD,
2200 E NORTH AV,Baltimore,MD,
900 BENNETT PL,Baltimore,MD,
1800 GWYNNS FALLS PW,Baltimore,MD,
1300 BOYD ST,Baltimore,MD,
1100 S CHARLES ST,Baltimore,MD,
800 WOODBOURNE AV,Baltimore,MD,
4000 EASTERN AV,Baltimore,MD,
3100 BARCLAY ST,Baltimore,MD,
3800 LIBERTY HGTS AV,Baltimore,MD,
300 W SARATOGA ST,Baltimore,MD,
800 N Bentalou,Baltimore,MD,
5600 YORK RD,Baltimore,MD,
5100 BALTO NAT. PI,Baltimore,MD,
400 N PORT ST,Baltimore,MD,
400 N PORT ST,Baltimore,MD,
3500 WOODRING AVE,Baltimore,MD,
2700 JEFFERSON ST,Baltimore,MD,
2200 W FAYETTE ST,Baltimore,MD,
1700 E BIDDLE ST,Baltimore,MD,
500 E LAKE AVE,Baltimore,MD,
200 W READ ST,Baltimore,MD,
4700 PARK HEIGHTS AVE,Baltimore,MD,
2000 MOUNT ROYAL,Baltimore,MD,
2300 ASHLAND AV,Baltimore,MD,
1800 N GAY ST,Baltimore,MD,
900 BRUNSWICK ST,Baltimore,MD,
2000 ROBB ST,Baltimore,MD,
2300 E MONUMENT ST,Baltimore,MD,
2000 MOUNT ROYAL,Baltimore,MD,
3800 W BELVEDERE AV,Baltimore,MD,
3900 PINKNEY RD,Baltimore,MD,
900 S PONCA ST,Baltimore,MD,
900 S PONCA ST,Baltimore,MD,
5600 BIDDISON AV,Baltimore,MD,
4100 EASTMONT AV,Baltimore,MD,
3700 ELDORADO AVE,Baltimore,MD,
1000 COVINGTON ST,Baltimore,MD,
1000 COVINGTON ST,Baltimore,MD,
5500 PARK HEIGHTS AV,Baltimore,MD,
1100 N CHARLES ST,Baltimore,MD,
3700 PARKVIEW AV,Baltimore,MD,
1000 COVINGTON ST,Baltimore,MD,
600 N WOLFE ST,Baltimore,MD,
4100 EASTMONT AV,Baltimore,MD,
2800 BELAIR RD,Baltimore,MD,
5200 FRANKFORD AV,Baltimore,MD,
1500 LOCHWOOD RD,Baltimore,MD,
2800 BELAIR RD,Baltimore,MD,
2800 BELAIR RD,Baltimore,MD,
1500 PARK AV,Baltimore,MD,
400 WATTY CT,Baltimore,MD,
3100 N CALVERT ST,Baltimore,MD,
3100 N CALVERT ST,Baltimore,MD,
3900 DORCHESTER RD,Baltimore,MD,
2500 BELAIR RD,Baltimore,MD,
3900 ERDMAN AV,Baltimore,MD,
1800 APPLETON ST,Baltimore,MD,
2500 E NORTHERN PW,Baltimore,MD,
0 S CARROLLTON AV,Baltimore,MD,
2500 BELAIR RD,Baltimore,MD,
2500 BELAIR RD,Baltimore,MD,
2300 SULGRAVE AV,Baltimore,MD,
2200 CHESTERFIELD AV,Baltimore,MD,
 29 N Smallwood St,Baltimore,MD,
2500 QUANTICO AV,Baltimore,MD,
2600 TOLLEY ST,Baltimore,MD,
2000 GWYNNS FALLS PW,Baltimore,MD,
4200 HARFORD RD,Baltimore,MD,
5300 BOWLEYS LA,Baltimore,MD,
5700 RADECKE AV,Baltimore,MD,
2500 SEABURY RD,Baltimore,MD,
6000 AMBERWOOD RD,Baltimore,MD,
900 N HOWARD ST,Baltimore,MD,
3000 EVERGREEN AV,Baltimore,MD,
1800 UNION AV,Baltimore,MD,
1800 UNION AV,Baltimore,MD,
1800 UNION AV,Baltimore,MD,
1700 E OLIVER ST,Baltimore,MD,
200 E FEDERAL ST,Baltimore,MD,
3600 BUENA VISTA AVE,Baltimore,MD,
300 E PATAPSCO AV,Baltimore,MD,
1300 W BALTIMORE ST,Baltimore,MD,
3600 EASTERN AV,Baltimore,MD,
1400 MONTPELIER ST,Baltimore,MD,
2500 MCCULLOH ST,Baltimore,MD,
3300 KENTUCKY AV,Baltimore,MD,
0 S BROADWAY,Baltimore,MD,
2200 RUSKIN AV,Baltimore,MD,
2200 RUSKIN AVE,Baltimore,MD,
1400 BLOOMFIELD AV,Baltimore,MD,
600 S PONCA ST,Baltimore,MD,
1100 WINSTON AV,Baltimore,MD,
1600 GUILFORD AV,Baltimore,MD,
3100 LIBERTY HGTS AVE,Baltimore,MD,
0 W SARATOGA ST,Baltimore,MD,
600 MOSHER ST,Baltimore,MD,
2600 N HOWARD ST,Baltimore,MD,
500 RICHWOOD AV,Baltimore,MD,
400 PRESSTMAN ST,Baltimore,MD,
4000 PENHURST AV,Baltimore,MD,
2200 BRADDISH AV,Baltimore,MD,
5100 NORTHWOOD DR,Baltimore,MD,
2400 ANNOR CT,Baltimore,MD,
2800 ROUND RD,Baltimore,MD,
1200 GLENEAGLE RD,Baltimore,MD,
1500 MAY CT,Baltimore,MD,
5100 NORTHWOOD DR,Baltimore,MD,
1900 N PULASKI ST,Baltimore,MD,
Harlem Park,Baltimore,MD,
1900 RAMBLEWOOD RD,Baltimore,MD,
3600 OLD YORK RD,Baltimore,MD,
3600 OLD YORK RD,Baltimore,MD,
1000 SAINT DUNSTANS RD,Baltimore,MD,
2300 EUTAW PL,Baltimore,MD,
3000 E FAIRMOUNT AV,Baltimore,MD,
1200 E FAYETTE ST,Baltimore,MD,
1500 E FAYETTE ST,Baltimore,MD,
600 MCCABE AV,Baltimore,MD,
300 N EUTAW ST,Baltimore,MD,
2600 W FAYETTE ST,Baltimore,MD,
5200 HILLWELL RD,Baltimore,MD,
6300 HARFORD RD,Baltimore,MD,
2800 SANTA FE AV,Baltimore,MD,
2600 W FAYETTE ST,Baltimore,MD,
3500 S HANOVER ST,Baltimore,MD,
600 E 33RD ST,Baltimore,MD,
5200 HILLWELL RD,Baltimore,MD,
5200 LOCH RAVEN BD,Baltimore,MD,
3400 ST AMBROSE AV,Baltimore,MD,
5300 BELAIR RD,Baltimore,MD,
700 W SARATOGA ST,Baltimore,MD,
5200 HILLWELL RD,Baltimore,MD,
5200 HILLWELL RD,Baltimore,MD,
2200 WHITTIER AV,Baltimore,MD,
400 W FRANKLIN ST,Baltimore,MD,
4700 EUGENE AV,Baltimore,MD,
3400 BELAIR RD,Baltimore,MD,
2900 AILSA AV,Baltimore,MD,
4500 ERDMAN AVE,Baltimore,MD,
3000 SPAULDING AV,Baltimore,MD,
400 ORLEANS ST,Baltimore,MD,
1400 LOCHNER RD,Baltimore,MD,
4500 ERDMAN AV,Baltimore,MD,
2400 SHIRLEY AV,Baltimore,MD,
2400 FREDERICK AV,Baltimore,MD,
800 N FRANKLINTOWN RD,Baltimore,MD,
100 S CAROLINE ST,Baltimore,MD,
500 N MONTFORD AV,Baltimore,MD,
3100 W NORTH AV,Baltimore,MD,
3300 REISTERSTOWN RD,Baltimore,MD,
1500 ARGYLE AV,Baltimore,MD,
2200 E FAYETTE ST,Baltimore,MD,
1600 MOUNTMOR CT,Baltimore,MD,
600 W LEXINGTON ST,Baltimore,MD,
700 N GRANTLEY ST,Baltimore,MD,
2500 MARBOURNE AV,Baltimore,MD,
400 E BALTIMORE ST,Baltimore,MD,
6600 GARY AV,Baltimore,MD,
100 S BROADWAY,Baltimore,MD,
1200 GLYNDON AV,Baltimore,MD,
4200 SHELDON AV,Baltimore,MD,
0 S CALHOUN ST,Baltimore,MD,
4500 ST THOMAS AV,Baltimore,MD,
4200 PARK HEIGHTS AV,Baltimore,MD,
5600 O DONNELL CUT ST,Baltimore,MD,
3000 ARUNAH AVE,Baltimore,MD,
3400 CARDENAS AV,Baltimore,MD,
400 E BALTIMORE ST,Baltimore,MD,
400 E BALTIMORE ST,Baltimore,MD,
400 CUMMINGS CT,Baltimore,MD,
1000 SARAH ANN ST,Baltimore,MD,
2100 E MONUMENT ST,Baltimore,MD,
1100 ELBANK AVE,Baltimore,MD,
2100 RAMSAY ST,Baltimore,MD,
3800 WOODLEA AV,Baltimore,MD,
1100 PARK AV,Baltimore,MD,
5100 ELMER AV,Baltimore,MD,
1400 EASTERN AV,Baltimore,MD,
2100 W LEXINGTON ST,Baltimore,MD,
5700 BELLE VISTA AV,Baltimore,MD,
100 N STREEPER ST,Baltimore,MD,
1500 PENNSYLVANIA AV,Baltimore,MD,
1100 COVINGTON ST,Baltimore,MD,
4400 FREDERICK AV,Baltimore,MD,
4400 FREDERICK AV,Baltimore,MD,
2100 W LEXINGTON ST,Baltimore,MD,
2000 RAMBLEWOOD RD,Baltimore,MD,
800 RAPPOLLA ST,Baltimore,MD,
FRANKLINTOWN RD & W FAIRMOUNT AV,Baltimore,MD,
1100 WARD ST,Baltimore,MD,
BEECHFIELD AV & AIRY HILL AV,Baltimore,MD,
400 PITMAN PL,Baltimore,MD,
1200 ARMISTEAD WY,Baltimore,MD,
400 E BALTIMORE ST,Baltimore,MD,
5300 GWYNN OAK AVE,Baltimore,MD,
2300 W LAFAYETTE AV,Baltimore,MD,
2100 N FULTON AV,Baltimore,MD,
1200 W PRATT ST,Baltimore,MD,
5300 PARK HEIGHTS AV,Baltimore,MD,
4200 FRANKFORD AV,Baltimore,MD,
5700 MAPLEHILL RD,Baltimore,MD,
1200 N BENTALOU ST,Baltimore,MD,
0 S ANN ST,Baltimore,MD,
5700 MAPLEHILL RD,Baltimore,MD,
2600 DULANY ST,Baltimore,MD,
1200 E NORTH AV,Baltimore,MD,
0 W 22ND ST,Baltimore,MD,
500 E 35TH ST,Baltimore,MD,
3900 THE ALAMEDA,Baltimore,MD,
3600 W COLD SPRING LA,Baltimore,MD,
2400 BRIDGEHAMPTON DR,Baltimore,MD,
4900 GOODNOW RD,Baltimore,MD,
2400 GILES RD,Baltimore,MD,
4000 DUVALL AV,Baltimore,MD,
2500 LIBERTY HGTS AV,Baltimore,MD,
200 S GILMOR ST,Baltimore,MD,
3500 HILLEN RD,Baltimore,MD,
3900 GREENMOUNT AV,Baltimore,MD,
200 NORTH BEND RD,Baltimore,MD,
1600 N WARWICK AV,Baltimore,MD,
2500 E NORTHERN PW,Baltimore,MD,
1300 WILMER CT,Baltimore,MD,
5000 LODESTONE WY,Baltimore,MD,
2000 RIDGEHILL AVE,Baltimore,MD,
1000 S CHARLES ST,Baltimore,MD,
400 DREW ST,Baltimore,MD,
800 SEAGULL AV,Baltimore,MD,
1800 N COLLINGTON AV,Baltimore,MD,
2500 WASHINGTON BD,Baltimore,MD,
700 E 21ST ST,Baltimore,MD,
200 N HIGHLAND AV,Baltimore,MD,
3500 LIBERTY HGTS AV,Baltimore,MD,
1000 WOODSON RD,Baltimore,MD,
3100 LAWNVIEW AV,Baltimore,MD,
1700 E 30TH ST,Baltimore,MD,
1900 E LAFAYETTE AV,Baltimore,MD,
100 N CAROLINE ST,Baltimore,MD,
3400 REISTERSTOWN RD,Baltimore,MD,
1900 N PAYSON ST,Baltimore,MD,
4100 CRANSTON AV,Baltimore,MD,
4400 LA PLATA AV,Baltimore,MD,
400 N CASTLE ST,Baltimore,MD,
300 E MADISON ST,Baltimore,MD,
2900 W COLD SPRING LA,Baltimore,MD,
400 N CASTLE ST,Baltimore,MD,
200 N GREENE ST,Baltimore,MD,
300 E MADISON ST,Baltimore,MD,
5100 PARKSIDE DR,Baltimore,MD,
800 SEAGULL AV,Baltimore,MD,
5000 WRIGHT AV,Baltimore,MD,
0 W 20TH ST,Baltimore,MD,
2600 BEETHOVEN AV,Baltimore,MD,
200 N GREENE ST,Baltimore,MD,
3700 BEEHLER AV,Baltimore,MD,
2300 WHITTIER AV,Baltimore,MD,
2300 WHITTIER AV,Baltimore,MD,
400 W LEXINGTON ST,Baltimore,MD,
800 S PACA ST,Baltimore,MD,
600 N CARROLLTON AV,Baltimore,MD,
2900 EDMONDSON AVE,Baltimore,MD,
2900 EDMONDSON AVE,Baltimore,MD,
1700 N WOLFE ST,Baltimore,MD,
900 MCCULLOH ST,Baltimore,MD,
0 E BALTIMORE ST,Baltimore,MD,
2400 LAKEVIEW AV,Baltimore,MD,
0 S STRICKER ST,Baltimore,MD,
1100 RUSSEL ST,Baltimore,MD,
700 POPLAR GROVE ST,Baltimore,MD,
2500 W PATAPSCO AV,Baltimore,MD,
3300 PULASKI HW,Baltimore,MD,
3300 PULASKI HW,Baltimore,MD,
1100 W SARATOGA ST,Baltimore,MD,
3600 W COLD SPRING LA,Baltimore,MD,
3300 N CHARLES ST,Baltimore,MD,
3400 BELAIR RD,Baltimore,MD,
4100 E LOMBARD ST,Baltimore,MD,
1300 HOMESTEAD ST,Baltimore,MD,
500 RAPPOLLA ST,Baltimore,MD,
3000 SEABURY RD,Baltimore,MD,
3000 SEABURY RD,Baltimore,MD,
3300 GWYNNS FALLS PKWY,Baltimore,MD,
4500 N CHARLES ST,Baltimore,MD,
800 N CHARLES ST,Baltimore,MD,
4400 FRANCONIA DR,Baltimore,MD,
200 S PULASKI ST,Baltimore,MD,
3800 LEWIN AV,Baltimore,MD,
6000 ALTA AV,Baltimore,MD,
1500 PRESSTMAN ST,Baltimore,MD,
2400 BRIDGEHAMPTON DR,Baltimore,MD,
1500 MADISON AV,Baltimore,MD,
500 N PACA ST,Baltimore,MD,
2400 LIBERTY HEIGHTS AVE,Baltimore,MD,
1600 BRUCE CT,Baltimore,MD,
1600 EDISON HW,Baltimore,MD,
4400 KAVON AV,Baltimore,MD,
500 TUNBRIDGE RD,Baltimore,MD,
300 JASPER ST,Baltimore,MD,
1800 E LAFAYETTE AVE,Baltimore,MD,
3100 WYLIE AV,Baltimore,MD,
200 N ELLWOOD AV,Baltimore,MD,
700 PENNSYLVANIA AV,Baltimore,MD,
5000 PULASKI HW,Baltimore,MD,
3200 WALBROOK AV,Baltimore,MD,
900 QUANTRIL WY,Baltimore,MD,
300 HERRING CT,Baltimore,MD,
2900 AILSA AVE,Baltimore,MD,
300 HERRING CT,Baltimore,MD,
1300 PARK AV,Baltimore,MD,
1600 N MILTON AV,Baltimore,MD,
1600 N MILTON AV,Baltimore,MD,
1700 MORELAND AV,Baltimore,MD,
100 DOLPHIN LA,Baltimore,MD,
500 S COLLINGTON AV,Baltimore,MD,
3800 W BELVEDERE AV,Baltimore,MD,
900 E FAYETTE ST,Baltimore,MD,
1400 EASTERN AV,Baltimore,MD,
2800 KENTUCKY AV,Baltimore,MD,
1600 N GILMOR ST,Baltimore,MD,
2000 E 32ND ST,Baltimore,MD,
300 N CALVERT ST,Baltimore,MD,
2400 Wellbridge,Baltimore,MD,
4400 ST THOMAS AV,Baltimore,MD,
6000 AMBERWOOD RD,Baltimore,MD,
1400 N DUKELAND ST,Baltimore,MD,
4300 WABASH AV,Baltimore,MD,
3100 WHITE AV,Baltimore,MD,
5800 PARK HEIGHTS AV,Baltimore,MD,
500 W UNIVERSITY PW,Baltimore,MD,
1300 W NORTHERN PW,Baltimore,MD,
700 APPLETON ST,Baltimore,MD,
5400 RADECKE AV,Baltimore,MD,
0 S HOWARD ST,Baltimore,MD,
800 E 33RD ST,Baltimore,MD,
800 E 33RD ST,Baltimore,MD,
700 N PORT ST,Baltimore,MD,
2900 CLIFTON AV,Baltimore,MD,
500 W 27TH ST,Baltimore,MD,
1300 W 37TH ST,Baltimore,MD,
900 SEAGULL AV,Baltimore,MD,
1300 GLYNDON,Baltimore,MD,
1400 E LOMBARD ST,Baltimore,MD,
2800 THE ALEMEDA,Baltimore,MD,
3200 MERTENS AV,Baltimore,MD,
1200 POPLAR GROVE ST,Baltimore,MD,
3300 EGERTON RD,Baltimore,MD,
400 E 22ND ST,Baltimore,MD,
200 DIENER PL,Baltimore,MD,
1800 PRESSTMAN ST,Baltimore,MD,
4500 GREEN ROSE LA,Baltimore,MD,
700 DRUID PK LAKE DR,Baltimore,MD,
1100 SHIELDS PL,Baltimore,MD,
0 E UNIVERSITY PW,Baltimore,MD,
2800 W FOREST PARK AVE,Baltimore,MD,
GREEN ROSE LA,Baltimore,MD,
HILL RD & DUNDALK AV,Baltimore,MD,
1200 EVESHAM AV,Baltimore,MD,
5400 YORK RD,Baltimore,MD,
3500 ALAMEDA CR,Baltimore,MD,
2400 NEVADA ST,Baltimore,MD,
1500 FERNLEY RD,Baltimore,MD,
100 N LINWOOD AV,Baltimore,MD,
1000 S BOULDIN ST,Baltimore,MD,
300 KANE ST,Baltimore,MD,
400 N PATTERSON PARK AV,Baltimore,MD,
5500 FALLS RD,Baltimore,MD,
1600 RAMSAY ST,Baltimore,MD,
2600 ASHLAND AV,Baltimore,MD,
PRATT ST & S PAYSON ST,Baltimore,MD,
900 DRUID PK LAKE DR,Baltimore,MD,
3400 ANNAPOLIS RD,Baltimore,MD,
2500 VIOLET AV,Baltimore,MD,
4100 W BELVEDERE AV,Baltimore,MD,
5800 REISTERSTOWN RD,Baltimore,MD,
200 W BALTIMORE ST,Baltimore,MD,
400 S POPPLETON ST,Baltimore,MD,
200 E MONUMENT ST,Baltimore,MD,
200 E MONUMENT ST,Baltimore,MD,
200 E MONUMENT ST,Baltimore,MD,
1400 S HANOVER ST,Baltimore,MD,
1100 SARGEANT ST,Baltimore,MD,
600 LAURENS ST,Baltimore,MD,
1900 W NORTH AV,Baltimore,MD,
2700 VIOLET AV,Baltimore,MD,
200 E MONUMENT ST,Baltimore,MD,
1400 BLOOMFIELD AV,Baltimore,MD,
600 LAURENS ST,Baltimore,MD,
2600 EASTERN AVE,Baltimore,MD,
400 DREW ST,Baltimore,MD,
3700 FLEET ST,Baltimore,MD,
600 S NEWKIRK ST,Baltimore,MD,
2000 N PAYSON ST,Baltimore,MD,
5600 THE ALAMEDA,Baltimore,MD,
900 WOODSON RD,Baltimore,MD,
1600 AISQUITH ST,Baltimore,MD,
1800 N PORT ST,Baltimore,MD,
2400 REISTERSTOWN RD,Baltimore,MD,
100 N CLINTON ST,Baltimore,MD,
100 N CLINTON ST,Baltimore,MD,
800 UMBRA ST,Baltimore,MD,
100 N PRESIDENT,Baltimore,MD,
1700 N DALLAS ST,Baltimore,MD,
1500 PENTWOOD RD,Baltimore,MD,
2600 ASHLAND AV,Baltimore,MD,
1200 E LAFAYETTE AV,Baltimore,MD,
4300 REISTERSTOWN RD,Baltimore,MD,
500 HILTON ST,Baltimore,MD,
5400 REISTERSTOWN RD,Baltimore,MD,
400 W LAFAYETTE AV,Baltimore,MD,
4100 FRANKFORD AV,Baltimore,MD,
2100 KOKO LA,Baltimore,MD,
2000 N LONGWOOD ST,Baltimore,MD,
5100 CORDELIA AV,Baltimore,MD,
100 S FAGLEY ST,Baltimore,MD,
100 S FAGLEY ST,Baltimore,MD,
6500 HILLTOP AV,Baltimore,MD,
4000 E BALTIMORE ST,Baltimore,MD,
5300 YORK RD,Baltimore,MD,
800 S PONCA ST,Baltimore,MD,
3700 OVERVIEW RD,Baltimore,MD,
200 N LAKEWOOD AVE,Baltimore,MD,
2800 GRANTLEY AVE,Baltimore,MD,
3700 FALLSTAFF RD,Baltimore,MD,
3700 FALLSTAFF RD,Baltimore,MD,
800 SEAGULL AV,Baltimore,MD,
3400 CLIFTON AV,Baltimore,MD,
1600 CYPRESS ST,Baltimore,MD,
2700 PENNSYLVANIA AV,Baltimore,MD,
2400 WILGREY CT,Baltimore,MD,
1400 HOLBROOK ST,Baltimore,MD,
100 N DECKER AV,Baltimore,MD,
600 W BALTIMORE ST,Baltimore,MD,
ALAMEDA & E 33RD ST,Baltimore,MD,
500 N POTOMAC ST,Baltimore,MD,
4800 FOSTER AV,Baltimore,MD,
3700 FALLSTAFF RD,Baltimore,MD,
800 BETHUNE RD,Baltimore,MD,
5000 IVANHOE AV,Baltimore,MD,
5000 IVANHOE AV,Baltimore,MD,
FAIRVIEW AV,Baltimore,MD,
5600 BIDDISON AV,Baltimore,MD,
3700 FALLSTAFF RD,Baltimore,MD,
2700 W NORTH AV,Baltimore,MD,
700 HOMESTEAD ST,Baltimore,MD,
1500 WARD CT     #APT 104,Baltimore,MD,
4400 BELAIR RD,Baltimore,MD,
4400 BELAIR RD,Baltimore,MD,
700 N AUGUSTA AV,Baltimore,MD,
100 S HIGHLAND AV,Baltimore,MD,
4800 PIMLICO RD,Baltimore,MD,
0 CHERRY HILL RD,Baltimore,MD,
2300 GWYNNS FALLS PW,Baltimore,MD,
1500 DUNDALK AV,Baltimore,MD,
500 N ATHOL AV,Baltimore,MD,
0 COMMERCE ST,Baltimore,MD,
1300 RIGGS AV,Baltimore,MD,
3200 E MONUMENT ST,Baltimore,MD,
2800 ELGIN AV,Baltimore,MD,
2100 W PATAPSCO AV,Baltimore,MD,
100 E EAGER ST,Baltimore,MD,
200 N EUTAW ST,Baltimore,MD,
1900 MCCULLOH ST,Baltimore,MD,
3200 E MONUMENT ST,Baltimore,MD,
400 N EAST AV,Baltimore,MD,
900 N CAROLINE ST,Baltimore,MD,
1300 LAURENS ST,Baltimore,MD,
3900 LIBERTY HGTS AV,Baltimore,MD,
1900 FREDERICK AV,Baltimore,MD,
1500 E MADISON ST,Baltimore,MD,
5300 FRANKFORD AV,Baltimore,MD,
200 S STRICKER ST,Baltimore,MD,
3400 W BELVEDERE AV,Baltimore,MD,
1100 CLEVELAND ST,Baltimore,MD,
5400 SINCLAIR LA,Baltimore,MD,
5700 LOCH RAVEN BD,Baltimore,MD,
1200 E BELVEDERE AV,Baltimore,MD,
1300 LAURENS ST,Baltimore,MD,
Middle East,Baltimore,MD,
3500 SPAULDING AV,Baltimore,MD,
100 N HIGHLAND AV,Baltimore,MD,
600 DUNDALK AV,Baltimore,MD,
600 N ROBINSON ST,Baltimore,MD,
3700 PARK HEIGHTS AVE,Baltimore,MD,
500 N FREMONT AV,Baltimore,MD,
Middle East,Baltimore,MD,
Middle East,Baltimore,MD,
1300 E 33RD ST,Baltimore,MD,
Middle East,Baltimore,MD,
1400 ORLEANS ST,Baltimore,MD,
200 S SPRING CT,Baltimore,MD,
2900 GREENMOUNT AV,Baltimore,MD,
1100 PARK AV,Baltimore,MD,
2300 W Lafayette St,Baltimore,MD,
400 W LOMBARD ST,Baltimore,MD,
400 W LOMBARD ST,Baltimore,MD,
100 S MONROE ST,Baltimore,MD,
200 E HEATH ST,Baltimore,MD,
2700 ROUND RD,Baltimore,MD,
4800 TRUESDALE AV,Baltimore,MD,
900 S CAREY ST,Baltimore,MD,
AV & S EAST AV,Baltimore,MD,
1400 BLOOMFIELD AV,Baltimore,MD,
3400 DILLION ST,Baltimore,MD,
100 S BROADWAY,Baltimore,MD,
2000 CLIFTWOOD AV,Baltimore,MD,
1600 DARLEY AV,Baltimore,MD,
4300 N ROGERS AVE,Baltimore,MD,
3200 PULASKI HW,Baltimore,MD,
0 S EAST AV,Baltimore,MD,
2100 W LEXINGTON ST,Baltimore,MD,
200 AISQUITH ST,Baltimore,MD,
3500 THE ALAMEDA,Baltimore,MD,
1600 GLENEAGLE RD,Baltimore,MD,
3100 PULASKI HW,Baltimore,MD,
5600 ODONNELL ST,Baltimore,MD,
400 N BOULDIN ST,Baltimore,MD,
900 CATOR AV,Baltimore,MD,
4100 POTTER ST,Baltimore,MD,
1500 CARSWELL ST,Baltimore,MD,
2400 ST PAUL ST,Baltimore,MD,
500 N FREMONT AV,Baltimore,MD,
600 ASHBURTON ST,Baltimore,MD,
300 W NORTH AVE,Baltimore,MD,
900 BELGIAN AV,Baltimore,MD,
1000 ST PAUL ST,Baltimore,MD,
1400 BLOOMFIELD AV,Baltimore,MD,
2300 PENTLAND DR,Baltimore,MD,
800 S HIGHLAND AV,Baltimore,MD,
900 E PRATT ST,Baltimore,MD,
1800 BAKER ST,Baltimore,MD,
1800 BAKER ST,Baltimore,MD,
2000 E NORTH AV,Baltimore,MD,
4300 SEMINOLE AV,Baltimore,MD,
4300 SEMINOLE AV,Baltimore,MD,
7200 MCCLEAN BD,Baltimore,MD,
1100 S HANOVER ST,Baltimore,MD,
400 N HIGHLAND AV,Baltimore,MD,
1100 S HANOVER ST,Baltimore,MD,
700 WHARTON CT,Baltimore,MD,
6900 GLENHEIGHTS RD,Baltimore,MD,
100 N LUZERNE AV,Baltimore,MD,
600 N ROSE ST,Baltimore,MD,
600 N ROSE ST,Baltimore,MD,
1500 PENNSYLVANIA AV,Baltimore,MD,
3600 SEVEN MILE LA,Baltimore,MD,
2200 JEFFERSON ST,Baltimore,MD,
1600 VINCENT CT,Baltimore,MD,
1700 APPLETON ST,Baltimore,MD,
200 PARK AV,Baltimore,MD,
2200 JEFFERSON ST,Baltimore,MD,
200 S FRANKLINTOWN RD,Baltimore,MD,
0 S HIGHLAND AVE,Baltimore,MD,
300 S DURHAM ST,Baltimore,MD,
1500 PENTRIDGE RD,Baltimore,MD,
6300 CARDIFF AVE,Baltimore,MD,
4600 PEN LUCY RD,Baltimore,MD,
3500 CHESTERFIELD AV,Baltimore,MD,
2100 W LEXINGTON ST,Baltimore,MD,
100 S BROADWAY,Baltimore,MD,
1500 PENNSYLVANIA AV,Baltimore,MD,
4600 WALLINGTON AV,Baltimore,MD,
4600 CHATFORD AV,Baltimore,MD,
300 S NORRIS ST,Baltimore,MD,
400 BALTIMORE ST,Baltimore,MD,
2200 ROSLYN AV,Baltimore,MD,
3700 W GARRISON AV,Baltimore,MD,
3300 E FAYETTE ST,Baltimore,MD,
2400 PICKERING DR,Baltimore,MD,
3300 KENYON AV,Baltimore,MD,
1100 N BENTALOU ST,Baltimore,MD,
200 W CHASE ST,Baltimore,MD,
2400 LINDEN AV,Baltimore,MD,
AV & AIKEN ST,Baltimore,MD,
2600 BARCLAY ST,Baltimore,MD,
3300 KENYON AVE,Baltimore,MD,
6300 EASTERN AV,Baltimore,MD,
2300 WINCHESTER ST,Baltimore,MD,
400 FAWCETT ST,Baltimore,MD,
800 CLINTWOOD CT,Baltimore,MD,
200 N COLLINGTON AV,Baltimore,MD,
RD & N BROADWAY,Baltimore,MD,
2400 FREDERICK AVE,Baltimore,MD,
2200 W COLD SPRING LA,Baltimore,MD,
2900 BAYONNE AV,Baltimore,MD,
2700 MILES AV,Baltimore,MD,
2500 SALEM ST,Baltimore,MD,
3500 FLEET ST,Baltimore,MD,
2000 GWYNNS FALLS PW,Baltimore,MD,
2900 MALLVIEW RD,Baltimore,MD,
600 S MONROE ST,Baltimore,MD,
400 WATTY CT,Baltimore,MD,
1100 CLEVELAND ST,Baltimore,MD,
1800 RUXTON AV,Baltimore,MD,
4700 EDMONDSON AVE,Baltimore,MD,
900 W FRANKLIN ST,Baltimore,MD,
1800 N DURHAM ST,Baltimore,MD,
1800 N DURHAM ST,Baltimore,MD,
1100 CLOVERDALE RD,Baltimore,MD,
200 W MADISON ST,Baltimore,MD,
1100 BOLTON ST,Baltimore,MD,
5000 TRUESDALE AV,Baltimore,MD,
5000 TRUESDALE AV,Baltimore,MD,
200 HARMISON ST,Baltimore,MD,
2100 BOLTON ST,Baltimore,MD,
4800 PARK HEIGHTS AV,Baltimore,MD,
2300 OCALA AV,Baltimore,MD,
2500 SALEM ST,Baltimore,MD,
4700 GWYNN OAK AV,Baltimore,MD,
300 S FULTON AV,Baltimore,MD,
1000 WILMOT CT,Baltimore,MD,
1700 MONTPELIER ST,Baltimore,MD,
1600 GWYNNS FALLS PW,Baltimore,MD,
2500 W NORTHERN PW,Baltimore,MD,
3700 BEECH AV,Baltimore,MD,
200 N CURLEY ST,Baltimore,MD,
2700 PRESBURY ST,Baltimore,MD,
2100 JEFFERSON ST,Baltimore,MD,
200 N EUTAW ST,Baltimore,MD,
4500 YORK RD,Baltimore,MD,
1000 E LAKE AV,Baltimore,MD,
4800 ODONNELL ST,Baltimore,MD,
300 MASON CT,Baltimore,MD,
1900 BELAIR RD,Baltimore,MD,
2600 LIBERTY HGTS AV,Baltimore,MD,
3000 THORNDALE AVE,Baltimore,MD,
1100 COVINGTON ST,Baltimore,MD,
2700 CHESLEY AV,Baltimore,MD,
1000 W PATAPSCO AV,Baltimore,MD,
2600 JEFFERSON ST,Baltimore,MD,
2200 TUCKER LA,Baltimore,MD,
1000 W FAYETTE ST,Baltimore,MD,
4800 THE ALAMEDA,Baltimore,MD,
100 N PULASKI ST,Baltimore,MD,
200 S BROADWAY,Baltimore,MD,
200 W BALTIMORE ST,Baltimore,MD,
100 KANE ST,Baltimore,MD,
1500 E OLIVER ST,Baltimore,MD,
1200 W NORTHERN PW,Baltimore,MD,
400 S SMALLWOOD ST,Baltimore,MD,
1200 W NORTHERN PW,Baltimore,MD,
1200 W NORTHERN PW,Baltimore,MD,
1200 OAKHURST PL,Baltimore,MD,
1300 GITTINGS AV,Baltimore,MD,
200 S MOUNT ST,Baltimore,MD,
1300 GITTINGS AV,Baltimore,MD,
3800 FREDERICK AV,Baltimore,MD,
1200 W NORTHERN PW,Baltimore,MD,
2400 W NORTH AV,Baltimore,MD,
100 W SARATOGA ST,Baltimore,MD,
1200 OAKHURST PL,Baltimore,MD,
2800 AILSA AV,Baltimore,MD,
4500 HAZELWOOD AV,Baltimore,MD,
5000 MORAVIA RD,Baltimore,MD,
3700 GREENSPRING AV,Baltimore,MD,
1400 RAMSAY ST,Baltimore,MD,
1300 W 36TH ST,Baltimore,MD,
3700 GREENSPRING AV,Baltimore,MD,
2800 PRESBURY ST,Baltimore,MD,
1500 W NORTH AV,Baltimore,MD,
6300 HARFORD RD,Baltimore,MD,
2700 N CALVERT ST,Baltimore,MD,
4900 FRANKFORD AV,Baltimore,MD,
300 W SARATOGA ST,Baltimore,MD,
500 E 35TH ST,Baltimore,MD,
900 SEAGULL AVE,Baltimore,MD,
600 POPLAR GROVE ST,Baltimore,MD,
5500 PARK HEIGHTS AV,Baltimore,MD,
1600 RAMSAY ST,Baltimore,MD,
1100 W CROSS ST,Baltimore,MD,
0 E CROSS ST,Baltimore,MD,
3500 BELAIR RD,Baltimore,MD,
2400 PICKERING DR,Baltimore,MD,
2600 MURA ST,Baltimore,MD,
800 BONAPARTE AV,Baltimore,MD,
900 MARLAU DR,Baltimore,MD,
2300 WHITTIER AV,Baltimore,MD,
2500 MARYLAND AV,Baltimore,MD,
500 N GLOVER ST,Baltimore,MD,
2400 E HOFFMAN ST,Baltimore,MD,
2200 MOUNT ROYAL TR,Baltimore,MD,
5100 CORDELIA AV,Baltimore,MD,
1800 RAMSAY ST,Baltimore,MD,
2700 W PATAPSCO AV,Baltimore,MD,
800 WASHINGTON BLVD,Baltimore,MD,
2400 E MONUMENT ST,Baltimore,MD,
3200 NOWRMONT CT,Baltimore,MD,
1500 WARD CT     #APT 302,Baltimore,MD,
2400 HOMEWOOD AV,Baltimore,MD,
1600 CLIFTVIEW AV,Baltimore,MD,
1600 ASHLAND AV,Baltimore,MD,
900 W LEXINGTON ST,Baltimore,MD,
500 N CURLEY ST,Baltimore,MD,
100 PALORMO AV,Baltimore,MD,
3600 ELMLEY AV,Baltimore,MD,
5600 WOODMONT AV,Baltimore,MD,
5300 EASTBURY AV,Baltimore,MD,
6900 MC CLEAN BD,Baltimore,MD,
1200 CLOVERDALE RD,Baltimore,MD,
400 N LUZERNE AV,Baltimore,MD,
4300 W FORREST PARK AVE,Baltimore,MD,
2500 W NORTH AV,Baltimore,MD,
1400 HAUBERT ST,Baltimore,MD,
1100 W 41ST ST,Baltimore,MD,
2400 EDMONDSON AV,Baltimore,MD,
2100 WHISTLER AV,Baltimore,MD,
4100 CURTIS AV,Baltimore,MD,
1400 HAUBERT ST,Baltimore,MD,
200 MCMECHEN ST,Baltimore,MD,
200 MCMECHEN ST,Baltimore,MD,
1100 N CAREY ST,Baltimore,MD,
1200 CLOVERDALE RD,Baltimore,MD,
100 PALORMO AV,Baltimore,MD,
1600 SPENCE ST,Baltimore,MD,
200 W FAYETTE ST,Baltimore,MD,
3000 THORNDALE AV,Baltimore,MD,
0 MARKET PL,Baltimore,MD,
5000 SINCLAIR LA,Baltimore,MD,
3400 E LOMBARD ST,Baltimore,MD,
1300 DECATUR ST,Baltimore,MD,
4000 ELDORADO AV,Baltimore,MD,
1800 FLEET ST,Baltimore,MD,
3100 SAVOY ST,Baltimore,MD,
3600 CLARKS LA,Baltimore,MD,
1500 N FREMONT AV,Baltimore,MD,
2400 E MONUMENT ST,Baltimore,MD,
1700 ELLAMONT ST,Baltimore,MD,
1800 W FRANKLIN ST,Baltimore,MD,
200 S KRESSON ST,Baltimore,MD,
2400 E LANVALE ST,Baltimore,MD,
3100 SAVOY ST,Baltimore,MD,
100 N CHESTER ST,Baltimore,MD,
0 E LEXINGTON ST,Baltimore,MD,
2400 GARRISON BD,Baltimore,MD,
PAUL ST & E 22ND ST,Baltimore,MD,
2400 ST PAUL ST,Baltimore,MD,
300 W BALTIMORE ST,Baltimore,MD,
1700 FLEET ST,Baltimore,MD,
4200 EUCLID AV,Baltimore,MD,
2700 PULASKI HW,Baltimore,MD,
2100 BOYD ST,Baltimore,MD,
4300 BELAIR RD,Baltimore,MD,
2700 E FAIRMOUNT AV,Baltimore,MD,
0 W 21ST ST,Baltimore,MD,
200 N ROSE ST,Baltimore,MD,
6400 E PRATT ST,Baltimore,MD,
5900 REISTERSTOWN RD,Baltimore,MD,
300 E OLIVER ST,Baltimore,MD,
500 E 38TH ST,Baltimore,MD,
2500 MCCULLOH ST,Baltimore,MD,
2200 PINEWOOD AV,Baltimore,MD,
4800 LORELLY AV,Baltimore,MD,
1500 APPLETON ST,Baltimore,MD,
400 W BALTIMORE ST,Baltimore,MD,
900 W MULBERRY ST,Baltimore,MD,
6600 SNOWBERRY CT,Baltimore,MD,
800 POPLAR GROVE ST,Baltimore,MD,
700 HOMESTEAD ST,Baltimore,MD,
700 HOMESTEAD ST,Baltimore,MD,
1700 N FULTON AV,Baltimore,MD,
4000 OSWEGO CT,Baltimore,MD,
500 ST PAUL PL,Baltimore,MD,
2800 HUNTINGDON AV,Baltimore,MD,
2400 N CHARLES ST,Baltimore,MD,
5800 BELAIR RD,Baltimore,MD,
3400 WOODBROOK AV,Baltimore,MD,
800 N FREMONT AV,Baltimore,MD,
2400 E HOFFMAN ST,Baltimore,MD,
1800 WALBROOK AV,Baltimore,MD,
700 CARROLL ST,Baltimore,MD,
700 CARROLL ST,Baltimore,MD,
700 CARROLL ST,Baltimore,MD,
1900 E LAFAYETTE AV,Baltimore,MD,
5800 BELAIR RD,Baltimore,MD,
RD & E COLD SPRING LA,Baltimore,MD,
3600 POTEE ST,Baltimore,MD,
200 E PRATT ST,Baltimore,MD,
500 N ROBINSON ST,Baltimore,MD,
5600 THE ALAMEDA,Baltimore,MD,
5600 THE ALAMEDA,Baltimore,MD,
5600 THE ALAMEDA,Baltimore,MD,
800 ENSOR ST,Baltimore,MD,
1900 N FULTON AV,Baltimore,MD,
3800 GLEN AV,Baltimore,MD,
3400 ST AMBROSE AV,Baltimore,MD,
4400 REISTERSTOWN RD,Baltimore,MD,
400 E 32ND ST,Baltimore,MD,
400 E 32ND ST,Baltimore,MD,
2500 E CHASE ST,Baltimore,MD,
4400 REISTERSTOWN RD,Baltimore,MD,
700 N DUNCAN ST,Baltimore,MD,
2200 SINCLAIR LA,Baltimore,MD,
0 S CARROLLTON AV,Baltimore,MD,
2201 W Cold Spring Ln,Baltimore,MD,
400 WESTGATE RD,Baltimore,MD,
1700 N FULTON AV,Baltimore,MD,
4100 FAIRVIEW AV,Baltimore,MD,
5900 REISTERSTOWN RD,Baltimore,MD,
600 E 41ST ST,Baltimore,MD,
3200 WASHINGTON BD,Baltimore,MD,
1900 BELAIR RD,Baltimore,MD,
100 S HIGHLAND AV,Baltimore,MD,
200 N SPRING CT,Baltimore,MD,
5400 HARFORD RD,Baltimore,MD,
400 S POPPLETON ST,Baltimore,MD,
700 N BELNORD AV,Baltimore,MD,
1300 GORSUCH AV,Baltimore,MD,
800 ABBOTT CT,Baltimore,MD,
2200 FLEETWOOD AV,Baltimore,MD,
RAVEN BD & E 33RD ST,Baltimore,MD,
RAVEN BD & E 33RD ST,Baltimore,MD,
4200 SHAMROCK AV,Baltimore,MD,
4200 SHAMROCK AV,Baltimore,MD,
400 E LEXINGTON ST,Baltimore,MD,
1000 BRADDISH AV,Baltimore,MD,
1900 BELAIR RD,Baltimore,MD,
1500 MYRTLE AV,Baltimore,MD,
200 N SPRING CT,Baltimore,MD,
1800 WILHELM ST,Baltimore,MD,
2400 BAKER ST,Baltimore,MD,
2900 E EAGER ST,Baltimore,MD,
4200 BERGER AV,Baltimore,MD,
4200 SHAMROCK AV,Baltimore,MD,
800 E HOFFMAN ST,Baltimore,MD,
1700 DARLEY AV,Baltimore,MD,
4200 PIMLICO RD,Baltimore,MD,
3600 LIBERTY HGTS AV,Baltimore,MD,
1000 N BROADWAY,Baltimore,MD,
1900 RIGGS AV,Baltimore,MD,
4200 PIMLICO RD,Baltimore,MD,
4200 PIMLICO RD,Baltimore,MD,
1700 SWANSEA RD,Baltimore,MD,
1700 SWANSEA RD,Baltimore,MD,
2500 E NORTHERN PW,Baltimore,MD,
10 Cherry Hill Rd,Baltimore,MD,
500 S CAROLINE ST,Baltimore,MD,
1300 MCHENRY ST,Baltimore,MD,
100 W HAMBURG ST,Baltimore,MD,
4100 SINCLAIR LA,Baltimore,MD,
5100 PEMBRIDGE AV,Baltimore,MD,
3800 ST MARGARET ST,Baltimore,MD,
100 N LUZERNE AV,Baltimore,MD,
200 S BROADWAY,Baltimore,MD,
800 ASHLAND CT,Baltimore,MD,
2700 ASHLAND AV,Baltimore,MD,
2300 W LEXINGTON ST,Baltimore,MD,
6600 QUAD AV,Baltimore,MD,
800 E 22ND ST,Baltimore,MD,
5200 REISTERSTOWN RD,Baltimore,MD,
AV & LA PLATA AV,Baltimore,MD,
3900 BARRINGTON RD,Baltimore,MD,
800 N KENWOOD AV,Baltimore,MD,
4200 FLOWERTON RD,Baltimore,MD,
300 W SARATOGA ST,Baltimore,MD,
3000 CARLISLE AV,Baltimore,MD,
4100 LABYRINTH RD,Baltimore,MD,
4600 EDMONDSON AV,Baltimore,MD,
2800 ECHODALE AV,Baltimore,MD,
4500 CEDARGARDEN RD,Baltimore,MD,
1600 MCCULLOH ST,Baltimore,MD,
500 HAZLETT AV,Baltimore,MD,
2800 ODONNELL ST,Baltimore,MD,
4300 6TH ST,Baltimore,MD,
300 N HOWARD ST,Baltimore,MD,
3100 REISTERSTOWN RD,Baltimore,MD,
3300 RAVENWOOD AV,Baltimore,MD,
1200 GREENMOUNT AV,Baltimore,MD,
1700 HOMESTEAD ST,Baltimore,MD,
4100 BELAIR RD,Baltimore,MD,
2200 KLOMAN ST,Baltimore,MD,
3000 W NORTH AV,Baltimore,MD,
200 N FULTON AV,Baltimore,MD,
1800 APPLETON ST,Baltimore,MD,
1800 APPLETON ST,Baltimore,MD,
4100 BELAIR RD,Baltimore,MD,
6500 HARFORD RD,Baltimore,MD,
4000 KATHLAND AV,Baltimore,MD,
1300 HERKIMER ST,Baltimore,MD,
4700 GLENARM AV,Baltimore,MD,
900 N FULTON AV,Baltimore,MD,
5800 REISTERSTOWN RD,Baltimore,MD,
5600 THE ALAMEDA,Baltimore,MD,
3900 PARKVIEW AV,Baltimore,MD,
700 LENNOX ST,Baltimore,MD,
5600 CADILLAC AV,Baltimore,MD,
2000 GWYNNS FALLS PW,Baltimore,MD,
100 S Central Av,Baltimore,MD,
300 S FULTON AVE,Baltimore,MD,
2200 W COLD SPRING LA,Baltimore,MD,
2300 N CHARLES ST,Baltimore,MD,
4200 KENSHAW AV,Baltimore,MD,
5000 CORLEY RD,Baltimore,MD,
2100 GREENMOUNT AVE,Baltimore,MD,
2500 MARBOURNE AV,Baltimore,MD,
3400 LEVERTON AV,Baltimore,MD,
4900 EASTERN AV,Baltimore,MD,
3400 LEVERTON AV,Baltimore,MD,
0 E BALTIMORE ST,Baltimore,MD,
1800 N CHARLES ST,Baltimore,MD,
1900 N COLLINGTON AV,Baltimore,MD,
5500 GWYNN OAK AV,Baltimore,MD,
5500 GWYNN OAK AV,Baltimore,MD,
5500 GWYNN OAK AV,Baltimore,MD,
1400 S HANOVER ST,Baltimore,MD,
700 BARTLETT AV,Baltimore,MD,
1100 CLEVELAND ST,Baltimore,MD,
1000 WOODSON RD,Baltimore,MD,
5700 WINTHROPE AV,Baltimore,MD,
4000 HILTON RD,Baltimore,MD,
300 E PATAPSCO AV,Baltimore,MD,
1900 BARCLAY ST,Baltimore,MD,
3500 EDMONDSON AV,Baltimore,MD,
0 N HOWARD ST,Baltimore,MD,
3300 GREENMOUNT AV,Baltimore,MD,
700 N KENWOOD AV,Baltimore,MD,
5500 THE ALAMEDA,Baltimore,MD,
3300 CARLISLE AV,Baltimore,MD,
3300 CARLISLE AV,Baltimore,MD,
1800 PRESSTMAN ST,Baltimore,MD,
500 N ELLWOOD AV,Baltimore,MD,
6400 REISTERSTOWN RD,Baltimore,MD,
6400 REISTERSTOWN RD,Baltimore,MD,
2100 N FULTON AV,Baltimore,MD,
1600 CHERRY ST,Baltimore,MD,
1900 Argonne Dr,Baltimore,MD,
2400 HARRIET AVE,Baltimore,MD,
2200 PINEWOOD AVE,Baltimore,MD,
4800 PIMLICO RD,Baltimore,MD,
1600 ARGONNE DR,Baltimore,MD,
3900 5TH ST,Baltimore,MD,
300 W BALTIMORE ST,Baltimore,MD,
5500 WESLEY AV,Baltimore,MD,
300 N CAREY ST,Baltimore,MD,
HILTON ST & CARLISLE AV,Baltimore,MD,
200 SILVER CT,Baltimore,MD,
800 ABBOTT CT,Baltimore,MD,
300 N HILTON ST,Baltimore,MD,
1100 ENSOR ST,Baltimore,MD,
2300 LIBERTY HGTS AV,Baltimore,MD,
200 S REGESTER ST,Baltimore,MD,
200 S REGESTER ST,Baltimore,MD,
200 S REGESTER ST,Baltimore,MD,
2100 WASHINGTON BD,Baltimore,MD,
3000 ST PAUL ST,Baltimore,MD,
1500 N MILTON AV,Baltimore,MD,
1000 N MOUNT ST,Baltimore,MD,
1500 COLE ST,Baltimore,MD,
4100 CENTURY RD,Baltimore,MD,
800 W LOMBARD ST,Baltimore,MD,
100 W HAMBURG ST,Baltimore,MD,
1100 CHERRY HILL RD,Baltimore,MD,
AV & N BENTALOU ST,Baltimore,MD,
3500 HILLEN RD,Baltimore,MD,
1100 MOSHER ST,Baltimore,MD,
0 S FULTON AV,Baltimore,MD,
1300 GREENMOUNT AV,Baltimore,MD,
1000 S CHARLES ST,Baltimore,MD,
6500 ARMSTRONG AV,Baltimore,MD,
5500 THE ALAMEDA,Baltimore,MD,
3400 EDMONDSON AVE,Baltimore,MD,
0 S FULTON AV,Baltimore,MD,
2000 ORLEANS ST,Baltimore,MD,
600 N CHAPELGATE LA,Baltimore,MD,
1700 E NORTH AVE,Baltimore,MD,
2500 W LAFAYETTE AV,Baltimore,MD,
2900 LIBERTY HGTS AV,Baltimore,MD,
500 N ELLWOOD AV,Baltimore,MD,
200 N CURLEY ST,Baltimore,MD,
2000 N FULTON AV,Baltimore,MD,
2800 MAYFIELD AV,Baltimore,MD,
1600 N CAROLINE ST,Baltimore,MD,
4000 ELDERON AV,Baltimore,MD,
1500 RAMBLEWOOD RD,Baltimore,MD,
200 N CASTLE ST,Baltimore,MD,
2900 HUNTINGDON AV,Baltimore,MD,
2500 FRANCIS ST,Baltimore,MD,
1800 DRUID HILL AV,Baltimore,MD,
2500 WASHINGTON BD,Baltimore,MD,
2800 W LANVALE ST,Baltimore,MD,
1200 E COLD SPRING LA,Baltimore,MD,
1200 GLENHAVEN RD,Baltimore,MD,
1200 GLENHAVEN RD,Baltimore,MD,
600 CHERRY HILL RD,Baltimore,MD,
6000 BELAIR RD,Baltimore,MD,
1000 DARTMOUTH GLEN WY,Baltimore,MD,
3000 VINEYARD LA,Baltimore,MD,
4900 PARK HEIGHTS AVE,Baltimore,MD,
6000 BELAIR RD,Baltimore,MD,
4100 HILLEN RD,Baltimore,MD,
3000 JEFFERSON ST,Baltimore,MD,
900 N PATTERSON PARK AVE,Baltimore,MD,
3500 REISTERSTOWN RD,Baltimore,MD,
1000 N WOLFE ST,Baltimore,MD,
6000 AMBERWOOD RD,Baltimore,MD,
2800 GATEHOUSE DR,Baltimore,MD,
1300 N CAREY ST,Baltimore,MD,
1000 E NORTH AV,Baltimore,MD,
0 S BROADWAY,Baltimore,MD,
6000 BELAIR RD,Baltimore,MD,
2500 HOLLINS ST,Baltimore,MD,
1200 LINWORTH AV,Baltimore,MD,
3300 PULASKI HWY,Baltimore,MD,
2900 ODONNELL ST,Baltimore,MD,
NORTH AV & BLOOMINGDALE RD,Baltimore,MD,
400 S CONKLING ST,Baltimore,MD,
200 E 27TH ST,Baltimore,MD,
1600 BRUCE CT,Baltimore,MD,
700 CATOR AV,Baltimore,MD,
300 S CONKLING ST,Baltimore,MD,
2400 E NORTH AVE,Baltimore,MD,
800 BETHUNE RD,Baltimore,MD,
800 E FORT AV,Baltimore,MD,
2600 WILKENS AVE,Baltimore,MD,
1400 N LAKEWOOD AV,Baltimore,MD,
2100 ST PAUL ST,Baltimore,MD,
6500 FRANKFORD AV,Baltimore,MD,
400 S BENTALOU ST,Baltimore,MD,
100 S GAY ST,Baltimore,MD,
500 WALKER AV,Baltimore,MD,
1200 N CALAVERT ST,Baltimore,MD,
200 N CULVER ST,Baltimore,MD,
2900 GUILFORD AV,Baltimore,MD,
5500 RICHARD AV,Baltimore,MD,
500 N EAST AV,Baltimore,MD,
500 N EAST AV,Baltimore,MD,
3500 W BELVEDERE AV,Baltimore,MD,
2200 ANNAPOLIS RD,Baltimore,MD,
600 POPLAR GROVE ST,Baltimore,MD,
1300 E LAFAYETTE AV,Baltimore,MD,
1100 RAMBLEWOOD RD,Baltimore,MD,
500 WASHINGTON BD,Baltimore,MD,
600 E 27TH ST,Baltimore,MD,
1800 WADSWORTH WY,Baltimore,MD,
1100 RAMBLEWOOD RD,Baltimore,MD,
1700 W NORTH AV,Baltimore,MD,
600 E PATAPSCO AV,Baltimore,MD,
1300 ORLEANS ST,Baltimore,MD,
200 N SPRING CT,Baltimore,MD,
1200 PINE HEIGHTS AV,Baltimore,MD,
1400 E FAYETTE ST,Baltimore,MD,
2500 GREENMOUNT AVE,Baltimore,MD,
400 E 32ND ST,Baltimore,MD,
400 E 32ND ST,Baltimore,MD,
2500 FREDERICK AV,Baltimore,MD,
1900 GREENMOUNT AV,Baltimore,MD,
4500 EDMONDSON AVE,Baltimore,MD,
3400 CLIFTON AV,Baltimore,MD,
2500 GARRISON BD,Baltimore,MD,
3800 8TH ST,Baltimore,MD,
4900 WINDSOR MILL RD,Baltimore,MD,
2900 W COLD SPRING LA,Baltimore,MD,
800 E BALTIMORE ST,Baltimore,MD,
2300 E NORTHERN PW,Baltimore,MD,
1700 CHERRY HILL RD,Baltimore,MD,
400 ROUNDVIEW RD,Baltimore,MD,
3800 8TH ST,Baltimore,MD,
3800 8TH ST,Baltimore,MD,
3800 8TH ST,Baltimore,MD,
3800 8TH ST,Baltimore,MD,
5900 ST REGIS RD,Baltimore,MD,
2500 GARRISON BD,Baltimore,MD,
900 W LEXINGTON ST,Baltimore,MD,
1900 N COLLINGTON AV,Baltimore,MD,
2800 N DUKELAND ST,Baltimore,MD,
3500 WABASH AV,Baltimore,MD,
5800 REISTERSTOWN RD,Baltimore,MD,
2000 E MONUMENT ST,Baltimore,MD,
300 MILLINGTON AV,Baltimore,MD,
6300 YORK RD,Baltimore,MD,
5000 DENMORE AV,Baltimore,MD,
300 GWYNN AV,Baltimore,MD,
300 GWYNN AV,Baltimore,MD,
1500 E 33RD ST,Baltimore,MD,
1600 E BELVEDERE AVE,Baltimore,MD,
3700 GREENSPRING AV,Baltimore,MD,
1100 E NORTHERN PW,Baltimore,MD,
1200 GITTINGS AV,Baltimore,MD,
3700 GREENSPRING AV,Baltimore,MD,
3700 GREENSPRING AV,Baltimore,MD,
600 TUNBRIDGE RD,Baltimore,MD,
2100 BOSTON ST,Baltimore,MD,
3400 E BALTIMORE ST,Baltimore,MD,
2900 HARFORD RD,Baltimore,MD,
2100 TUCKER LA,Baltimore,MD,
100 NORTH BEND RD,Baltimore,MD,
1900 N BROADWAY,Baltimore,MD,
2700 SEAMON AV,Baltimore,MD,
2000 ALICEANNA ST,Baltimore,MD,
5000 CRENSHAW AV,Baltimore,MD,
1100 WOODHEIGHTS AV,Baltimore,MD,
1000 N PATTERSON PK AV,Baltimore,MD,
LOMBARD ST & S EDEN ST,Baltimore,MD,
5600 SEFTON AV,Baltimore,MD,
1800 WILKENS AV,Baltimore,MD,
0 N GILMORE ST,Baltimore,MD,
400 E BALTIMORE ST,Baltimore,MD,
600 HOMESTEAD ST,Baltimore,MD,
4200 CURTIS AV,Baltimore,MD,
2200 E FAYETTE ST,Baltimore,MD,
100 N BROADWAY,Baltimore,MD,
3100 E MONUMENT ST,Baltimore,MD,
200 S BROADWAY,Baltimore,MD,
800 DUNDALK AV,Baltimore,MD,
1800 MOSHER ST,Baltimore,MD,
1800 MOSHER ST,Baltimore,MD,
1800 MOSHER ST,Baltimore,MD,
2000 W PRATT ST,Baltimore,MD,
200 S BROADWAY,Baltimore,MD,
3400 MARY AV,Baltimore,MD,
0 N GILMOR ST,Baltimore,MD,
1100 WHITMORE AV,Baltimore,MD,
2500 WASHINGTON BD,Baltimore,MD,
5100 RAINTREE WY,Baltimore,MD,
400 FAWCETT ST,Baltimore,MD,
2400 E LANVALE ST,Baltimore,MD,
100 W FAYETTE ST,Baltimore,MD,
300 N PACA ST,Baltimore,MD,
600 THE FALLSWAY,Baltimore,MD,
4800 YELLOWWOOD AV,Baltimore,MD,
1000 HARGROVE AL,Baltimore,MD,
1600 E 32ND ST,Baltimore,MD,
1700 N FULTON AV,Baltimore,MD,
3800 EASTERN AV,Baltimore,MD,
3900 W BELVEDERE AV,Baltimore,MD,
600 N CAROLINE ST,Baltimore,MD,
1500 W LEXINGTON ST,Baltimore,MD,
100 S CULVER ST,Baltimore,MD,
100 S CULVER ST,Baltimore,MD,
5900 EDNA AV,Baltimore,MD,
4400 PIMLICO RD,Baltimore,MD,
700 N CHARLES ST,Baltimore,MD,
4800 ERDMAN AV,Baltimore,MD,
1700 EASTERN AV,Baltimore,MD,
2400 EDMONDSON AV,Baltimore,MD,
4800 BEAUFORT AVE,Baltimore,MD,
100 S CULVER ST,Baltimore,MD,
600 E FAYETTE ST,Baltimore,MD,
100 S CULVER ST,Baltimore,MD,
1700 E NORTHERN PW,Baltimore,MD,
2100 TUCKER LA,Baltimore,MD,
700 THE FALLSWAY,Baltimore,MD,
2900 WYLIE AVE,Baltimore,MD,
2000 E MONUMENT ST,Baltimore,MD,
1900 E MADISON ST,Baltimore,MD,
700 ROUNDVIEW RD,Baltimore,MD,
2300 Preston St,Baltimore,MD,
600 CHERRY HILL RD,Baltimore,MD,
1600 W LEXINGTON ST,Baltimore,MD,
100 N CURLEY ST,Baltimore,MD,
100 ST PAUL ST,Baltimore,MD,
2600 LOYOLA NORTHW,Baltimore,MD,
6100 SHIPVIEW WY,Baltimore,MD,
200 S HIGHLAND AV,Baltimore,MD,
200 S HIGHLAND AV,Baltimore,MD,
100 W MADISON ST,Baltimore,MD,
3300 ANNAPOLIS RD,Baltimore,MD,
4100 4TH ST,Baltimore,MD,
1500 ARGONNE DR,Baltimore,MD,
2500 W FOREST PARK AV,Baltimore,MD,
3000 HARFORD RD,Baltimore,MD,
900 DANTREY CT,Baltimore,MD,
800 N MONROE ST,Baltimore,MD,
4400 MARBLE HALL RD,Baltimore,MD,
5100 PARK HEIGHTS AV,Baltimore,MD,
3500 WOODBROOK AVE,Baltimore,MD,
800 N MONROE ST,Baltimore,MD,
700 PARK AVE,Baltimore,MD,
3000 HARFORD RD,Baltimore,MD,
300 W BALTIMORE ST,Baltimore,MD,
2000 Mulberry St,Baltimore,MD,
700 GLENWOOD AV,Baltimore,MD,
700 E COLD SPRING LA,Baltimore,MD,
3800 TIVOLY AV,Baltimore,MD,
5000 FREDERICK AV,Baltimore,MD,
600 DUMBARTON AV,Baltimore,MD,
900 ST DUNSTANS RD,Baltimore,MD,
2600 HARLEM AV,Baltimore,MD,
6100 FORTVIEW WY,Baltimore,MD,
900 N CHARLES ST,Baltimore,MD,
1500 W BALTIMORE ST,Baltimore,MD,
900 SAINT DUNSTANS RD,Baltimore,MD,
500 EVERGREEN ST,Baltimore,MD,
4200 PIMLICO RD,Baltimore,MD,
5100 RAINTREE WY,Baltimore,MD,
2600 ULMAN AV,Baltimore,MD,
3200 THE ALAMEDA,Baltimore,MD,
3600 ASH ST,Baltimore,MD,
3400 CLIFTON AV,Baltimore,MD,
3400 CLIFTON AVE,Baltimore,MD,
6100 FORTVIEW WY,Baltimore,MD,
6300 EASTERN AV,Baltimore,MD,
100 N MONTFORD AV,Baltimore,MD,
6300 FORTVIEW WAY,Baltimore,MD,
2500 BOARMAN AV,Baltimore,MD,
1800 ST PAUL ST,Baltimore,MD,
300 W CAMDEN ST,Baltimore,MD,
1500 E 33RD ST,Baltimore,MD,
900 EDMONDSON AVE,Baltimore,MD,
4000 HILTON RD,Baltimore,MD,
3800 RAVENWOOD AV,Baltimore,MD,
1200 LINWORTH AV,Baltimore,MD,
5000 SINCLAIR LA,Baltimore,MD,
100 S BROADWAY,Baltimore,MD,
2800 ROSALIND AVE,Baltimore,MD,
5300 MORAVIA RD,Baltimore,MD,
100 S BROADWAY,Baltimore,MD,
4500 PARKTON ST,Baltimore,MD,
2800 VIRGINIA AV,Baltimore,MD,
3700 GREENSPRING AV,Baltimore,MD,
2700 SEAMON AV,Baltimore,MD,
1500 LANHORNE CT,Baltimore,MD,
3100 SWAN DR,Baltimore,MD,
6400 ELRAY DR,Baltimore,MD,
3500 ESTHER PL,Baltimore,MD,
1300 KEY HWY,Baltimore,MD,
3600 10TH ST,Baltimore,MD,
1000 ARION PARK RD,Baltimore,MD,
4800 BEAUFORT AV,Baltimore,MD,
4200 PIMLICO RD,Baltimore,MD,
1100 STODDARD CT,Baltimore,MD,
0 E 27TH ST,Baltimore,MD,
2700 MARBOURNE AV,Baltimore,MD,
1600 JOPLIN ST,Baltimore,MD,
300 W PRESTON ST,Baltimore,MD,
5700 CEDONIA AV,Baltimore,MD,
400 N MILTON AV,Baltimore,MD,
4900 HARFORD RD,Baltimore,MD,
3400 GRANADA AV,Baltimore,MD,
1500 HARLEM AV,Baltimore,MD,
5200 CORDELIA AVE,Baltimore,MD,
300 E MADISON ST,Baltimore,MD,
5100 YORK RD,Baltimore,MD,
1700 DARLEY AV,Baltimore,MD,
2800 W NORTH AVE,Baltimore,MD,
5000 READY AV,Baltimore,MD,
1800 PENROSE AV,Baltimore,MD,
4600 FALLS RD,Baltimore,MD,
4600 FALLS RD,Baltimore,MD,
600 S STREEPER ST,Baltimore,MD,
2200 GARRISON BLVD,Baltimore,MD,
100 KANE ST,Baltimore,MD,
1200 FRAILEY WY,Baltimore,MD,
1200 FRAILEY WY,Baltimore,MD,
700 WASHINGTON BD,Baltimore,MD,
2400 ORLEANS ST,Baltimore,MD,
700 NOTTINGHAM RD,Baltimore,MD,
400 S BENTALOU ST,Baltimore,MD,
2600 GROGAN AV,Baltimore,MD,
1200 FRAILEY WY,Baltimore,MD,
4500 DERBY MANOR DR,Baltimore,MD,
PRATT ST & S PAYSON ST,Baltimore,MD,
DR & E NORTHERN PW,Baltimore,MD,
6100 NORTHWOOD DR,Baltimore,MD,
0 ST PAUL ST,Baltimore,MD,
100 S PACA ST,Baltimore,MD,
900 HENRY ST,Baltimore,MD,
900 HENRY ST,Baltimore,MD,
100 S SCHROEDER ST,Baltimore,MD,
2700 MARYLAND AV,Baltimore,MD,
1400 BERRY ST,Baltimore,MD,
PATAPSCO AV & 4TH ST,Baltimore,MD,
1900 HOLLINS ST,Baltimore,MD,
1000 HOLLINS ST,Baltimore,MD,
5800 EASTERN AV,Baltimore,MD,
HENRY ST & S NORRIS ST,Baltimore,MD,
2700 E BALTIMORE ST,Baltimore,MD,
1900 N PULASKI ST,Baltimore,MD,
1900 N PULASKI ST,Baltimore,MD,
4700 FREDERICK AV,Baltimore,MD,
300 N CARROLLTON AV,Baltimore,MD,
5000 DICKEY HILL RD,Baltimore,MD,
5400 PARK HEIGHTS AV,Baltimore,MD,
5200 BEAUFORT AV,Baltimore,MD,
2600 W FAYETTE ST,Baltimore,MD,
200 S SPRING CT,Baltimore,MD,
HENRY ST & S NORRIS ST,Baltimore,MD,
1400 UNION AVE,Baltimore,MD,
300 N EUTAW ST,Baltimore,MD,
1900 E LAFAYETTE AV,Baltimore,MD,
1200 LINWORTH AVE APT 1B,Baltimore,MD,
3500 W ROGERS AV,Baltimore,MD,
1000 N HOWARD ST,Baltimore,MD,
400 N MONTFORD AVE,Baltimore,MD,
2000 EDGEWOOD ST,Baltimore,MD,
5900 BELAIR RD,Baltimore,MD,
1100 N FULTON AV,Baltimore,MD,
2600 N CHARLES ST,Baltimore,MD,
RD & W 41ST ST,Baltimore,MD,
4700 PULASKI HW,Baltimore,MD,
2600 NORLAND RD,Baltimore,MD,
1300 N GILMOR ST,Baltimore,MD,
400 S SMALLWOOD ST,Baltimore,MD,
900 WOODSON RD,Baltimore,MD,
5400 CEDONIA AV,Baltimore,MD,
3200 THE ALAMEDA,Baltimore,MD,
4400 MARBLE HALL RD,Baltimore,MD,
3700 W COLD SPRING LA,Baltimore,MD,
5100 NELSON AV,Baltimore,MD,
0 N STOCKTON ST,Baltimore,MD,
200 HERRING CT,Baltimore,MD,
5400 CEDONIA AV,Baltimore,MD,
1800 MANSION HOUSE DR,Baltimore,MD,
1200 W CROSS ST,Baltimore,MD,
3300 BELAIR RD,Baltimore,MD,
4000 BIDDISON LN,Baltimore,MD,
1800 MANSION HOUSE DR,Baltimore,MD,
1600 PLUM ST,Baltimore,MD,
1700 W NORTH AV,Baltimore,MD,
3000 MALLVIEW RD,Baltimore,MD,
800 ST PAUL ST,Baltimore,MD,
400 N PATTERSON PK AV,Baltimore,MD,
1000 WOODSON RD,Baltimore,MD,
2400 DRUID HILL AV,Baltimore,MD,
6500 FRANKFORD AV,Baltimore,MD,
4100 MARIBAN CT,Baltimore,MD,
100 N AMITY ST,Baltimore,MD,
400 E 28TH ST,Baltimore,MD,
5100 YORK RD,Baltimore,MD,
400 E 28TH ST,Baltimore,MD,
4300 PENNINGTON AV,Baltimore,MD,
1500 ABBOTSTON ST,Baltimore,MD,
2800 KIRK AV,Baltimore,MD,
2700 MOSHER ST,Baltimore,MD,
3100 CEDARHURST RD,Baltimore,MD,
300 N FULTON AV,Baltimore,MD,
2300 MARYLAND AV,Baltimore,MD,
400 N HOWARD ST,Baltimore,MD,
6000 MORAVIA RD,Baltimore,MD,
4300 PENNINGTON AV,Baltimore,MD,
500 NORMANDY AV,Baltimore,MD,
2000 WILHELM ST,Baltimore,MD,
2400 W NORTH AV,Baltimore,MD,
1600 CLIFTVIEW AV,Baltimore,MD,
3400 LEVERTON AV,Baltimore,MD,
2400 FLEET ST,Baltimore,MD,
3800 WEST BAY AV,Baltimore,MD,
2700 N ROSEDALE ST,Baltimore,MD,
300 S BEECHFIELD AV,Baltimore,MD,
1200 BROENING HW,Baltimore,MD,
400 MANSE CT,Baltimore,MD,
100 N LIBERTY ST,Baltimore,MD,
2700 N ROSEDALE ST,Baltimore,MD,
4500 HAMILTON AV,Baltimore,MD,
5600 LAURELTON AV,Baltimore,MD,
2400 BELAIR RD,Baltimore,MD,
900 SEAGULL AV,Baltimore,MD,
3700 5TH ST,Baltimore,MD,
4000 1/2  N ROGERS AV,Baltimore,MD,
5200 GOODNOW RD,Baltimore,MD,
3700 OLD YORK RD,Baltimore,MD,
1500 W LAFAYETTE AV,Baltimore,MD,
6800 MCCLEAN BD,Baltimore,MD,
2500 HAMILTON AV,Baltimore,MD,
900 N WASHINGTON ST,Baltimore,MD,
AV & FORCE RD,Baltimore,MD,
1500 PENNSYLVANIA AV,Baltimore,MD,
900 PARK AV,Baltimore,MD,
2000 WASHINGTON BD,Baltimore,MD,
2500 W NORTH AV,Baltimore,MD,
100 S BROADWAY,Baltimore,MD,
0 W BALTIMORE ST,Baltimore,MD,
0 W BALTIMORE ST,Baltimore,MD,
1600 BAKER ST,Baltimore,MD,
100 W CHASE ST,Baltimore,MD,
2600 OSWEGO AV,Baltimore,MD,
1400 E MADISON ST,Baltimore,MD,
1700 N FULTON AV,Baltimore,MD,
200 N MONROE ST,Baltimore,MD,
100 N KOSSUTH ST,Baltimore,MD,
1300 RIGGS AV,Baltimore,MD,
300 S BEECHFIELD AV,Baltimore,MD,
200 N EUTAW ST,Baltimore,MD,
3300 DORITHAN RD,Baltimore,MD,
300 W LANVALE ST,Baltimore,MD,
5300 LIBERTY HGTS AV,Baltimore,MD,
200 N MONROE ST,Baltimore,MD,
200 N BENTALOU ST,Baltimore,MD,
1300 W LAFAYETTE AV,Baltimore,MD,
2500 E MONUMENT ST,Baltimore,MD,
200 NORTH BEND RD,Baltimore,MD,
200 N BENTALOU ST,Baltimore,MD,
200 N BENTALOU ST,Baltimore,MD,
5000 SINCLAIR LA,Baltimore,MD,
200 N BENTALOU ST,Baltimore,MD,
500 W PRESTON ST,Baltimore,MD,
2400 N CHARLES ST,Baltimore,MD,
1600 PENNSYLVANIA AV,Baltimore,MD,
5000 SINCLAIR LA,Baltimore,MD,
1400 E PRATT ST,Baltimore,MD,
2600 GWYNNS FALLS PKWY,Baltimore,MD,
900 E PATAPSCO AV,Baltimore,MD,
200 N GREENE ST,Baltimore,MD,
400 E 25TH ST,Baltimore,MD,
5400 HARFORD RD,Baltimore,MD,
3000 OAKLEY AV,Baltimore,MD,
4900 CRENSHAW AVE,Baltimore,MD,
2900 E FAYETTE ST,Baltimore,MD,
2900 E FAYETTE ST,Baltimore,MD,
700 ALLENDALE ST,Baltimore,MD,
3600 CROSSLAND AVE,Baltimore,MD,
2000 N WOLFE ST,Baltimore,MD,
4700 YORK RD,Baltimore,MD,
300 DAVIS ST,Baltimore,MD,
200 S MONROE ST,Baltimore,MD,
1900 W FAIRMOUNT AVE,Baltimore,MD,
2000 N WOLFE ST,Baltimore,MD,
700 E 41ST ST,Baltimore,MD,
2000 GWYNNS FALLS PW,Baltimore,MD,
1600 N SMALLWOOD ST,Baltimore,MD,
6000 HARFORD RD,Baltimore,MD,
1400 BLOOMFIELD AV,Baltimore,MD,
300 BLOOM ST,Baltimore,MD,
4900 PARKTON CT,Baltimore,MD,
2800 EDGECOMBE CR,Baltimore,MD,
4500 REISTERSTOWN RD,Baltimore,MD,
2100 HAINES ST,Baltimore,MD,
900 WOODSON RD,Baltimore,MD,
0 S JANNEY ST,Baltimore,MD,
0 SAINT PAUL ST,Baltimore,MD,
100 S MOUNT ST,Baltimore,MD,
400 W LEXINGTON ST,Baltimore,MD,
0 SAINT PAUL ST,Baltimore,MD,
2600 JEFFERSON ST,Baltimore,MD,
1200 E BELVEDERE AV,Baltimore,MD,
200 S DURHAM ST,Baltimore,MD,
2800 ROSLYN AVE,Baltimore,MD,
5500 HADDON AV,Baltimore,MD,
500 E NORTHERN PW,Baltimore,MD,
5600 LOCH RAVEN BD,Baltimore,MD,
3400 BELAIR RD,Baltimore,MD,
5700 NEWHOLME AV,Baltimore,MD,
3300 BRIGHTON ST,Baltimore,MD,
2800 EDGECOMBE CR N,Baltimore,MD,
5200 FRANKFORD AV,Baltimore,MD,
300 LIGHT ST,Baltimore,MD,
1800 ORLEANS ST,Baltimore,MD,
3300 REISTERSTOWN RD,Baltimore,MD,
3500 MOUNT PLEASANT AVE,Baltimore,MD,
0 LIGHT ST,Baltimore,MD,
3000 CHELSEA TR,Baltimore,MD,
3400 CLIFTON AV,Baltimore,MD,
400 HOMELAND AV,Baltimore,MD,
1600 EUTAW PL,Baltimore,MD,
2500 FEDERAL ST,Baltimore,MD,
4800 PIMLICO RD,Baltimore,MD,
1700 W FRANKLIN ST,Baltimore,MD,
1300 N WOODINGTON RD,Baltimore,MD,
3900 WABASH AV,Baltimore,MD,
3900 WABASH AV,Baltimore,MD,
500 DUNDALK AV,Baltimore,MD,
2500 ARUNAH AVE,Baltimore,MD,
5900 WESTERN RUN DR APT C,Baltimore,MD,
900 W SARATOGA ST,Baltimore,MD,
600 LINNARD ST,Baltimore,MD,
3500 W CATON AV,Baltimore,MD,
800 E MADISON ST,Baltimore,MD,
1200 N LONGWOOD ST,Baltimore,MD,
100 W FAYETTE ST,Baltimore,MD,
4100 WOODHAVEN AV,Baltimore,MD,
600 W LEXINGTON ST,Baltimore,MD,
2700 E EAGER ST,Baltimore,MD,
1500 STONEWOOD RD,Baltimore,MD,
900 S PACA ST,Baltimore,MD,
500 HARBORVIEW DR,Baltimore,MD,
5400 JAMESTOWN CT,Baltimore,MD,
2900 LOCH RAVEN RD,Baltimore,MD,
600 WINSTON AVE,Baltimore,MD,
2400 BRIDGEHAMPTON DR,Baltimore,MD,
100 W HAMBURG ST,Baltimore,MD,
0 W BALTIMORE ST,Baltimore,MD,
4600 PARKWOOD AV,Baltimore,MD,
4200 OLD YORK RD,Baltimore,MD,
2600 OAKLEY AV,Baltimore,MD,
5700 THE ALAMEDA,Baltimore,MD,
4800 EASTERN AV,Baltimore,MD,
600 S MONROE ST,Baltimore,MD,
5100 YORK RD,Baltimore,MD,
2700 GUILFORD AV,Baltimore,MD,
1300 N CHARLES ST,Baltimore,MD,
1500 S CLINTON ST,Baltimore,MD,
3000 FEDERAL ST,Baltimore,MD,
2400 ROBB ST,Baltimore,MD,
3200 HAMILTON AV,Baltimore,MD,
500 N CHESTER ST,Baltimore,MD,
4100 W GARRISON AVE,Baltimore,MD,
5600 THE ALAMEDA,Baltimore,MD,
200 N MOUNT ST,Baltimore,MD,
800 W SARATOGA ST,Baltimore,MD,
500 E NORTH AVE,Baltimore,MD,
5200 LOCH RAVEN BLVD,Baltimore,MD,
5700 THE ALAMEDA,Baltimore,MD,
1500 HARFORD AV,Baltimore,MD,
500 E BALTIMORE ST,Baltimore,MD,
700 DRUID PK LAKE DR,Baltimore,MD,
5200 LOCH RAVEN BLVD,Baltimore,MD,
5500 MORAVIA RD,Baltimore,MD,
1900 E 32ND ST,Baltimore,MD,
0 N CHARLES ST,Baltimore,MD,
1200 E LAFAYETTE AV,Baltimore,MD,
1500 SHADYSIDE RD,Baltimore,MD,
700 DRUID PK LAKE DR,Baltimore,MD,
3800 FORDS LA,Baltimore,MD,
1200 W PRATT ST,Baltimore,MD,
600 N CHESTER ST,Baltimore,MD,
2000 GREENMOUNT AVE,Baltimore,MD,
2500 WOODBROOK AV,Baltimore,MD,
1200 JAMES ST,Baltimore,MD,
4700 ELISON AV,Baltimore,MD,
6200 ERDMAN AV,Baltimore,MD,
2100 W SARATOGA ST,Baltimore,MD,
3500 OLD YORK RD,Baltimore,MD,
5100 YORK RD,Baltimore,MD,
1100 E 33RD ST,Baltimore,MD,
800 WEBB CT,Baltimore,MD,
1100 SOMERSET ST,Baltimore,MD,
3000 STAFFORD ST,Baltimore,MD,
2900 RIDGEWOOD AV,Baltimore,MD,
4500 N CHARLES ST,Baltimore,MD,
3100 FEDERAL ST,Baltimore,MD,
4500 PIMLICO RD,Baltimore,MD,
3200 PULASKI HW,Baltimore,MD,
0 S COLLINGTON ST,Baltimore,MD,
0 S COLLINGTON ST,Baltimore,MD,
2800 GARRISON BD,Baltimore,MD,
1900 ORLEANS ST,Baltimore,MD,
3700 TOWANDA AV,Baltimore,MD,
1400 E MONUMENT ST,Baltimore,MD,
2300 LYNDHURST AV,Baltimore,MD,
400 S SMALLWOOD ST,Baltimore,MD,
0 S COLLINGTON ST,Baltimore,MD,
1400 E MONUMENT ST,Baltimore,MD,
1000 W FAYETTE ST,Baltimore,MD,
5100 RAINTREE WY,Baltimore,MD,
5400 RADECKE AV,Baltimore,MD,
6000 AMBERWOOD RD,Baltimore,MD,
2700 BERWICK AV,Baltimore,MD,
2700 BERWICK AV,Baltimore,MD,
3700 FLEET ST,Baltimore,MD,
3700 FLEET ST,Baltimore,MD,
1000 W FAYETTE ST,Baltimore,MD,
1100 E BELVEDERE AV,Baltimore,MD,
2500 W PATAPSCO AV,Baltimore,MD,
1200 S MONROE ST,Baltimore,MD,
3200 AUCHENTOROLY TR,Baltimore,MD,
400 W PRATT ST,Baltimore,MD,
2000 N MONROE ST,Baltimore,MD,
600 N CARROLLTON AV,Baltimore,MD,
1400 E FAYETTE ST,Baltimore,MD,
3400 ANNAPOLIS RD,Baltimore,MD,
5000 ELMER AV,Baltimore,MD,
100 N HILTON ST,Baltimore,MD,
5000 GOODNOW RD,Baltimore,MD,
1000 SARAH ANN ST,Baltimore,MD,
2400 N MONROE ST,Baltimore,MD,
1600 N WOLFE ST,Baltimore,MD,
5800 KAVON AV,Baltimore,MD,
2100 N ROSEDALE ST,Baltimore,MD,
5100 BENTON HEIGHTS AV,Baltimore,MD,
2400 SHIRLEY AV,Baltimore,MD,
200 MASON CT,Baltimore,MD,
1500 E PRATT ST,Baltimore,MD,
3000 JEFFERSON ST,Baltimore,MD,
4900 EASTERN AV,Baltimore,MD,
1900 EDMONDSON AV,Baltimore,MD,
2200 N LONGWOOD ST,Baltimore,MD,
1900 KENNEDY AVE,Baltimore,MD,
2500 E FAIRMOUNT AV,Baltimore,MD,
5300 ELSRODE AV,Baltimore,MD,
500 S BROADWAY,Baltimore,MD,
300 S KRESSON ST,Baltimore,MD,
4900 BOWLEYS LA,Baltimore,MD,
1100 W HAMBURG ST,Baltimore,MD,
3000 E MONUMENT ST,Baltimore,MD,
4100 ROMLET CT,Baltimore,MD,
1100 SOMERSET ST,Baltimore,MD,
1900 W LANVALE ST,Baltimore,MD,
400 S HIGHLAND AV,Baltimore,MD,
3000 THORNDALE AV,Baltimore,MD,
4100 ROMLET CT,Baltimore,MD,
3600 ELM AV,Baltimore,MD,
3000 E MONUMENT ST,Baltimore,MD,
500 MAUDE AVE,Baltimore,MD,
4100 ROMLET CT,Baltimore,MD,
4100 ROMLET CT,Baltimore,MD,
1200 WASHINGTON BD,Baltimore,MD,
1700 THAMES ST,Baltimore,MD,
1800 N MONTFORD AV,Baltimore,MD,
1100 W HAMBURG ST,Baltimore,MD,
1200 GREENMOUNT AV,Baltimore,MD,
800 W 36TH ST,Baltimore,MD,
500 MAUDE AVE,Baltimore,MD,
500 MAUDE AVE,Baltimore,MD,
100 W MADISON ST,Baltimore,MD,
1800 WASHINGTON BD,Baltimore,MD,
0 E RANDALL ST,Baltimore,MD,
100 W MONUMENT ST,Baltimore,MD,
100 W MONUMENT ST,Baltimore,MD,
3800 EASTERN AV,Baltimore,MD,
2100 EDMONDSON AV,Baltimore,MD,
900 E 33RD ST,Baltimore,MD,
6500 EASTERN AV,Baltimore,MD,
1600 W NORTH AV,Baltimore,MD,
6100 NORTHWOOD DR,Baltimore,MD,
4100 ROMLET CT,Baltimore,MD,
1100 E MADISON ST,Baltimore,MD,
2000 E NORTH AV,Baltimore,MD,
500 W HAMBURG ST,Baltimore,MD,
1800 ARUNAH AV,Baltimore,MD,
3600 MANCHESTER AV,Baltimore,MD,
2100 ALLENDALE RD,Baltimore,MD,
3000 BRIGHTON ST,Baltimore,MD,
400 WATTY CT,Baltimore,MD,
2500 HURON ST,Baltimore,MD,
1600 W NORTH AV,Baltimore,MD,
600 N HOWARD ST,Baltimore,MD,
100 N CLINTON ST,Baltimore,MD,
2000 RIDGEHILL AV,Baltimore,MD,
300 S CLINTON ST,Baltimore,MD,
1100 E MADISON ST,Baltimore,MD,
800 WILDWOOD PW,Baltimore,MD,
400 W FAYETTE ST,Baltimore,MD,
3400 KENYON AV,Baltimore,MD,
100 S PAYSON ST,Baltimore,MD,
100 S PAYSON ST,Baltimore,MD,
300 S MONROE ST,Baltimore,MD,
5900 RADECKE AV,Baltimore,MD,
0 HOPKINS PZ,Baltimore,MD,
700 E MONUMENT ST,Baltimore,MD,
1100 N CAREY ST,Baltimore,MD,
2300 HARFORD RD,Baltimore,MD,
4800 NORTHWOOD DR,Baltimore,MD,
400 S GILMOR ST,Baltimore,MD,
5200 REISTERSTOWN RD,Baltimore,MD,
100 S PAYSON ST,Baltimore,MD,
100 S PAYSON ST,Baltimore,MD,
2100 E NORTH AV,Baltimore,MD,
400 S BROADWAY,Baltimore,MD,
1400 WASHINGTON BD,Baltimore,MD,
700 S BOND ST,Baltimore,MD,
4100 E LOMBARD ST,Baltimore,MD,
2400 N CHARLES ST,Baltimore,MD,
700 E 21ST ST,Baltimore,MD,
2800 DENHAM CR N,Baltimore,MD,
200 W PRATT ST,Baltimore,MD,
5000 QUEENSBERRY AV,Baltimore,MD,
900 S CATON AV,Baltimore,MD,
3300 ANNAPOLIS RD,Baltimore,MD,
1400 BLOOMFIELD AV,Baltimore,MD,
2400 N CHARLES ST,Baltimore,MD,
3700 BROOKLYN AV,Baltimore,MD,
800 GLADE CT,Baltimore,MD,
1700 DARLEY AV,Baltimore,MD,
1900 MARYLAND AVE,Baltimore,MD,
100 N FREMONT AV,Baltimore,MD,
1100 W NORTHERN PW,Baltimore,MD,
0 W 20TH ST,Baltimore,MD,
0 W 20TH ST,Baltimore,MD,
2800 GREENMOUNT AV,Baltimore,MD,
0 N BRUCE ST,Baltimore,MD,
1900 RIDGEHILL AV,Baltimore,MD,
1500 HAVENWOOD RD,Baltimore,MD,
400 E LANVALE ST,Baltimore,MD,
1900 RIDGEHILL AV,Baltimore,MD,
3200 E NORTHERN PW,Baltimore,MD,
2300 E PRESTON ST,Baltimore,MD,
1600 SPRAY CT,Baltimore,MD,
3800 ROLAND VIEW AV,Baltimore,MD,
1900 LEMMON ST,Baltimore,MD,
400 FONT HILL AV,Baltimore,MD,
700 S BROADWAY,Baltimore,MD,
2600 GWYNNS FALLS PW,Baltimore,MD,
2700 HARFORD RD,Baltimore,MD,
1000 ABBOTT CT,Baltimore,MD,
700 CATHEDRAL ST,Baltimore,MD,
500 WASHINGTON BD,Baltimore,MD,
2200 N WARWICK AV,Baltimore,MD,
1900 MCCULLOH ST,Baltimore,MD,
2300 ROSLYN AV,Baltimore,MD,
3000 W BELVEDERE AV,Baltimore,MD,
1900 HARLEM AV,Baltimore,MD,
600 S BROADWAY,Baltimore,MD,
3900 STOKES DR,Baltimore,MD,
1300 MC CULLOH ST,Baltimore,MD,
2200 JEFFERSON ST,Baltimore,MD,
600 ROUNDVIEW RD,Baltimore,MD,
100 W FAYETTE ST,Baltimore,MD,
100 W FAYETTE ST,Baltimore,MD,
1900 KENNEDY AV,Baltimore,MD,
4200 BELAIR RD,Baltimore,MD,
2000 W MULBERRY ST,Baltimore,MD,
1600 LORMAN CT,Baltimore,MD,
1100 CARROLL ST,Baltimore,MD,
700 CARROLL ST,Baltimore,MD,
3200 E BALTIMORE ST,Baltimore,MD,
2800 N DUKELAND ST,Baltimore,MD,
800 OGDEN ST,Baltimore,MD,
3800 BLK EDMONDSON AVE,Baltimore,MD,
100 S HIGHLAND AV,Baltimore,MD,
2500 MCCULLOH ST,Baltimore,MD,
2700 REISTERSTOWN RD,Baltimore,MD,
2400 W LEXINGTON ST,Baltimore,MD,
400 S STRICKER ST,Baltimore,MD,
3500 SPRINGDALE AV,Baltimore,MD,
200 S WASHINGTON ST,Baltimore,MD,
2700 REISTERSTOWN RD,Baltimore,MD,
300 W 28TH ST,Baltimore,MD,
4200 PENNINGTON AV,Baltimore,MD,
6100 BELAIR RD,Baltimore,MD,
2400 FEDERAL ST,Baltimore,MD,
1800 N MOUNT ST,Baltimore,MD,
3800 LEWIN AV,Baltimore,MD,
2700 MILES AV,Baltimore,MD,
400 E SARTAOGA ST,Baltimore,MD,
700 N BROADWAY,Baltimore,MD,
1900 LEMMON ST,Baltimore,MD,
3400 BELAIR RD,Baltimore,MD,
700 N BROADWAY,Baltimore,MD,
2300 ESSEX ST,Baltimore,MD,
2700 E FAYETTE ST,Baltimore,MD,
200 N ROSE ST,Baltimore,MD,
3100 MC ELDERRY ST,Baltimore,MD,
2500 N CALVERT ST,Baltimore,MD,
4000 GRANTLEY RD,Baltimore,MD,
2800 RAYNER AV,Baltimore,MD,
1700 E 30TH ST,Baltimore,MD,
200 S LINWOOD AVE,Baltimore,MD,
TIOGA PW,Baltimore,MD,
0 E BALTIMORE ST,Baltimore,MD,
3900 BELVIEU AV,Baltimore,MD,
3300 CLIFTON AV,Baltimore,MD,
3300 CLIFTON AV,Baltimore,MD,
2700 GILES RD,Baltimore,MD,
400 E 29TH ST,Baltimore,MD,
400 E 29TH ST,Baltimore,MD,
2900 FREDERICK AV,Baltimore,MD,
600 N Edgewood St,Baltimore,MD,
2000 MOUNT ROYAL TR,Baltimore,MD,
1300 SHERWOOD AV,Baltimore,MD,
2700 E OLIVER ST,Baltimore,MD,
200 BALLOU CT,Baltimore,MD,
1900 DRUID HILL AV,Baltimore,MD,
100 E FAYETTE ST,Baltimore,MD,
2200 BROOKFIELD AV,Baltimore,MD,
400 N CHARLES ST,Baltimore,MD,
2700 E OLIVER ST,Baltimore,MD,
2100 N ROSEDALE ST,Baltimore,MD,
3100 WALBROOK AV,Baltimore,MD,
900 DRUID HILL AV,Baltimore,MD,
3100 WESTWOOD AVE,Baltimore,MD,
100 N JANNEY ST,Baltimore,MD,
2100 E PRESTON ST,Baltimore,MD,
2800 N DUKELAND ST,Baltimore,MD,
6200 BELAIR RD,Baltimore,MD,
4300 SPRINGDALE AV,Baltimore,MD,
300 N EUTAW ST,Baltimore,MD,
2300 W FAYETTE ST,Baltimore,MD,
400 BRUNSWICK ST,Baltimore,MD,
800 GLADE CT,Baltimore,MD,
1300 W PRATT ST,Baltimore,MD,
200 N CALHOUN ST,Baltimore,MD,
3200 PULASKI HWY,Baltimore,MD,
3200 PULASKI HWY,Baltimore,MD,
4200 NICHOLAS AV,Baltimore,MD,
3100 OVERLAND AV,Baltimore,MD,
3700 CRESTFIELD CT,Baltimore,MD,
4300 FAIRHAVEN AVE,Baltimore,MD,
3300 W ROGERS AV,Baltimore,MD,
3300 LYNDALE AV,Baltimore,MD,
5300 GOODNOW RD,Baltimore,MD,
3400 N CHARLES ST,Baltimore,MD,
3200 NORMOUNT AV,Baltimore,MD,
3600 SAINT MARGARET ST,Baltimore,MD,
3000 POTEE ST,Baltimore,MD,
400 E NORTH AVE,Baltimore,MD,
5200 CORDELIA AV,Baltimore,MD,
1700 N BENTALOU ST,Baltimore,MD,
4100 FERNHILL AV,Baltimore,MD,
2100 WESTWOOD AV,Baltimore,MD,
4300 FAIRHAVEN AV,Baltimore,MD,
800 BETHUNE RD,Baltimore,MD,
800 BETHUNE RD,Baltimore,MD,
800 BETHUNE RD,Baltimore,MD,
4600 PARK HEIGHTS AV,Baltimore,MD,
3100 PULASKI HW,Baltimore,MD,
100 W LOMBARD ST,Baltimore,MD,
100 W LOMBARD ST,Baltimore,MD,
800 POPLAR GROVE ST,Baltimore,MD,
1800 ST PAUL ST,Baltimore,MD,
4900 STAFFORD ST,Baltimore,MD,
4000 FAIRVIEW AV,Baltimore,MD,
4900 STAFFORD ST,Baltimore,MD,
4900 STAFFORD ST,Baltimore,MD,
1900 N MONROE ST,Baltimore,MD,
1900 E NORTH AV,Baltimore,MD,
500 N BOULDIN ST,Baltimore,MD,
1500 MULLIKIN CT,Baltimore,MD,
1300 VALLEY ST,Baltimore,MD,
100 S LOUDON AV,Baltimore,MD,
2700 INGLEWOOD AV,Baltimore,MD,
400 PITMAN PL,Baltimore,MD,
3600 OLD YORK RD,Baltimore,MD,
2400 LOYOLA NORTHW,Baltimore,MD,
400 PITMAN PL,Baltimore,MD,
3800 BONVIEW AV,Baltimore,MD,
400 PITMAN PL,Baltimore,MD,
2100 ANNAPOLIS RD,Baltimore,MD,
1200 ARMISTEAD WY,Baltimore,MD,
1200 ARMISTEAD WY,Baltimore,MD,
3000 MALLVIEW RD,Baltimore,MD,
900 S CATON AV,Baltimore,MD,
1800 SEXTON ST,Baltimore,MD,
1800 SEXTON ST,Baltimore,MD,
900 S CATON AV,Baltimore,MD,
900 S CATON AV,Baltimore,MD,
1300 WINDEMERE AV,Baltimore,MD,
2000 N MONROE ST,Baltimore,MD,
700 W SARATOGA ST,Baltimore,MD,
3200 E FAIRMOUNT AV,Baltimore,MD,
1900 HEATHFIELD RD,Baltimore,MD,
300 W FAYETTE ST,Baltimore,MD,
900 S CATON AV,Baltimore,MD,
900 S CATON AV,Baltimore,MD,
700 E NORTH AV,Baltimore,MD,
600 PORTLAND ST,Baltimore,MD,
5700 HAZELWOOD CR,Baltimore,MD,
1900 E 30TH ST,Baltimore,MD,
400 WILSON ST,Baltimore,MD,
6500 HUDSON ST,Baltimore,MD,
900 N STREEPER ST,Baltimore,MD,
2800 N DUKELAND ST,Baltimore,MD,
1600 N WOLFE ST,Baltimore,MD,
1034 N Mount St,Baltimore,MD,
0 W 20TH ST,Baltimore,MD,
0 S EAST AV,Baltimore,MD,
900 N STREEPER ST,Baltimore,MD,
1200 E LANVALE ST,Baltimore,MD,
1700 AISQUITH ST,Baltimore,MD,
2400 PICKERING DR,Baltimore,MD,
1800 APPLETON ST,Baltimore,MD,
1800 APPLETON ST,Baltimore,MD,
2400 WOODBROOK AV,Baltimore,MD,
2100 ASHLAND AVE,Baltimore,MD,
1500 E BELVEDERE AV,Baltimore,MD,
100 W HENRIETTA ST,Baltimore,MD,
1600 W NORTH AVE,Baltimore,MD,
2400 LIBERTY HGTS AV,Baltimore,MD,
2900 WYMAN PW,Baltimore,MD,
1800 APPLETON ST,Baltimore,MD,
1800 APPLETON ST,Baltimore,MD,
3200 HOLLINS FERRY RD,Baltimore,MD,
400 LAURENS ST,Baltimore,MD,
200 N COLLINGTON AV,Baltimore,MD,
3200 THE ALAMEDA,Baltimore,MD,
3600 BELLEVALE AV,Baltimore,MD,
2000 ORLEANS ST,Baltimore,MD,
700 N WOODINGTON RD,Baltimore,MD,
1200 E NORTH AV,Baltimore,MD,
300 MCMECHEN ST,Baltimore,MD,
6600 VINCENT LA,Baltimore,MD,
2500 OSWEGO AV,Baltimore,MD,
700 N WOODINGTON RD,Baltimore,MD,
500 N ROSE ST,Baltimore,MD,
700 S BOND ST,Baltimore,MD,
0 N KRESSON ST,Baltimore,MD,
2800 ST LO DR,Baltimore,MD,
700 N BROADWAY,Baltimore,MD,
4300 FLOWERTON RD,Baltimore,MD,
5600 THE ALAMEDA,Baltimore,MD,
1100 COVINGTON ST,Baltimore,MD,
3600 BELLEVALE AV,Baltimore,MD,
1300 S CAREY ST,Baltimore,MD,
1100 GRANBY ST,Baltimore,MD,
1200 E NORTH AV,Baltimore,MD,
W MT ROYAL AV,Baltimore,MD,
2300 ASHTON ST,Baltimore,MD,
5600 LOTHIAN RD,Baltimore,MD,
2300 HARFORD RD,Baltimore,MD,
1700 MADISON AV,Baltimore,MD,
500 LAURENS ST,Baltimore,MD,
0 W 22ND ST,Baltimore,MD,
5200 GOODNOW RD,Baltimore,MD,
3200 E LOMBARD ST,Baltimore,MD,
1100 N FULTON AV,Baltimore,MD,
1700 W NORTH AVE,Baltimore,MD,
3100 BRIGHTWOOD AV,Baltimore,MD,
5200 CUTHBERT AV,Baltimore,MD,
400 E 22ND ST,Baltimore,MD,
5000 BEAUFORT AV,Baltimore,MD,
1100 RAMBLEWOOD RD,Baltimore,MD,
W MT ROYAL AV,Baltimore,MD,
700 FALLSWAY,Baltimore,MD,
3400 BELAIR RD,Baltimore,MD,
3400 BELAIR RD,Baltimore,MD,
1700 THAMES ST,Baltimore,MD,
2500 W NORTH AV,Baltimore,MD,
3800 6TH ST,Baltimore,MD,
400 GRINDALL ST,Baltimore,MD,
2400 HARFORD RD,Baltimore,MD,
3900 HOOPER AV,Baltimore,MD,
2700 PENNSYLVANIA AVE,Baltimore,MD,
3900 ST PAUL ST,Baltimore,MD,
300 N EUTAW ST,Baltimore,MD,
1000 CHERRY HILL RD,Baltimore,MD,
3200 WOODLAND AVE,Baltimore,MD,
3900 ROKEBY RD,Baltimore,MD,
2500 ORLEANS ST,Baltimore,MD,
6500 REISTERSTOWN RD,Baltimore,MD,
3000 HARLEM AV,Baltimore,MD,
1400 E COLD SPRING LA,Baltimore,MD,
3800 E LOMBARD ST,Baltimore,MD,
2000 EDMONDSON AV,Baltimore,MD,
3600 WOODBINE AV,Baltimore,MD,
3600 WOODBINE AV,Baltimore,MD,
5200 CORDELIA AVE,Baltimore,MD,
2500 HARFORD RD,Baltimore,MD,
1200 W COLD SPRING LA,Baltimore,MD,
100 KANE ST,Baltimore,MD,
5700 CEDONIA AV,Baltimore,MD,
800 S HIGHLAND AV,Baltimore,MD,
800 MC ALEER CT,Baltimore,MD,
1300 N CAREY ST,Baltimore,MD,
100 E OSTEND ST,Baltimore,MD,
2100 DRUID HILL AV,Baltimore,MD,
1000 SHELLBANKS RD,Baltimore,MD,
NORTH AV & N GAY ST,Baltimore,MD,
2200 N BENTALOU ST,Baltimore,MD,
2400 GREENMOUNT AV,Baltimore,MD,
2400 GREENMOUNT AV,Baltimore,MD,
1300 N CAREY ST,Baltimore,MD,
3400 ALTO RD,Baltimore,MD,
1500 APPLETON ST,Baltimore,MD,
0 W BALTIMORE ST,Baltimore,MD,
5000 MORAVIA RD,Baltimore,MD,
100 E HAMBURG ST,Baltimore,MD,
100 E OSTEND ST,Baltimore,MD,
5600 HARFORD RD,Baltimore,MD,
4100 HYDEN CT,Baltimore,MD,
7300 MOYER AV,Baltimore,MD,
3500 MOUNT PLEASANT AVE,Baltimore,MD,
2100 W LEXINGTON ST,Baltimore,MD,
1200 BATTERY AV,Baltimore,MD,
1200 BATTERY AV,Baltimore,MD,
2900 WYNHAM RD,Baltimore,MD,
5200 REISTERSTOWN RD,Baltimore,MD,
2900 KEYWORTH AV,Baltimore,MD,
1000 WOODSON RD,Baltimore,MD,
900 E PATAPSCO AV,Baltimore,MD,
1100 RUTLAND AV,Baltimore,MD,
6200 BELAIR RD,Baltimore,MD,
3100 FLEET ST,Baltimore,MD,
1800 CLIFTON AV,Baltimore,MD,
1700 GWYNNS FALLS PW,Baltimore,MD,
2600 HUNTINGDON AVE,Baltimore,MD,
2600 HUNTINGDON AVE,Baltimore,MD,
500 WILSON ST,Baltimore,MD,
1100 MONROE CIR,Baltimore,MD,
1300 N STOCKTON ST,Baltimore,MD,
0 W BALTIMORE ST,Baltimore,MD,
2500 HURON ST,Baltimore,MD,
1300 W LAFAYETTE AV,Baltimore,MD,
5400 BUCKNELL RD,Baltimore,MD,
200 EAST ST,Baltimore,MD,
5600 RADECKE AV,Baltimore,MD,
100 FAGLEY ST,Baltimore,MD,
300 WILSON ST,Baltimore,MD,
5900 KAVON AV,Baltimore,MD,
500 W LEXINGTON ST,Baltimore,MD,
100 FAGLEY ST,Baltimore,MD,
700 BROOKWOOD RD,Baltimore,MD,
1300 N STOCKTON ST,Baltimore,MD,
2500 BROOKFIELD AV,Baltimore,MD,
3600 E NORTHERN PW,Baltimore,MD,
800 MCCABE AV,Baltimore,MD,
700 S CHARLES ST,Baltimore,MD,
700 N ROSE ST,Baltimore,MD,
1800 EAGLE ST,Baltimore,MD,
3700 PARK HEIGHTS AV,Baltimore,MD,
300 W LAFAYETTE AV,Baltimore,MD,
300 BAYLIS ST,Baltimore,MD,
100 S CALVERT ST,Baltimore,MD,
1600 EASTERN AV,Baltimore,MD,
2800 SANTA FE AV,Baltimore,MD,
1700 E LOMBARD ST,Baltimore,MD,
700 S CHARLES ST,Baltimore,MD,
900 VALLEY ST,Baltimore,MD,
2100 W SARATOGA ST,Baltimore,MD,
4300 SHAMROCK AV,Baltimore,MD,
100 W 29TH ST,Baltimore,MD,
900 E BELVEDERE AV,Baltimore,MD,
1500 ELMTREE ST,Baltimore,MD,
1900 N ELLAMONT ST,Baltimore,MD,
600 ST PAUL ST,Baltimore,MD,
2300 E MONUMENT ST,Baltimore,MD,
3900 GREENMOUNT AV,Baltimore,MD,
800 N BOND ST,Baltimore,MD,
700 W 40TH ST,Baltimore,MD,
3400 THE ALAMEDA,Baltimore,MD,
5900 DAYWALT AV,Baltimore,MD,
2600 GWYNNS FALLS PW,Baltimore,MD,
300 LYNDHURST ST,Baltimore,MD,
600 QUEENSGATE RD,Baltimore,MD,
300 W BALTIMORE ST,Baltimore,MD,
3400 PARK HEIGHTS AV,Baltimore,MD,
4000 WOODHAVEN AV,Baltimore,MD,
6600 REISTERSTOWN RD,Baltimore,MD,
3900 GREENMOUNT AV,Baltimore,MD,
5400 FAIRLAWN AV,Baltimore,MD,
5300 BELAIR RD,Baltimore,MD,
2300 E MONUMENT ST,Baltimore,MD,
1700 N BROADWAY,Baltimore,MD,
2300 E MONUMENT ST,Baltimore,MD,
3300 GWYNNS FALLS PW,Baltimore,MD,
300 N GAY ST,Baltimore,MD,
4200 FRANKFORD AV,Baltimore,MD,
1100 COVINGTON ST,Baltimore,MD,
4000 GARRISON BD,Baltimore,MD,
200 E NORTHERN PW,Baltimore,MD,
200 SILVER CT,Baltimore,MD,
1600 MILLER ST,Baltimore,MD,
1700 PARK AVE,Baltimore,MD,
4900 LASALLE AV,Baltimore,MD,
100 N EUTAW ST,Baltimore,MD,
2400 WELLBRIDGE DR,Baltimore,MD,
2500 W FRANKLIN ST,Baltimore,MD,
3100 Gough,Baltimore,MD,
6600 SNOWBERRY CT,Baltimore,MD,
400 S HIGHLAND AV,Baltimore,MD,
4300 SEMINOLE AV,Baltimore,MD,
FREDERICK AV,Baltimore,MD,
200 N LUZERNE AV,Baltimore,MD,
200 N LUZERNE AV,Baltimore,MD,
1100 WILLIAM ST,Baltimore,MD,
1600 N BOND ST,Baltimore,MD,
0 W HAMBURG ST,Baltimore,MD,
1600 N BOND ST,Baltimore,MD,
3800 E NORTHERN PW,Baltimore,MD,
1400 MONTPELIER ST,Baltimore,MD,
2500 W FRANKLIN ST,Baltimore,MD,
2500 W FRANKLIN ST,Baltimore,MD,
3000 FRISBY ST,Baltimore,MD,
1500 N FULTON AV,Baltimore,MD,
600 N MONROE ST,Baltimore,MD,
1600 N BOND ST,Baltimore,MD,
1900 DRUID HILL AV,Baltimore,MD,
4800 HAZELWOOD AV,Baltimore,MD,
5400 YORK RD,Baltimore,MD,
0 W 20TH ST,Baltimore,MD,
600 WARNER ST,Baltimore,MD,
4100 FERNHILL AV,Baltimore,MD,
5800 THE ALAMEDA,Baltimore,MD,
2100 DRUID HILL AV,Baltimore,MD,
700 PONTIAC AV,Baltimore,MD,
4500 N ROGERS AV,Baltimore,MD,
100 N GAY ST,Baltimore,MD,
5700 CHINQUAPIN PW,Baltimore,MD,
2200 N HOWARD ST,Baltimore,MD,
200 N LIBERTY ST,Baltimore,MD,
1800 W LEXINGTON ST,Baltimore,MD,
700 E COLD SPRING LA,Baltimore,MD,
2100 GARRISON BLVD,Baltimore,MD,
400 WALTON CT,Baltimore,MD,
600 MOSHER ST,Baltimore,MD,
6000 AMBERWOOD RD,Baltimore,MD,
1600 W FRANKLIN ST,Baltimore,MD,
1000 QUANTRIL WY,Baltimore,MD,
900 ALRICKS WY,Baltimore,MD,
600 SMITHSON ST,Baltimore,MD,
1600 N BENTALOU ST,Baltimore,MD,
1200 E LAFAYETTE AV,Baltimore,MD,
1700 RIGGS AVE,Baltimore,MD,
4900 EASTERN AV,Baltimore,MD,
3200 MC ELDERRY ST,Baltimore,MD,
3300 ELMLEY AV,Baltimore,MD,
600 ASHBURTON ST,Baltimore,MD,
3100 RAVENWOOD AVE,Baltimore,MD,
600 E LOMBARD ST,Baltimore,MD,
1400 MADISON AV,Baltimore,MD,
1200 WOODBOURNE AV,Baltimore,MD,
2300 GARRETT AV,Baltimore,MD,
424 Font Hill Ave,Baltimore,MD,
600 ASHBURTON ST,Baltimore,MD,
1600 GWYNNS FALLS PKWY APT A,Baltimore,MD,
1100 LAURENS ST,Baltimore,MD,
4300 ERDMAN AV,Baltimore,MD,
4700 PARK HEIGHTS AV,Baltimore,MD,
4400 THE ALAMEDA,Baltimore,MD,
3000 BAKER ST,Baltimore,MD,
6700 HARFORD RD,Baltimore,MD,
5100 HARFORD RD,Baltimore,MD,
1300 GORSUCH AVE,Baltimore,MD,
2700 GUILFORD AV,Baltimore,MD,
4100 FREDERICK AV,Baltimore,MD,
3400 WILKENS AV,Baltimore,MD,
1500 FERNLEY RD,Baltimore,MD,
0 E PLEASANT ST,Baltimore,MD,
3100 SWAN DR,Baltimore,MD,
100 E 32ND ST,Baltimore,MD,
2300 GWYNNS FALLS PW,Baltimore,MD,
200 W BALTIMORE ST,Baltimore,MD,
4100 FREDERICK AV,Baltimore,MD,
2000 DRUID PARK DR,Baltimore,MD,
3100 SWAN DR,Baltimore,MD,
2000 DRUID PARK DR,Baltimore,MD,
1300 N GILMOR ST,Baltimore,MD,
200 N ROSE ST,Baltimore,MD,
0 W BALTIMORE ST,Baltimore,MD,
1800 E 29TH ST,Baltimore,MD,
0 W BALTIMORE ST,Baltimore,MD,
500 HURLEY AV,Baltimore,MD,
0 NORTH AVE,Baltimore,MD,
1800 W FAIRMOUNT AV,Baltimore,MD,
4300 SEIDEL AVE,Baltimore,MD,
1300 HERKIMER ST,Baltimore,MD,
400 N LUZERNE AV,Baltimore,MD,
400 N LUZERNE AV,Baltimore,MD,
100 S EAST AV,Baltimore,MD,
200 N ROSE ST,Baltimore,MD,
200 N ROSE ST,Baltimore,MD,
2900 E FAYETTE ST,Baltimore,MD,
400 N LUZERNE AV,Baltimore,MD,
1000 PENNSYLVANIA AV,Baltimore,MD,
2600 WILKENS AV,Baltimore,MD,
700 N LINWOOD AV,Baltimore,MD,
3800 SINCLAIR LA,Baltimore,MD,
1800 MCCULLOH ST,Baltimore,MD,
1800 MCCULLOH ST,Baltimore,MD,
3400 LEVERTON AV,Baltimore,MD,
1800 MCCULLOH ST,Baltimore,MD,
1800 MCCULLOH ST,Baltimore,MD,
2400 LAKEVIEW AV,Baltimore,MD,
6300 HARFORD RD,Baltimore,MD,
2500 OAKLEY AV,Baltimore,MD,
3800 W BELVEDERE AV,Baltimore,MD,
0 SOUTH ST,Baltimore,MD,
2100 W LEXINGTON ST,Baltimore,MD,
3000 SEABURY RD,Baltimore,MD,
2100 W LEXINGTON ST,Baltimore,MD,
1900 BRUNT ST,Baltimore,MD,
800 N CAREY ST,Baltimore,MD,
800 N CAREY ST,Baltimore,MD,
2900 CHELSEA TR,Baltimore,MD,
5000 CHALGROVE AV,Baltimore,MD,
2300 ASHTON ST,Baltimore,MD,
4500 SCHENLEY RD,Baltimore,MD,
400 N EAST AV,Baltimore,MD,
1100 W CROSS ST,Baltimore,MD,
5100 LEVINDALE RD,Baltimore,MD,
5100 LEVINDALE RD,Baltimore,MD,
2200 W NORTH AVE,Baltimore,MD,
2600 BARCLAY ST,Baltimore,MD,
2500 GREENMOUNT AVE,Baltimore,MD,
5500 CROSS COUNTRY BLVD,Baltimore,MD,
1800 N CHAPEL ST,Baltimore,MD,
900 PAYSON ST,Baltimore,MD,
300 S AUGUSTA AV,Baltimore,MD,
2000 CLIPPER PARK RD,Baltimore,MD,
2400 ANNOR CT,Baltimore,MD,
1400 N Patterson Park Av,Baltimore,MD,
900 ANNABEL AV,Baltimore,MD,
400 LAURENS ST,Baltimore,MD,
1200 ARGYLE AV,Baltimore,MD,
500 BALTIC AV,Baltimore,MD,
900 N EDEN ST,Baltimore,MD,
5700 GREENSPRING AV,Baltimore,MD,
1400 MOSANDER WY,Baltimore,MD,
400 FURROW ST,Baltimore,MD,
1200 ARGYLE AV,Baltimore,MD,
700 ST PAUL ST,Baltimore,MD,
1900 EDMONDSON AV,Baltimore,MD,
100 W LEXINGTON ST,Baltimore,MD,
5700 LOCHLEA RD,Baltimore,MD,
2400 EVERTON RD,Baltimore,MD,
2400 EVERTON RD,Baltimore,MD,
1100 DUNDALK AV,Baltimore,MD,
300 S Baylis St,Baltimore,MD,
2000 GIRARD AV,Baltimore,MD,
2000 GIRARD AV,Baltimore,MD,
1700 GREENMOUNT AV,Baltimore,MD,
2200 N PULASKI ST,Baltimore,MD,
1400 WASHINGTON BD,Baltimore,MD,
5500 BOWLEYS LA,Baltimore,MD,
1800 WASHINGTON BD,Baltimore,MD,
600 S SHARP ST,Baltimore,MD,
600 STIRLING ST,Baltimore,MD,
2500 E NORTHERN PW,Baltimore,MD,
5300 YORK RD,Baltimore,MD,
5400 REISTERSTOWN RD,Baltimore,MD,
1300 E 33RD ST,Baltimore,MD,
700 WASHINGTON BLVD,Baltimore,MD,
1600 HARFORD AV,Baltimore,MD,
500 WYANOKE AV,Baltimore,MD,
4800 ABERDEEN AV,Baltimore,MD,
4800 HARFORD RD,Baltimore,MD,
2400 W BALTIMORE ST,Baltimore,MD,
4700 EASTERN AVE,Baltimore,MD,
2900 ODONNELL ST,Baltimore,MD,
4900 CRENSHAW AV,Baltimore,MD,
4800 HARFORD RD,Baltimore,MD,
200 S ANN ST,Baltimore,MD,
800 LIGHT ST,Baltimore,MD,
1400 CHERRY HILL RD,Baltimore,MD,
3200 AUCHENTOROLY TR,Baltimore,MD,
2900 MATHEWS ST,Baltimore,MD,
1300 GORSUCH AV,Baltimore,MD,
400 ROBERT ST,Baltimore,MD,
3600 OLD YORK RD,Baltimore,MD,
700 PENNSYLVANIA AV,Baltimore,MD,
3000 W GARRISON AV,Baltimore,MD,
2100 N PULASKI ST,Baltimore,MD,
1100 GREENMOUNT AV,Baltimore,MD,
1700 E NORTHERN PW,Baltimore,MD,
4800 MIDLINE RD,Baltimore,MD,
1300 HERKIMER ST,Baltimore,MD,
1500 WASHINGTON BD,Baltimore,MD,
5600 LOCH RAVEN BD,Baltimore,MD,
5000 MORAVIA RD,Baltimore,MD,
1100 COVINGTON ST,Baltimore,MD,
1100 N CAROLINE ST,Baltimore,MD,
2500 KIRK AV,Baltimore,MD,
400 ROBERT ST,Baltimore,MD,
3600 BELAIR RD,Baltimore,MD,
3600 BELAIR RD,Baltimore,MD,
3600 BELAIR RD,Baltimore,MD,
700 COVINGTON ST,Baltimore,MD,
500 W MULBERRY ST,Baltimore,MD,
300 N MONROE ST,Baltimore,MD,
2500 CHRISTIAN ST,Baltimore,MD,
1800 E MONUMENT ST,Baltimore,MD,
1100 WEBB CT,Baltimore,MD,
1100 WEBB CT,Baltimore,MD,
2100 BOSTON ST,Baltimore,MD,
3800 WABASH AV,Baltimore,MD,
2300 ANOKA AV,Baltimore,MD,
3200 EASTERN AV,Baltimore,MD,
1400 ORLEANS ST,Baltimore,MD,
3800 BONVIEW AV,Baltimore,MD,
1600 BARCLAY ST,Baltimore,MD,
3000 MC ELDERRY ST,Baltimore,MD,
3800 BONVIEW AV,Baltimore,MD,
2700 CLIFTON AV,Baltimore,MD,
4300 W FOREST PARK AV,Baltimore,MD,
600 E 33RD ST,Baltimore,MD,
3200 W BALTIMORE ST,Baltimore,MD,
3300 MC ELDERRY ST,Baltimore,MD,
1600 W NORTH AV,Baltimore,MD,
500 DOLPHIN ST,Baltimore,MD,
600 HOMESTEAD ST,Baltimore,MD,
2700 GILES RD,Baltimore,MD,
2800 ST LO DR,Baltimore,MD,
2400 MOSHER ST,Baltimore,MD,
5000 MORAVIA RD,Baltimore,MD,
3000 MC ELDERRY ST,Baltimore,MD,
0 S CALHOUN ST,Baltimore,MD,
600 N CARROLLTON AV,Baltimore,MD,
200 N HIGHLAND AV,Baltimore,MD,
3400 DUDLEY AV,Baltimore,MD,
3800 GLENARM AV,Baltimore,MD,
1900 ST PAUL ST,Baltimore,MD,
1600 RUTLAND AVE,Baltimore,MD,
3700 GREENMOUNT AV,Baltimore,MD,
3700 GREENMOUNT AV,Baltimore,MD,
600 E FAYETTE ST,Baltimore,MD,
2800 LIBERTY HGTS AV,Baltimore,MD,
1600 HARFORD AV,Baltimore,MD,
700 MCKEWIN AV,Baltimore,MD,
700 MCKEWIN AV,Baltimore,MD,
0 PIER SIDE DR,Baltimore,MD,
900 CLAYMONT AV,Baltimore,MD,
1100 N CAROLINE ST,Baltimore,MD,
1100 N CAROLINE ST,Baltimore,MD,
100 AISQUITH ST,Baltimore,MD,
3800 GLENARM AV,Baltimore,MD,
1600 PENNSYLVANIA AV,Baltimore,MD,
900 Preston St,Baltimore,MD,
300 S CALHOUN ST,Baltimore,MD,
1500 W PRATT ST,Baltimore,MD,
5900 ST REGIS RD,Baltimore,MD,
5900 ST REGIS RD,Baltimore,MD,
0 E CHASE ST,Baltimore,MD,
900 WILMINGTON AV,Baltimore,MD,
4600 HARFORD RD,Baltimore,MD,
6100 FAIRDEL AV,Baltimore,MD,
1800 FLEET ST,Baltimore,MD,
0 S EAST AV,Baltimore,MD,
3500 OAKMONT AV,Baltimore,MD,
1600 N CHAPEL ST,Baltimore,MD,
5500 BUCKNELL RD,Baltimore,MD,
1200 ENSOR ST,Baltimore,MD,
3900 PARK HEIGHTS AV,Baltimore,MD,
2400 W LANVALE ST,Baltimore,MD,
5600 LOCH RAVEN BD,Baltimore,MD,
6700 REISTERSTOWN RD,Baltimore,MD,
600 S BOND ST,Baltimore,MD,
5600 LOCH RAVEN BD,Baltimore,MD,
1600 HARTSDALE RD,Baltimore,MD,
300 GUSRYAN ST,Baltimore,MD,
2500 ASHTON ST,Baltimore,MD,
2800 ALLENDALE RD,Baltimore,MD,
YORK RD & E 35TH ST,Baltimore,MD,
5000 YORK RD,Baltimore,MD,
3300 CEDARHURST RD,Baltimore,MD,
1700 RAMBLEWOOD RD,Baltimore,MD,
1900 E LAFAYETTE AV,Baltimore,MD,
5100 ELMER AV,Baltimore,MD,
200 N EDEN ST,Baltimore,MD,
200 W MONUMENT ST,Baltimore,MD,
1700 RAMBLEWOOD RD,Baltimore,MD,
0 W NORTH AVE,Baltimore,MD,
100 E LOMBARD ST,Baltimore,MD,
100 E LOMBARD ST,Baltimore,MD,
100 E LOMBARD ST,Baltimore,MD,
200 BEALE CT,Baltimore,MD,
100 E LOMBARD ST,Baltimore,MD,
100 E LOMBARD ST,Baltimore,MD,
2900 PULASKI HW,Baltimore,MD,
2300 E NORTH AV,Baltimore,MD,
3400 LIBERTY HGTS AV,Baltimore,MD,
4500 WAKEFIELD RD,Baltimore,MD,
300 FORREST ST,Baltimore,MD,
900 N ROSE ST,Baltimore,MD,
3900 W BELVEDERE AV,Baltimore,MD,
4300 BELAIR RD,Baltimore,MD,
1800 E LAFAYETTE AV,Baltimore,MD,
500 E 35TH ST,Baltimore,MD,
600 W LAFAYETTE AV,Baltimore,MD,
200 W MONUMENT ST,Baltimore,MD,
3000 STRANDEN RD,Baltimore,MD,
2500 GILES RD,Baltimore,MD,
2000 RAMSAY ST,Baltimore,MD,
5600 LOCH RAVEN BD,Baltimore,MD,
5500 HARFORD RD,Baltimore,MD,
2900 E LOMBARD ST,Baltimore,MD,
800 WHITELOCK ST,Baltimore,MD,
5500 WESLEY AV,Baltimore,MD,
3900 EASTERN AV,Baltimore,MD,
600 N ELLWOOD AV,Baltimore,MD,
600 N ELLWOOD AV,Baltimore,MD,
5200 SAINT CHARLES ST,Baltimore,MD,
3100 E FAYETTE ST,Baltimore,MD,
1000 ORLEANS ST,Baltimore,MD,
1400 N COLLINGTON AV,Baltimore,MD,
700 N LAKEWOOD AV,Baltimore,MD,
5900 PRATT ST,Baltimore,MD,
1400 N COLLINGTON AV,Baltimore,MD,
2000 E NORTH AV,Baltimore,MD,
1000 RODMAN WY,Baltimore,MD,
100 EDGEWOOD ST,Baltimore,MD,
1900 HARMAN AV,Baltimore,MD,
600 N ELLWOOD AV,Baltimore,MD,
ALAMEDA & GLENEAGLE RD,Baltimore,MD,
ALAMEDA & GLENEAGLE RD,Baltimore,MD,
2000 E NORTH AV,Baltimore,MD,
200 N WASHINGTON ST,Baltimore,MD,
2000 SINCLAIR LA,Baltimore,MD,
4800 PIMLICO RD,Baltimore,MD,
400 WATER ST,Baltimore,MD,
600 N LINWOOD AV,Baltimore,MD,
1500 E FAYETTE ST,Baltimore,MD,
5600 BELAIR RD,Baltimore,MD,
3800 GWYNNS FALLS PKWY,Baltimore,MD,
600 BALTIC AV,Baltimore,MD,
2900 EDMONDSON AVE,Baltimore,MD,
2800 MILES AV,Baltimore,MD,
5600 FRANKFORD AV,Baltimore,MD,
1500 THAMES ST,Baltimore,MD,
2000 SINCLAIR LA,Baltimore,MD,
400 E NORTH AV,Baltimore,MD,
3300 E NORTHERN PKWY,Baltimore,MD,
1700 LOVEGROVE ST,Baltimore,MD,
0 N EUTAW ST,Baltimore,MD,
1500 WASHINGTON BD,Baltimore,MD,
4400 MORAVIA RD,Baltimore,MD,
2000 W PRATT ST,Baltimore,MD,
0 S CHARLES ST,Baltimore,MD,
1700 MCCULLOH ST,Baltimore,MD,
1200 E PRESTON ST,Baltimore,MD,
1100 N MOUNT ST,Baltimore,MD,
1000 ST DUNSTANS RD,Baltimore,MD,
2000 EDGEWOOD ST,Baltimore,MD,
1800 W NORTH AV,Baltimore,MD,
2700 BOOKER T DR,Baltimore,MD,
3200 HOLLINS FERRY RD,Baltimore,MD,
3800 W BELVEDERE AV,Baltimore,MD,
900 STODDARD CT,Baltimore,MD,
1700 HARLEM AV,Baltimore,MD,
700 BAYLIS ST,Baltimore,MD,
2700 W COLD SPRING LA,Baltimore,MD,
3900 BELAIR RD,Baltimore,MD,
4200 BELAIR RD,Baltimore,MD,
1100 ABBOTT CT,Baltimore,MD,
5200 HARFORD RD,Baltimore,MD,
500 N WARWICK AVE,Baltimore,MD,
200 S FULTON AV,Baltimore,MD,
1200 W NORTH AV,Baltimore,MD,
5200 HARFORD RD,Baltimore,MD,
700 S REGESTER ST,Baltimore,MD,
2500 WOODBROOK AV,Baltimore,MD,
2500 WOODBROOK AV,Baltimore,MD,
5000 CHALGROVE AV,Baltimore,MD,
2700 THE ALAMEDA,Baltimore,MD,
2300 JEFFERSON ST,Baltimore,MD,
2600 WILKENS AV,Baltimore,MD,
600 N PACA ST,Baltimore,MD,
3600 EASTERN AVE,Baltimore,MD,
3600 EASTERN AVE,Baltimore,MD,
2400 BELAIR RD,Baltimore,MD,
3000 S HANOVER ST,Baltimore,MD,
1800 N SMALLWOOD ST,Baltimore,MD,
2600 PARK HEIGHTS TER,Baltimore,MD,
1100 N MONROE ST,Baltimore,MD,
5100 LEVINDALE RD,Baltimore,MD,
1100 N MONROE ST,Baltimore,MD,
1100 N MONROE ST,Baltimore,MD,
700 W LAFAYETTE AV,Baltimore,MD,
1400 E NORTH AV,Baltimore,MD,
2300 LIBERTY HGTS AV,Baltimore,MD,
900 N CAROLINE ST,Baltimore,MD,
500 WINSTON AV,Baltimore,MD,
3300 BELAIR RD,Baltimore,MD,
1100 N MONROE ST,Baltimore,MD,
2600 WILKENS AV,Baltimore,MD,
500 N FREMONT AV,Baltimore,MD,
3300 EDMONDSON AV,Baltimore,MD,
1700 N CHAPEL ST,Baltimore,MD,
1100 N MONROE ST,Baltimore,MD,
1100 N MONROE ST,Baltimore,MD,
2600 WILKENS AV,Baltimore,MD,
5100 LEVINDALE RD,Baltimore,MD,
100 232RD ST,Baltimore,MD,
6500 EBERLE DR,Baltimore,MD,
5100 SEKOTS RD,Baltimore,MD,
Loch Raven Village,Baltimore,MD,
600 N WOLFE ST,Baltimore,MD,
0 S WOODINGTON RD,Baltimore,MD,
3900 CLAREMONT AV,Baltimore,MD,
1700 N BRADFORD ST,Baltimore,MD,
0 W HAMILTON ST,Baltimore,MD,
3500 INGLESIDE AV,Baltimore,MD,
3500 INGLESIDE AV,Baltimore,MD,
800 LYNDHURST ST,Baltimore,MD,
3400 PARKLAWN AV,Baltimore,MD,
1000 N PAYSON ST,Baltimore,MD,
2500 W BALTIMORE ST,Baltimore,MD,
5100 PARK HEIGHTS AV,Baltimore,MD,
2500 EDMONDSON AV,Baltimore,MD,
200 S DALLAS CT,Baltimore,MD,
5000 LOCH RAVEN BD,Baltimore,MD,
6100 SHIPVIEW WY,Baltimore,MD,
5500 HARFORD RD,Baltimore,MD,
2700 HAMILTON AV,Baltimore,MD,
1600 CHERRY ST,Baltimore,MD,
1600 CHERRY ST,Baltimore,MD,
2800 EDMONDSON AV,Baltimore,MD,
1600 CHERRY ST,Baltimore,MD,
1100 COVINGTON ST,Baltimore,MD,
0 N MONASTERY AV,Baltimore,MD,
2400 N CHARLES ST,Baltimore,MD,
5300 READY AV,Baltimore,MD,
1100 WASHINGTON BD,Baltimore,MD,
2400 W FRANKLIN ST,Baltimore,MD,
2100 E BALTIMORE ST,Baltimore,MD,
3800 SAINT VICTOR ST,Baltimore,MD,
300 N CHAPELGATE LA,Baltimore,MD,
6800 REISTERSTOWN RD,Baltimore,MD,
2800 WINDSOR AVE,Baltimore,MD,
1600 ABBOTSTON ST,Baltimore,MD,
3600 GELSTON DR,Baltimore,MD,
1300 MCCULLOH ST,Baltimore,MD,
200 REEDBIRD AV,Baltimore,MD,
4900 CURTIS AV,Baltimore,MD,
4900 CURTIS AV,Baltimore,MD,
4900 CURTIS AV,Baltimore,MD,
1400 E FORT AV,Baltimore,MD,
300 E 23RD ST,Baltimore,MD,
0 N MONASTERY AV,Baltimore,MD,
200 S DALLAS CT,Baltimore,MD,
2400 W BELVEDERE AV,Baltimore,MD,
5000 LOCH RAVEN BD,Baltimore,MD,
1600 ABBOTSTON ST,Baltimore,MD,
400 WASHBURN AV,Baltimore,MD,
5400 BELLE VISTA AV,Baltimore,MD,
100 N CENTRAL AVE,Baltimore,MD,
4300 PIMLICO RD APT 2,Baltimore,MD,
5400 MOORES RUN DR,Baltimore,MD,
4400 HARFORD RD,Baltimore,MD,
1600 GERTRUDE ST,Baltimore,MD,
100 N MOUNT ST,Baltimore,MD,
5400 MOORES RUN DR,Baltimore,MD,
700 E MONUMENT ST,Baltimore,MD,
900 ST DUNSTANS RD,Baltimore,MD,
700 N LINWOOD AV,Baltimore,MD,
0 E FAYETTE ST,Baltimore,MD,
5300 BELAIR RD,Baltimore,MD,
3500 W NORTHERN PW,Baltimore,MD,
100 N MOUNT ST,Baltimore,MD,
2800 OLD FRANKLIN MULBERRY,Baltimore,MD,
900 WHITELOCK ST,Baltimore,MD,
1300 N FULTON AV,Baltimore,MD,
1800 W BALTIMORE ST,Baltimore,MD,
200 E LAFAYETTE AVE,Baltimore,MD,
100 N FRONT ST,Baltimore,MD,
1500 WADSWORTH WAY,Baltimore,MD,
6400 HILLTOP AV,Baltimore,MD,
3400 W NORTH AV,Baltimore,MD,
100 W SARATOGA ST,Baltimore,MD,
200 N FRONT ST,Baltimore,MD,
2800 W NORTH AVE,Baltimore,MD,
300 E UNIVERSITY PW,Baltimore,MD,
400 E SARATOGA ST,Baltimore,MD,
100 S WASHINGTON ST,Baltimore,MD,
1800 GWYNNS FALLS PW,Baltimore,MD,
200 EUTAW PL,Baltimore,MD,
2900 MALLVIEW RD,Baltimore,MD,
1400 LOVEGROVE ST,Baltimore,MD,
500 S CHESTER ST,Baltimore,MD,
800 W LEXINGTON ST,Baltimore,MD,
500 W FRANKLIN ST,Baltimore,MD,
7200 MCCLEAN BD,Baltimore,MD,
300 E NORTH AV,Baltimore,MD,
2800 ROSLYN AV,Baltimore,MD,
2800 OAKFORD AV,Baltimore,MD,
1000 ALICEANNA ST,Baltimore,MD,
3700 REXMERE RD,Baltimore,MD,
3100 GLENMORE AV,Baltimore,MD,
1200 W LOMBARD ST,Baltimore,MD,
1000 N EUTAW ST,Baltimore,MD,
0 MARKET PL,Baltimore,MD,
2300 FREDERICK AV,Baltimore,MD,
1100 LAURENS ST,Baltimore,MD,
1600 E LOMBARD ST,Baltimore,MD,
4700 SIPPLE AV,Baltimore,MD,
1800 CASADEL AVE,Baltimore,MD,
ST & E CROSS ST,Baltimore,MD,
1500 N LONGWOOD ST,Baltimore,MD,
1800 E BELVEDERE AV,Baltimore,MD,
1800 E BELVEDERE AV,Baltimore,MD,
300 LIGHT ST,Baltimore,MD,
2400 ASHTON ST,Baltimore,MD,
400 E SARATOGA ST,Baltimore,MD,
4200 FRANKFORD AV,Baltimore,MD,
3800 LIBERTY HGTS AV,Baltimore,MD,
1600 W NORTH AV,Baltimore,MD,
400 E NORTH AV,Baltimore,MD,
1100 W HAMBURG ST,Baltimore,MD,
400 E BALTIMORE ST,Baltimore,MD,
300 S HOWARD ST,Baltimore,MD,
MONROE ST & EDMONDSON AV,Baltimore,MD,
800 VINE ST,Baltimore,MD,
2400 FRANCIS ST,Baltimore,MD,
900 APPLETON ST,Baltimore,MD,
900 S HANOVER ST,Baltimore,MD,
2300 LIBERTY HGTS AV,Baltimore,MD,
ST & EASTERN AV,Baltimore,MD,
300 FOLCROFT ST,Baltimore,MD,
5900 CHINQUAPIN PKWY,Baltimore,MD,
1200 S MONROE ST,Baltimore,MD,
300 W FRANKLIN ST,Baltimore,MD,
300 W FRANKLIN ST,Baltimore,MD,
300 W FRANKLIN ST,Baltimore,MD,
2700 THE ALAMEDA,Baltimore,MD,
3900 MAINE AV,Baltimore,MD,
0 S HILTON ST,Baltimore,MD,
1900 W PRATT ST,Baltimore,MD,
3100 INDEPENDENCE ST,Baltimore,MD,
4000 PENHURST AV,Baltimore,MD,
100 N KENWOOD AV,Baltimore,MD,
400 S AUGUSTA AV,Baltimore,MD,
200 N BRUCE ST,Baltimore,MD,
0 N HOWARD ST,Baltimore,MD,
2300 W LANVALE ST,Baltimore,MD,
3000 EAST DR,Baltimore,MD,
500 WARNER ST,Baltimore,MD,
500 WARNER ST,Baltimore,MD,
500 WARNER ST,Baltimore,MD,
1600 E 25TH ST,Baltimore,MD,
4400 MANORVIEW RD,Baltimore,MD,
4600 REISTERSTOWN RD,Baltimore,MD,
2700 BEREA RD,Baltimore,MD,
3400 PARK HEIGHTS AV,Baltimore,MD,
4400 GARRISON BD,Baltimore,MD,
0 S MOUNT ST,Baltimore,MD,
0 S MOUNT ST,Baltimore,MD,
4400 MANORVIEW RD,Baltimore,MD,
2500 PENNSYLVANIA AV,Baltimore,MD,
2400 PICKERING DR,Baltimore,MD,
3700 PINEWOOD AV,Baltimore,MD,
0 MARKET PL,Baltimore,MD,
200 N BRUCE ST,Baltimore,MD,
1800 ORLEANS ST,Baltimore,MD,
3900 W NORTHERN PW,Baltimore,MD,
600 GUILFORD AV,Baltimore,MD,
1000 N CALVERT ST,Baltimore,MD,
2100 W PATAPSCO AV,Baltimore,MD,
0 S MOUNT ST,Baltimore,MD,
2700 SPELMAN RD APT 3,Baltimore,MD,
2900 HILLSDALE RD,Baltimore,MD,
100 S BROADWAY,Baltimore,MD,
500 OLDTOWN MALL,Baltimore,MD,
1900 W FRANKLIN ST,Baltimore,MD,
500 W PRESTON ST,Baltimore,MD,
4400 MANORVIEW RD,Baltimore,MD,
3400 CLIFTON AV,Baltimore,MD,
0 E 30TH ST,Baltimore,MD,
4100 EIERMAN AV,Baltimore,MD,
0 E 30TH ST,Baltimore,MD,
3300 ELMLEY AV,Baltimore,MD,
1500 W NORTH AV,Baltimore,MD,
700 CHESTNUT HILL AV,Baltimore,MD,
3500 CLIFTON AV,Baltimore,MD,
2700 WILKENS AVE,Baltimore,MD,
100 S BROADWAY,Baltimore,MD,
100 S BROADWAY,Baltimore,MD,
0 E 30TH ST,Baltimore,MD,
3300 ELMLEY AV,Baltimore,MD,
600 E BALTIMORE ST,Baltimore,MD,
2200 DRUID PARK DR,Baltimore,MD,
1000 TUNBRIDGE RD,Baltimore,MD,
400 E OLIVER ST,Baltimore,MD,
400 N PATTERSON PK AV,Baltimore,MD,
0 S SCHROEDER ST,Baltimore,MD,
1600 PENNSYLVANIA AV,Baltimore,MD,
100 S TREMONT RD,Baltimore,MD,
1900 W FRANKLIN ST,Baltimore,MD,
3300 ELMLEY AV,Baltimore,MD,
3300 ELMLEY AV,Baltimore,MD,
2900 ELLICOTT DR,Baltimore,MD,
2600 DULANEY AVE,Baltimore,MD,
200 S HOWARD ST,Baltimore,MD,
5200 YORK RD,Baltimore,MD,
2800 HARFORD RD,Baltimore,MD,
2900 ST PAUL ST,Baltimore,MD,
1400 ORLEANS ST,Baltimore,MD,
2500 N HOWARD ST,Baltimore,MD,
100 KANE ST,Baltimore,MD,
1100 E 33RD ST,Baltimore,MD,
1300 W NORTH AV,Baltimore,MD,
2200 CECIL AV,Baltimore,MD,
1200 N MONTFORD AV,Baltimore,MD,
2200 WALBROOK AV,Baltimore,MD,
4000 EASTERN AV,Baltimore,MD,
1700 E FAYETTE ST,Baltimore,MD,
5300 BARBARA AV,Baltimore,MD,
1300 LEMMON ST,Baltimore,MD,
5300 PLAINFIELD AV,Baltimore,MD,
200 S FRANKLIN,Baltimore,MD,
2500 N HOWARD ST,Baltimore,MD,
6900 HARFORD RD,Baltimore,MD,
4000 WESTCHESTER RD,Baltimore,MD,
6700 GRACELAND AV,Baltimore,MD,
1100 COVINGTON ST,Baltimore,MD,
1100 COVINGTON ST,Baltimore,MD,
300 WARREN AV,Baltimore,MD,
1000 SAINT PAUL ST,Baltimore,MD,
5000 TRUESDALE AV,Baltimore,MD,
4000 WESTCHESTER RD,Baltimore,MD,
5500 ELDERON AV,Baltimore,MD,
4700 LIBERTY HEIGHTS AVE,Baltimore,MD,
2200 GWYNNS FALLS PKWY,Baltimore,MD,
5400 HARFORD RD,Baltimore,MD,
5100 PARK HEIGHTS AV,Baltimore,MD,
5100 PARK HEIGHTS AV,Baltimore,MD,
5100 PARK HEIGHTS AV,Baltimore,MD,
1500 HAVENWOOD RD,Baltimore,MD,
3500 LUCILLE AV,Baltimore,MD,
2200 ANNAPOLIS RD,Baltimore,MD,
5500 HARFORD RD,Baltimore,MD,
1100 EDMONDSON AV,Baltimore,MD,
600 LUCIA AV,Baltimore,MD,
2300 N DUKELAND ST,Baltimore,MD,
5300 EDMONDSON AV,Baltimore,MD,
2300 N DUKELAND ST,Baltimore,MD,
5400 HARFORD RD,Baltimore,MD,
2700 SISSON ST,Baltimore,MD,
4900 SCHAUB AV,Baltimore,MD,
4900 SCHAUB AV,Baltimore,MD,
1100 EDMONDSON AV,Baltimore,MD,
600 N HILTON ST,Baltimore,MD,
3200 THE ALAMEDA,Baltimore,MD,
6800 FAIT AV,Baltimore,MD,
100 S CALVERT ST,Baltimore,MD,
900 COOKS LA,Baltimore,MD,
1500 N GILMOR ST,Baltimore,MD,
700 DRUID HILL AV,Baltimore,MD,
1000 E Cold Spring Ln,Baltimore,MD,
200 BETHEL CT,Baltimore,MD,
6700 BRENTWOOD AV,Baltimore,MD,
1100 N BRADFORD ST,Baltimore,MD,
900 N CALHOUN ST,Baltimore,MD,
3600 MOUNT PLEASANT AV,Baltimore,MD,
2000 ROBB ST,Baltimore,MD,
2600 PIERPONT ST,Baltimore,MD,
1000 N ELLAMONT ST,Baltimore,MD,
1500 HARFORD AV,Baltimore,MD,
1800 E LAFAYETTE AV,Baltimore,MD,
1500 E FAIRMOUNT AV,Baltimore,MD,
1900 EUTAW PL,Baltimore,MD,
4300 MAINE AV,Baltimore,MD,
2000 ROBB ST,Baltimore,MD,
3400 BELAIR RD,Baltimore,MD,
900 GRANBY,Baltimore,MD,
3400 BELAIR RD,Baltimore,MD,
7300 HARFORD RD,Baltimore,MD,
900 PENNSYLVANIA AV,Baltimore,MD,
2800 N DUKELAND ST,Baltimore,MD,
2800 N DUKELAND ST,Baltimore,MD,
4400 ADELLE TER,Baltimore,MD,
2000 EDGEWOOD ST,Baltimore,MD,
1800 BLOOMINGDALE RD,Baltimore,MD,
2200 W NORTH AV,Baltimore,MD,
200 S BROADWAY,Baltimore,MD,
500 N MONROE ST,Baltimore,MD,
1100 E NORTH AV,Baltimore,MD,
100 S TREMONT RD,Baltimore,MD,
4400 PARK HEIGHTS AV,Baltimore,MD,
4800 BELAIR RD,Baltimore,MD,
400 S GILMOR ST,Baltimore,MD,
100 S BROADWAY,Baltimore,MD,
2600 MARYLAND AV,Baltimore,MD,
2800 EDGECOMBE CIR N,Baltimore,MD,
900 BETHUNE RD,Baltimore,MD,
5000 WRIGHT AV,Baltimore,MD,
1800 UNION AV,Baltimore,MD,
600 WILDWOOD PW,Baltimore,MD,
0 S STOCKTON ST,Baltimore,MD,
100 DENISON ST,Baltimore,MD,
3300 LERCH DR,Baltimore,MD,
1300 WASHINGTON BD,Baltimore,MD,
5500 HARFORD RD,Baltimore,MD,
2000 W BALTIMORE ST,Baltimore,MD,
4100 EIERMAN AV,Baltimore,MD,
700 N MADEIRA ST,Baltimore,MD,
1200 GREENMOUNT AV,Baltimore,MD,
4800 HAMILTON AV,Baltimore,MD,
100 S BROADWAY,Baltimore,MD,
300 WARREN AVE,Baltimore,MD,
3300 BELAIR RD,Baltimore,MD,
1500 BARCLAY ST,Baltimore,MD,
900 HARLEM AV,Baltimore,MD,
1300 LAURENS ST,Baltimore,MD,
100 N POPPLETON ST,Baltimore,MD,
200 S CAROLINE ST,Baltimore,MD,
6300 EASTERN AV,Baltimore,MD,
700 DRUID PK LAKE DR,Baltimore,MD,
2700 THE ALAMEDA,Baltimore,MD,
1500 MYRTLE AV,Baltimore,MD,
4800 HAMILTON AV,Baltimore,MD,
0 W BIDDLE ST,Baltimore,MD,
1800 N FULTON AV,Baltimore,MD,
5100 WILLISTON ST,Baltimore,MD,
100 S EAST AV,Baltimore,MD,
100 S KOSSUTH ST,Baltimore,MD,
400 N CLINTON ST,Baltimore,MD,
800 E BELVEDERE AV,Baltimore,MD,
2700 JEFFERSON ST,Baltimore,MD,
200 S CONKLING ST,Baltimore,MD,
6200 ALTA AV,Baltimore,MD,
600 BAKER ST,Baltimore,MD,
2300 E FAIRMOUNT AVE,Baltimore,MD,
700 EDGEWOOD ST,Baltimore,MD,
2200 LONGVIEW AVE,Baltimore,MD,
6600 BELAIR RD,Baltimore,MD,
1000 E BIDDLE ST,Baltimore,MD,
4000 PENHURST AV,Baltimore,MD,
100 N SMALLWOOD ST,Baltimore,MD,
2100 N CHARLES ST,Baltimore,MD,
2100 BELAIR RD,Baltimore,MD,
700 ENSOR ST,Baltimore,MD,
5900 WALTHER AV,Baltimore,MD,
800 BETHUNE RD,Baltimore,MD,
3700 COTTAGE AV,Baltimore,MD,
4200 FREDERICK AV,Baltimore,MD,
300 S CALHOUN ST,Baltimore,MD,
2200 BROOKFIELD AV,Baltimore,MD,
1200 DRUID HILL AV,Baltimore,MD,
4800 ERDMAN AV,Baltimore,MD,
2000 E FAYETTE ST,Baltimore,MD,
1600 N MILTON AV,Baltimore,MD,
2500 E NORTHERN PW,Baltimore,MD,
4800 ERDMAN AV,Baltimore,MD,
1400 WINSTON AV,Baltimore,MD,
700 E 25TH ST,Baltimore,MD,
400 CUMMINGS CT,Baltimore,MD,
400 N ATHOL AV,Baltimore,MD,
3800 W BELVEDERE AV,Baltimore,MD,
5400 Reistertown Rd,Baltimore,MD,
3300 GARRISON BD,Baltimore,MD,
800 BETHUNE RD,Baltimore,MD,
400 N GAY ST,Baltimore,MD,
1000 WOODSON RD,Baltimore,MD,
1700 CHERRY HILL RD,Baltimore,MD,
3700 EVERGREEN AVE,Baltimore,MD,
4100 LABYRINTH RD,Baltimore,MD,
4300 ADELLE TR,Baltimore,MD,
3300 ECHODALE AVE,Baltimore,MD,
2000 HOMEWOOD,Baltimore,MD,
200 N SPRING CT,Baltimore,MD,
100 MERCER ST,Baltimore,MD,
600 S HIGHLAND AVE,Baltimore,MD,
300 S NORRIS ST,Baltimore,MD,
300 S PAYSON ST,Baltimore,MD,
4300 FREDERICK AVE,Baltimore,MD,
4800 BEAUFORT AV,Baltimore,MD,
500 W LANVALE ST,Baltimore,MD,
1600 E 31ST ST,Baltimore,MD,
900 N WODINGTON RD,Baltimore,MD,
300 BLOOM ST,Baltimore,MD,
200 S DALLAS CT,Baltimore,MD,
400 N EUTAW ST,Baltimore,MD,
100 S EAST AV,Baltimore,MD,
4600 BELVIEU AV,Baltimore,MD,
1600 N CHAPEL ST,Baltimore,MD,
2500 QUANTICO AV,Baltimore,MD,
2600 OAKLEY AV,Baltimore,MD,
0 N POTOMAC ST,Baltimore,MD,
3700 REISTERSTOWN RD,Baltimore,MD,
1400 FILLMORE ST,Baltimore,MD,
1900 BLOOMINGDALE RD,Baltimore,MD,
0 S HOWARD ST,Baltimore,MD,
2400 HERKIMER ST,Baltimore,MD,
100 N CURLEY ST,Baltimore,MD,
5900 LILLYAN AV,Baltimore,MD,
1700 ABBOTSON ST,Baltimore,MD,
2100 E MONUMENT ST,Baltimore,MD,
1700 THAMES ST,Baltimore,MD,
1700 THAMES ST,Baltimore,MD,
1700 THAMES ST,Baltimore,MD,
200 N HOWARD ST,Baltimore,MD,
5000 CONANT WY,Baltimore,MD,
500 MOUNT HOLLY ST,Baltimore,MD,
3400 WALBROOK AV,Baltimore,MD,
300 S NORRIS ST,Baltimore,MD,
2800 GWYNNS FALLS PW,Baltimore,MD,
6700 MOYER AV,Baltimore,MD,
4600 FALLS RD,Baltimore,MD,
1700 EASTERN AVE,Baltimore,MD,
5800 MORAVIA RD,Baltimore,MD,
400 S EATON ST,Baltimore,MD,
600 N LAKEWOOD AV,Baltimore,MD,
3400 E BALTIMORE ST,Baltimore,MD,
800 N PORT ST,Baltimore,MD,
5200 GOODNOW RD,Baltimore,MD,
0 E PRATT ST,Baltimore,MD,
3400 PULASKI HW,Baltimore,MD,
900 EVESHAM AV,Baltimore,MD,
5200 CUTHBERT AVE,Baltimore,MD,
400 STATE ST,Baltimore,MD,
0 COMMERCE ST,Baltimore,MD,
6600 VINCENT LN,Baltimore,MD,
400 S PULASKI ST,Baltimore,MD,
2400 PENNSYLVANIA AV,Baltimore,MD,
3500 NOBLE ST,Baltimore,MD,
2700 E BALTIMORE ST,Baltimore,MD,
100 S BROADWAY,Baltimore,MD,
100 S BROADWAY,Baltimore,MD,
1600 LATROBE ST,Baltimore,MD,
2500 MARYLAND AV,Baltimore,MD,
1400 N EDEN ST,Baltimore,MD,
1500 N MILTON AV,Baltimore,MD,
5900 PLUMER AV,Baltimore,MD,
1200 E PRESTON ST,Baltimore,MD,
800 HERNDON CT,Baltimore,MD,
300 N ELLWOOD AV,Baltimore,MD,
400 CAROLYN ST,Baltimore,MD,
1400 BROENING HW,Baltimore,MD,
3800 REISTERSTOWN RD,Baltimore,MD,
2900 WYNHAM RD,Baltimore,MD,
4200 OAKFORD AV,Baltimore,MD,
4000 CORSE AVE,Baltimore,MD,
1200 LIMIT AV,Baltimore,MD,
700 E 41ST ST,Baltimore,MD,
3400 REISTERSTOWN RD,Baltimore,MD,
100 N FREMONT AV,Baltimore,MD,
100 N FREMONT AV,Baltimore,MD,
1700 DUNDALK AV,Baltimore,MD,
5200 REISTERSTOWN RD,Baltimore,MD,
3600 EVERETT ST,Baltimore,MD,
900 STOLL ST,Baltimore,MD,
700 MELVILLE AV,Baltimore,MD,
100 N FREMONT AV,Baltimore,MD,
1700 MCCULLOH ST,Baltimore,MD,
3700 E PRATT ST,Baltimore,MD,
6500 EBERLE DR,Baltimore,MD,
600 CHERRY HILL RD,Baltimore,MD,
4400 SHAMROCK AV,Baltimore,MD,
2900 ARUNAH AV,Baltimore,MD,
0 S HIGHLAND AV,Baltimore,MD,
2500 EUTAW PL,Baltimore,MD,
200 N PACA ST,Baltimore,MD,
1400 E MADISON ST,Baltimore,MD,
700 WASHINGTON BD,Baltimore,MD,
3300 ELLERSLIE AVE,Baltimore,MD,
4300 HARFORD RD,Baltimore,MD,
2500 MCHENRY ST,Baltimore,MD,
2500 MCHENRY ST,Baltimore,MD,
2700 GWYNNS FALLS PW,Baltimore,MD,
500 GUSRYAN,Baltimore,MD,
1700 MONTPELIER ST,Baltimore,MD,
2400 E OLIVER ST,Baltimore,MD,
2700 BAYONNE AV,Baltimore,MD,
1600 FEDERAL ST,Baltimore,MD,
1600 E OLIVER ST,Baltimore,MD,
5400 REISTERSTOWN RD,Baltimore,MD,
5100 REISTERSTOWN RD,Baltimore,MD,
1300 JAMES ST,Baltimore,MD,
2000 GREENVIEW AVE,Baltimore,MD,
3400 EDMONDSON AV,Baltimore,MD,
500 RICHWOOD AV,Baltimore,MD,
2300 ASHLAND AV,Baltimore,MD,
4100 PRIOR AV,Baltimore,MD,
2000 W NORTH AV,Baltimore,MD,
800 E PATAPSCO AV,Baltimore,MD,
5400 PARK HEIGHTS AV,Baltimore,MD,
2700 ULMAN AV,Baltimore,MD,
200 PONTIAC AVE,Baltimore,MD,
200 PONTIAC AVE,Baltimore,MD,
2300 W PATAPSCO AV,Baltimore,MD,
400 E SARATOGA ST,Baltimore,MD,
LA & ABERDEEN AV,Baltimore,MD,
100 DARK LN,Baltimore,MD,
3500 EDGEWOOD RD,Baltimore,MD,
3700 W BELVEDERE AV,Baltimore,MD,
4000 W COLD SPRING LA,Baltimore,MD,
900 VALLEY ST,Baltimore,MD,
0 N ABINGTON AV,Baltimore,MD,
2300 ASHLAND AV,Baltimore,MD,
1900 N ROSEDALE ST,Baltimore,MD,
3700 W COLD SPRING LA,Baltimore,MD,
3700 W COLD SPRING LA,Baltimore,MD,
2400 REISTERSTOWN RD,Baltimore,MD,
0 N ABINGTON AV,Baltimore,MD,
200 E BALTIMORE ST,Baltimore,MD,
700 ALICEANNA ST,Baltimore,MD,
3700 W COLD SPRING LA,Baltimore,MD,
700 ALICEANNA ST,Baltimore,MD,
500 N BELNORD AV,Baltimore,MD,
0 N ABINGTON AV,Baltimore,MD,
900 DRUID PK LAKE DR,Baltimore,MD,
900 DRUID PK LAKE DR,Baltimore,MD,
2900 REISTERSTOWN RD,Baltimore,MD,
700 ALICEANNA ST,Baltimore,MD,
100 S GREENE ST,Baltimore,MD,
200 E BALTIMORE ST,Baltimore,MD,
200 E MADISON ST,Baltimore,MD,
700 WASHINGTON BD,Baltimore,MD,
6700 HOLABIRD AV,Baltimore,MD,
4000 EDGEWOOD RD,Baltimore,MD,
100 W 26TH ST,Baltimore,MD,
1400 N LAKEWOOD AV,Baltimore,MD,
3600 FORDS LA,Baltimore,MD,
600 AISQUITH ST,Baltimore,MD,
1100 GORSUCH AV,Baltimore,MD,
4700 GREENSPRING AV,Baltimore,MD,
600 AISQUITH ST,Baltimore,MD,
0 E REDWOOD ST,Baltimore,MD,
2100 E FAYETTE ST,Baltimore,MD,
4700 DARTFORD AV,Baltimore,MD,
100 W 26TH ST,Baltimore,MD,
100 S CALVERTON RD,Baltimore,MD,
4300 NORFOLK AV,Baltimore,MD,
2400 CHELSEA TR,Baltimore,MD,
4400 REISTERSTOWN RD,Baltimore,MD,
1500 PENNSYLVANIA AV,Baltimore,MD,
500 W 28TH ST,Baltimore,MD,
800 WOODWARD ST,Baltimore,MD,
3200 PULASKI HW,Baltimore,MD,
1900 E BELVEDERE AV,Baltimore,MD,
2400 PERRING MANOR RD,Baltimore,MD,
2900 CARVER RD,Baltimore,MD,
2100 BELAIR RD,Baltimore,MD,
2400 LOYOLA NORTHW,Baltimore,MD,
2400 W BALTIMORE ST,Baltimore,MD,
1700 N WASHINGTON ST,Baltimore,MD,
5100 SINCLAIR LA,Baltimore,MD,
4800 BELAIR RD,Baltimore,MD,
1400 Madison St,Baltimore,MD,
3800 LEWIN AV,Baltimore,MD,
1400 N CENTRAL AV,Baltimore,MD,
200 ATHOLGATE LA,Baltimore,MD,
1600 CALHOUN ST,Baltimore,MD,
3800 BEEHLER AVE,Baltimore,MD,
3900 HILTON RD,Baltimore,MD,
4100 IDAHO AV,Baltimore,MD,
1600 HARFORD AV,Baltimore,MD,
5100 SINCLAIR LA,Baltimore,MD,
100 THOMAS GUIDERRA CR,Baltimore,MD,
4300 REISTERSTOWN RD,Baltimore,MD,
2900 WINCHESTER ST,Baltimore,MD,
2000 W LEXINGTON ST,Baltimore,MD,
5800 WILLOWTON AV,Baltimore,MD,
2000 W NORTH AVE,Baltimore,MD,
1400 N CENTRAL AV,Baltimore,MD,
2000 PENROSE AV,Baltimore,MD,
1200 W PRATT ST,Baltimore,MD,
4100 W GARRISON AV,Baltimore,MD,
0 E FAYETTE ST,Baltimore,MD,
1900 N WOLFE ST,Baltimore,MD,
800 PENNSYLVANIA AV,Baltimore,MD,
4200 KENWOOD AVE,Baltimore,MD,
600 N POTOMAC ST,Baltimore,MD,
100 MCMECHEN ST,Baltimore,MD,
0 E FAYETTE ST,Baltimore,MD,
300 W LEXINGTON ST,Baltimore,MD,
2600 LOYOLA SOUTHW,Baltimore,MD,
500 S HIGHLAND AVE,Baltimore,MD,
2900 CARVER RD (REAR),Baltimore,MD,
2300 WESTWOOD AVE,Baltimore,MD,
3200 EVERGREEN AV,Baltimore,MD,
4100 6TH ST,Baltimore,MD,
1500 MADISON AV,Baltimore,MD,
PRATT ST & S MLK JR BD,Baltimore,MD,
1300 W BALTIMORE ST,Baltimore,MD,
800 W PATAPSCO AV,Baltimore,MD,
3100 TOWANDA AVE,Baltimore,MD,
2200 GUILFORD AV,Baltimore,MD,
4000 LINKWOOD RD,Baltimore,MD,
2300 E NORTHERN PKWY,Baltimore,MD,
1100 E BIDDLE ST,Baltimore,MD,
5200 EASTBURY AVE,Baltimore,MD,
1700 N BOND ST,Baltimore,MD,
100 W 25TH ST,Baltimore,MD,
3100 DILLON ST,Baltimore,MD,
1400 E COLD SPRING LA,Baltimore,MD,
1100 N CALVERT ST,Baltimore,MD,
2300 LIBERTY HGTS AV,Baltimore,MD,
2200 KLOMAN ST,Baltimore,MD,
1800 POPLAR GROVE ST,Baltimore,MD,
5700 WINNER AV,Baltimore,MD,
3700 WHITE AV,Baltimore,MD,
700 W FAYETTE ST,Baltimore,MD,
1300 N PATTERSON PK AV,Baltimore,MD,
2200 GUILFORD AV,Baltimore,MD,
5500 JONQUIL AV,Baltimore,MD,
5500 WABASH AV,Baltimore,MD,
1700 DARLEY AV,Baltimore,MD,
4800 PIMLICO RD,Baltimore,MD,
1800 DIVISION ST,Baltimore,MD,
2400 LOYOLA NORTHW,Baltimore,MD,
900 E NORTH AV,Baltimore,MD,
200 E UNIVERSITY PW,Baltimore,MD,
2400 N CHARLES ST,Baltimore,MD,
3100 BRIGHTON RD,Baltimore,MD,
400 N CASTLE ST,Baltimore,MD,
100 E PLEASANT ST,Baltimore,MD,
4000 PARK HEIGHTS AV,Baltimore,MD,
1100 CARROLL ST,Baltimore,MD,
100 S CASTLE ST,Baltimore,MD,
3000 HANLON AV,Baltimore,MD,
3200 MONDAWMIN AV,Baltimore,MD,
500 N CARROLLTON AV,Baltimore,MD,
200 S GRUNDY ST,Baltimore,MD,
600 LYNDHURST ST,Baltimore,MD,
0 S ELLWOOD AV,Baltimore,MD,
200 S GRUNDY ST,Baltimore,MD,
2800 FOSTER AV,Baltimore,MD,
2300 WASHINGTON BD,Baltimore,MD,
2300 WASHINGTON BD,Baltimore,MD,
400 GRINDALL ST,Baltimore,MD,
4700 SHAMROCK AV,Baltimore,MD,
2700 E FAYETTE ST,Baltimore,MD,
200 S BENTALOU ST,Baltimore,MD,
100 S CASTLE ST,Baltimore,MD,
3400 PIEDMONT AV,Baltimore,MD,
2000 N SMALLWOOD ST,Baltimore,MD,
600 S HAVEN ST,Baltimore,MD,
2000 N SMALLWOOD ST,Baltimore,MD,
2000 N SMALLWOOD ST,Baltimore,MD,
600 LAURENS ST,Baltimore,MD,
900 N ROSEDALE AVE,Baltimore,MD,
2400 W BELVEDERE AV,Baltimore,MD,
900 N ROSEDALE AVE,Baltimore,MD,
1800 ORLEANS ST,Baltimore,MD,
1400 N CHARLES ST,Baltimore,MD,
1400 N CHARLES ST,Baltimore,MD,
7200 CHALKSTONE DR,Baltimore,MD,
1300 W LAFAYETTE AV,Baltimore,MD,
1800 N GAY ST,Baltimore,MD,
5100 BELAIR RD,Baltimore,MD,
3500 FREDERICK AV,Baltimore,MD,
2200 W FRANKLIN ST,Baltimore,MD,
2600 N CHARLES ST,Baltimore,MD,
MOUNT ROYAL AV & ST PAUL ST,Baltimore,MD,
2600 BOARMAN AVE,Baltimore,MD,
2800 GANLEY DR,Baltimore,MD,
400 N EUTAW ST,Baltimore,MD,
0 CUSTOM HOUSE AV,Baltimore,MD,
Penn North,Baltimore,MD,
RD & N BROADWAY,Baltimore,MD,
3200 E LOMBARD ST,Baltimore,MD,
500 N CARROLLTON AV,Baltimore,MD,
Penn North,Baltimore,MD,
4500 DERBY MANOR DR,Baltimore,MD,
4500 DERBY MANOR DR,Baltimore,MD,
4500 DERBY MANOR DR,Baltimore,MD,
4500 DERBY MANOR DR,Baltimore,MD,
1500 E BIDDLE ST,Baltimore,MD,
1200 BRENTWOOD AV,Baltimore,MD,
100 N STRICKER ST,Baltimore,MD,
1200 BRENTWOOD AV,Baltimore,MD,
800 E JEFFREY ST,Baltimore,MD,
4300 BELAIR RD,Baltimore,MD,
2600 BARCLAY ST,Baltimore,MD,
300 W FAYETTE ST,Baltimore,MD,
400 E 27TH ST,Baltimore,MD,
1900 MARYLAND AV,Baltimore,MD,
400 E SARATOGA ST,Baltimore,MD,
3000 JEFFERSON ST,Baltimore,MD,
4300 BELAIR RD,Baltimore,MD,
4300 BELAIR RD,Baltimore,MD,
300 E PRATT ST,Baltimore,MD,
300 E PRATT ST,Baltimore,MD,
1900 MARYLAND AV,Baltimore,MD,
3000 MAYFIELD AV,Baltimore,MD,
300 S CLINTON ST,Baltimore,MD,
3000 E FAYETTE ST,Baltimore,MD,
400 E 27TH ST,Baltimore,MD,
2900 W BELVEDERE AV,Baltimore,MD,
5000 BEAUFORT AV,Baltimore,MD,
2600 BARCLAY ST,Baltimore,MD,
200 E 33RD ST,Baltimore,MD,
6200 TRAMORE RD,Baltimore,MD,
1500 WASHINGTON BD,Baltimore,MD,
1500 WASHINGTON BD,Baltimore,MD,
800 N LAKEWOOD AV,Baltimore,MD,
700 S LUZERNE AV,Baltimore,MD,
2200 W NORTH AV,Baltimore,MD,
1300 E MONUMENT ST,Baltimore,MD,
400 S BEECHFIELD AV,Baltimore,MD,
100 S PAYSON ST,Baltimore,MD,
2000 LINDEN AVE,Baltimore,MD,
2900 KIRK AV,Baltimore,MD,
1200 W LOMBARD ST,Baltimore,MD,
1400 E BALTIMORE ST,Baltimore,MD,
2800 E FAYETTE ST,Baltimore,MD,
2100 N CHARLES ST,Baltimore,MD,
4600 SHAMROCK AV,Baltimore,MD,
1400 ANGLESEA ST     #APT 2B,Baltimore,MD,
3400 EASTERN AVE,Baltimore,MD,
4100 EASTERN AV,Baltimore,MD,
1100 WARD ST,Baltimore,MD,
1200 E MONUMENT ST,Baltimore,MD,
1300 E PATAPSCO AV,Baltimore,MD,
900 S KENWOOD AV,Baltimore,MD,
1700 GUILFORD AV,Baltimore,MD,
1800 GUILFORD AV,Baltimore,MD,
2300 JAMES ST,Baltimore,MD,
3400 EASTERN AVE,Baltimore,MD,
1700 GUILFORD AV,Baltimore,MD,
400 S COLLINGTON AV,Baltimore,MD,
0 S HOWARD ST,Baltimore,MD,
4400 FAIRHAVEN AV,Baltimore,MD,
500 N BELNORD AV,Baltimore,MD,
2800 E FAYETTE ST,Baltimore,MD,
3200 W BALTIMORE ST,Baltimore,MD,
4600 PARKTON ST,Baltimore,MD,
0 W LANVALE ST,Baltimore,MD,
3300 DUDLEY AV,Baltimore,MD,
3000 MAYFIELD AV,Baltimore,MD,
2900 HAMILTON AV,Baltimore,MD,
4700 FRANKFORD AV,Baltimore,MD,
800 MCHENRY ST,Baltimore,MD,
4700 FRANKFORD AV,Baltimore,MD,
700 WASHINGTON BD,Baltimore,MD,
1400 MULLIKIN CT,Baltimore,MD,
4800 BRIARCLIFT RD,Baltimore,MD,
3200 W BALTIMORE ST,Baltimore,MD,
1900 GREENMOUNT AVE,Baltimore,MD,
0 W LANVALE ST,Baltimore,MD,
400 E PATAPSCO AV,Baltimore,MD,
400 S CHESTER ST,Baltimore,MD,
900 S PACA ST,Baltimore,MD,
0 N HIGHLAND AV,Baltimore,MD,
5200 YORK RD,Baltimore,MD,
500 RAPPOLLA ST,Baltimore,MD,
3300 ANNAPOLIS RD,Baltimore,MD,
2600 PARK HEIGHTS TR,Baltimore,MD,
3000 OAKHILL AV,Baltimore,MD,
5000 PILGRIM RD,Baltimore,MD,
2500 MARYLAND AV,Baltimore,MD,
2600 PARK HEIGHTS TR,Baltimore,MD,
300 N CARROLLTON AVE,Baltimore,MD,
400 W SARATOGA ST,Baltimore,MD,
400 W 29TH ST,Baltimore,MD,
2600 HURON ST,Baltimore,MD,
2400 GARRISON BD,Baltimore,MD,
5300 CEDONIA AV,Baltimore,MD,
3600 W MULBERRY ST,Baltimore,MD,
3600 W MULBERRY ST,Baltimore,MD,
400 W BALTIMORE ST,Baltimore,MD,
2700 EASTERN AV,Baltimore,MD,
0 E TRENTON ST,Baltimore,MD,
3700 EASTERN AV,Baltimore,MD,
3200 EASTERN AV,Baltimore,MD,
1200 UNION AV,Baltimore,MD,
3400 CHESTNUT AV,Baltimore,MD,
500 ALBEMARLE ST,Baltimore,MD,
1600 N GILMOR ST,Baltimore,MD,
4400 EASTERN AVE,Baltimore,MD,
4200 FALLS RD,Baltimore,MD,
4200 FALLS RD,Baltimore,MD,
1000 N CALHOUN ST,Baltimore,MD,
600 N FULTON AV,Baltimore,MD,
2600 E FAIRMOUNT AV,Baltimore,MD,
2100 W PATAPSCO AV,Baltimore,MD,
4300 BERGER AV,Baltimore,MD,
3800 S HANOVER ST,Baltimore,MD,
600 N FULTON AVE,Baltimore,MD,
3400 CHESTNUT AV,Baltimore,MD,
200 N PACA ST,Baltimore,MD,
2300 MONTICELLO RD,Baltimore,MD,
2400 WASHINGTON BLVD,Baltimore,MD,
2100 W PATAPSCO AV,Baltimore,MD,
5400 BELAIR RD,Baltimore,MD,
1400 W PRATT ST,Baltimore,MD,
200 S ELLWOOD AV,Baltimore,MD,
1 HOPKINS PZ,Baltimore,MD,
1600 N PATTERSON PK AV,Baltimore,MD,
200 S MOUNT ST,Baltimore,MD,
2100 HARFORD RD,Baltimore,MD,
1200 S PONCA ST,Baltimore,MD,
5700 CEDONIA AV,Baltimore,MD,
3200 ANNAPOLIS RD,Baltimore,MD,
1000 ALICEANNA ST,Baltimore,MD,
2000 N MONROE ST,Baltimore,MD,
4200 REISTERSTOWN RD,Baltimore,MD,
4200 REISTERSTOWN RD,Baltimore,MD,
2400 CHELSEA TR,Baltimore,MD,
3100 W NORTH AVE,Baltimore,MD,
3000 EASTERN AV,Baltimore,MD,
0 E HAMILTON ST,Baltimore,MD,
4800 WESTPARKWAY,Baltimore,MD,
4000 NEWTON,Baltimore,MD,
4500 FALLS RD,Baltimore,MD,
700 E 25TH ST,Baltimore,MD,
0 E 25TH ST,Baltimore,MD,
2400 E NORTH AVE,Baltimore,MD,
5300 HARFORD RD,Baltimore,MD,
1200 S PONCA ST,Baltimore,MD,
2300 LIBERTY HGTS AV,Baltimore,MD,
2500 WILKENS AV,Baltimore,MD,
0 S MONASTERY AV,Baltimore,MD,
200 N LINWOOD AV,Baltimore,MD,
4000 PENHURST AV,Baltimore,MD,
200 N CAROLINE ST,Baltimore,MD,
1900 E PRATT ST,Baltimore,MD,
100 W READ ST,Baltimore,MD,
400 E 20TH ST,Baltimore,MD,
RD & W BELVEDERE AV,Baltimore,MD,
4900 REISTERSTOWN RD,Baltimore,MD,
1700 EASTERN AV,Baltimore,MD,
2700 E FAYETTE ST,Baltimore,MD,
700 E 37TH ST,Baltimore,MD,
4900 CHALLEDON RD,Baltimore,MD,
4900 CHALLEDON RD,Baltimore,MD,
1400 RIGGS AV,Baltimore,MD,
4400 BELAIR RD,Baltimore,MD,
5500 SINCLAIR LN,Baltimore,MD,
200 N BENTALOU ST,Baltimore,MD,
2000 ORLEANS ST,Baltimore,MD,
6500 FRANKFORD AV,Baltimore,MD,
4900 CHALLEDON RD,Baltimore,MD,
1500 WINSTON AV,Baltimore,MD,
2000 ALICEANNA ST,Baltimore,MD,
5400 MORELLO RD,Baltimore,MD,
3000 S HANOVER ST,Baltimore,MD,
3400 HILLDALE PL,Baltimore,MD,
3900 W BELVEDERE AV,Baltimore,MD,
CROSS ST & LIGHT ST,Baltimore,MD,
1700 COLE ST,Baltimore,MD,
1100 FALLS HILL DR,Baltimore,MD,
2200 PRENTISS PL,Baltimore,MD,
1100 N ELLAMONT ST,Baltimore,MD,
2900 BAYONNE AV,Baltimore,MD,
2500 N CHARLES ST,Baltimore,MD,
100 N MONTFORD AV,Baltimore,MD,
0 LIGHT ST,Baltimore,MD,
1400 HOLBROOK ST,Baltimore,MD,
900 STOLL ST,Baltimore,MD,
3600 N ROGERS AV,Baltimore,MD,
100 N CLINTON ST,Baltimore,MD,
1700 HOMESTEAD ST,Baltimore,MD,
400 E LORRAINE AV,Baltimore,MD,
500 E 33RD ST,Baltimore,MD,
100 N CLINTON ST,Baltimore,MD,
100 N CLINTON ST,Baltimore,MD,
3700 EASTERN AV,Baltimore,MD,
300 E LANVALE ST,Baltimore,MD,
2400 W FRANKLIN ST,Baltimore,MD,
100 S BOULDIN ST,Baltimore,MD,
400 N ELLWOOD AV,Baltimore,MD,
900 Franklintown Rd,Baltimore,MD,
100 N CLINTON ST,Baltimore,MD,
1700 LAURENS ST,Baltimore,MD,
700 DRUID PK LAKE DR,Baltimore,MD,
600 N KRESSON ST,Baltimore,MD,
1700 HOMESTEAD ST,Baltimore,MD,
300 ARMORY PL,Baltimore,MD,
5000 DICKEY HILL RD,Baltimore,MD,
4800 LORELLY AV,Baltimore,MD,
4800 LORELLY AV,Baltimore,MD,
3000 W LANVALE ST,Baltimore,MD,
5400 REISTERSTOWN RD,Baltimore,MD,
3500 HAYWARD AV,Baltimore,MD,
2200 GREENMOUNT AV,Baltimore,MD,
500 E 33RD ST,Baltimore,MD,
1700 N CAREY ST,Baltimore,MD,
2500 EMERSON ST,Baltimore,MD,
1600 CLIFTVIEW AVE,Baltimore,MD,
AV & E 23RD ST,Baltimore,MD,
3400 BELAIR RD,Baltimore,MD,
4200 SHELDON AV,Baltimore,MD,
3000 WHITE AVE,Baltimore,MD,
2000 N BROADWAY,Baltimore,MD,
3800 OAKFORD AV,Baltimore,MD,
4600 ERDMAN AV,Baltimore,MD,
1600 W NORTH AVE,Baltimore,MD,
3600 S HANOVER ST,Baltimore,MD,
2500 W NORTH AVE,Baltimore,MD,
2600 EDMONDSON AVE,Baltimore,MD,
3600 MOHAWK AVE,Baltimore,MD,
800 N FULTON AV,Baltimore,MD,
0 S SCHROEDER ST,Baltimore,MD,
600 ARSAN AV,Baltimore,MD,
2600 EDMONDSON AV,Baltimore,MD,
5100 GOODNOW RD,Baltimore,MD,
400 N HIGHLAND AV,Baltimore,MD,
600 ARSAN AV,Baltimore,MD,
2500 EMERSON ST,Baltimore,MD,
200 N EUTAW ST,Baltimore,MD,
2900 GARRISON BLVD,Baltimore,MD,
5500 PARK HEIGHTS AV,Baltimore,MD,
4200 FOREST PARK AV,Baltimore,MD,
3300 GARRISON BD,Baltimore,MD,
3700 WABASH AVE,Baltimore,MD,
100 N AUGUSTA AVE,Baltimore,MD,
3000 S HANOVER ST,Baltimore,MD,
5100 BEAUFORT AV,Baltimore,MD,
2500 W COLD SPRING LA,Baltimore,MD,
2500 W COLD SPRING LA,Baltimore,MD,
600 N CALHOUN ST,Baltimore,MD,
3500 SOUTHERN AV,Baltimore,MD,
4500 FREDERICK AV,Baltimore,MD,
2500 W BALTIMORE ST,Baltimore,MD,
4100 POTTER ST,Baltimore,MD,
PARK DR & REISTERSTOWN RD,Baltimore,MD,
300 MARTINGALE AV,Baltimore,MD,
3500 DUVALL AV,Baltimore,MD,
0 S ATHOL AV,Baltimore,MD,
200 S MADEIRA ST,Baltimore,MD,
3400 BELAIR RD,Baltimore,MD,
0 W JEFFREY ST,Baltimore,MD,
1600 CYPRESS ST,Baltimore,MD,
5100 LIBERTY HGTS AV,Baltimore,MD,
900 N BENTALOU ST,Baltimore,MD,
900 N FREMONT AV,Baltimore,MD,
3500 DUVALL AV,Baltimore,MD,
700 DRUID PK LAKE DR,Baltimore,MD,
0 W JEFFREY ST,Baltimore,MD,
700 N MONTFORD AV,Baltimore,MD,
2300 GREENMOUNT AVE,Baltimore,MD,
1100 INNER CR,Baltimore,MD,
3100 MC ELDERRY ST,Baltimore,MD,
1000 HARGROVE STREET,Baltimore,MD,
2500 EUTAW PL,Baltimore,MD,
3400 WESTERWALD AVE,Baltimore,MD,
3600 W COLD SPRING LA,Baltimore,MD,
2300 WESTWOOD AV,Baltimore,MD,
200 N CAREY ST,Baltimore,MD,
2300 WESTWOOD AVE,Baltimore,MD,
1300 N ELLWOOD AV,Baltimore,MD,
700 MURA ST,Baltimore,MD,
6500 BROOK AV,Baltimore,MD,
6700 MOYER AV,Baltimore,MD,
2300 WESTWOOD AVE,Baltimore,MD,
2200 BRYANT AV,Baltimore,MD,
400 N CHAPEL GATE LN,Baltimore,MD,
300 N MONROE ST,Baltimore,MD,
3300 E FAYETTE ST,Baltimore,MD,
2500 LOYOLA NORTHWAY,Baltimore,MD,
5700 EDGEPARK RD,Baltimore,MD,
1100 LIGHT ST,Baltimore,MD,
3600 GREENSPRING AV,Baltimore,MD,
1600 E CHASE ST,Baltimore,MD,
3800 LEWIN AVE,Baltimore,MD,
1700 CARSWELL ST,Baltimore,MD,
900 N WASHINGTON ST,Baltimore,MD,
0 S PATTERSON PARK AVE,Baltimore,MD,
700 S LUZERNE AVE,Baltimore,MD,
4100 ROLAND AV,Baltimore,MD,
6600 VINCENT LA,Baltimore,MD,
700 E 25TH ST,Baltimore,MD,
300 PARK AVE,Baltimore,MD,
300 PARK AVE,Baltimore,MD,
300 PARK AVE,Baltimore,MD,
500 W PRESTON ST,Baltimore,MD,
500 W PRESTON ST,Baltimore,MD,
600 W PRATT ST,Baltimore,MD,
400 S ELLWOOD AV,Baltimore,MD,
800 BROOKS LA,Baltimore,MD,
3600 W MULBERRY ST,Baltimore,MD,
200 N CASTLE ST,Baltimore,MD,
1600 N PATTERSON PK AV,Baltimore,MD,
4800 TRUESDALE AV,Baltimore,MD,
0 S KRESSON ST,Baltimore,MD,
7000 REISTERSTOWN RD,Baltimore,MD,
3500 PULASKI HWY,Baltimore,MD,
300 E LAFAYETTE AV,Baltimore,MD,
300 E LAFAYETTE AV,Baltimore,MD,
2600 GEORGETOWN RD,Baltimore,MD,
1800 BANK ST,Baltimore,MD,
4200 ERDMAN AV,Baltimore,MD,
3000 MAYFIELD AV,Baltimore,MD,
4300 FREDERICK AVE,Baltimore,MD,
0 W LOMBARD ST,Baltimore,MD,
3000 E HOFFMAN ST,Baltimore,MD,
3500 DOLFIELD AVE,Baltimore,MD,
3500 DOLFIELD AVE,Baltimore,MD,
100 ALBEMARLE ST,Baltimore,MD,
1500 HAVENWOOD RD,Baltimore,MD,
1600 STONEWOOD RD,Baltimore,MD,
2100 WILKENS AV,Baltimore,MD,
4200 REISTERSTOWN RD,Baltimore,MD,
1500 WASHINGTON BD,Baltimore,MD,
2400 PATASPCO AVE,Baltimore,MD,
2900 WYMAN PW,Baltimore,MD,
2900 WYMAN PW,Baltimore,MD,
2900 WYMAN PW,Baltimore,MD,
1700 ALICEANNA ST,Baltimore,MD,
1600 W NORTH AVE,Baltimore,MD,
3100 GWYNNS FALLS PW,Baltimore,MD,
800 W PRATT ST,Baltimore,MD,
1300 N CAROLINE ST,Baltimore,MD,
2200 N CHARLES ST,Baltimore,MD,
5800 HILLEN RD,Baltimore,MD,
300 W 28TH ST,Baltimore,MD,
0 E 28TH ST,Baltimore,MD,
100 MCMECHEN ST,Baltimore,MD,
5600 JONQUIL AV,Baltimore,MD,
5600 JONQUIL AV,Baltimore,MD,
1300 N MOUNT ST,Baltimore,MD,
4100 AUDREY AV,Baltimore,MD,
800 ALLENDALE ST,Baltimore,MD,
1300 WARD ST,Baltimore,MD,
800 ALLENDALE ST,Baltimore,MD,
800 ALLENDALE ST,Baltimore,MD,
1700 DARLEY AV,Baltimore,MD,
1800 RUTLAND AV,Baltimore,MD,
1300 BALLARD WAY,Baltimore,MD,
1300 N FREMONT AV,Baltimore,MD,
4000 FERNHILL,Baltimore,MD,
0 S CAREY ST,Baltimore,MD,
4000 EASTERN AV,Baltimore,MD,
4000 EASTERN AV,Baltimore,MD,
2400 SHIRLEY AV,Baltimore,MD,
800 ALLENDALE ST,Baltimore,MD,
200 N GAY ST,Baltimore,MD,
600 N LINWOOD AVE,Baltimore,MD,
2100 HOLLINS ST,Baltimore,MD,
1300 HOLLINS ST,Baltimore,MD,
3300 PULASKI HW,Baltimore,MD,
500 S SMALLWOOD ST,Baltimore,MD,
1500 ORLEANS ST,Baltimore,MD,
1500 ORLEANS ST,Baltimore,MD,
2700 RUSCOMBE LA,Baltimore,MD,
5100 REISTERSTOWN RD,Baltimore,MD,
1300 HOLLINS ST,Baltimore,MD,
200 N BOND ST,Baltimore,MD,
2200 BAKER ST,Baltimore,MD,
3100 PULASKI HW,Baltimore,MD,
2700 RUSCOMBE LA,Baltimore,MD,
2700 AILSA AV,Baltimore,MD,
3300 SWAN DR,Baltimore,MD,
1700 N DALLAS ST,Baltimore,MD,
1800 N WASHINGTON ST,Baltimore,MD,
900 W LEXINGTON ST,Baltimore,MD,
3100 E NORTHERN PW,Baltimore,MD,
5500 GERLAND AV,Baltimore,MD,
100 W PRATT ST,Baltimore,MD,
4000 LOCH RAVEN BLVD,Baltimore,MD,
3300 E FAYETTE ST,Baltimore,MD,
0 COMMERCE ST,Baltimore,MD,
2700 PULASKI HWY,Baltimore,MD,
2300 GWYNNS FALLS PW,Baltimore,MD,
1800 E FEDERAL ST,Baltimore,MD,
5800 REISTERSTOWN RD,Baltimore,MD,
300 N STRICKER ST,Baltimore,MD,
4400 REISTERSTOWN RD,Baltimore,MD,
2100 EAGLE ST,Baltimore,MD,
1400 MULLIKIN CT,Baltimore,MD,
200 N LAKEWOOD AV,Baltimore,MD,
5200 ST CHARLES AV,Baltimore,MD,
2100 HOLLINS ST,Baltimore,MD,
400 N BOND ST,Baltimore,MD,
1800 FEDERAL ST,Baltimore,MD,
800 N WOODINGTON RD,Baltimore,MD,
4000 W FRANKLIN ST,Baltimore,MD,
700 E 25TH ST,Baltimore,MD,
700 N GRANTLEY ST,Baltimore,MD,
2900 SISSON ST,Baltimore,MD,
400 N BOND ST,Baltimore,MD,
5900 PULASKI HW,Baltimore,MD,
4900 EASTERN AV,Baltimore,MD,
4900 EASTERN AV,Baltimore,MD,
800 W LOMBARD ST,Baltimore,MD,
700 E 25TH ST,Baltimore,MD,
2100 W FAYETTE ST,Baltimore,MD,
4400 CHALET CT,Baltimore,MD,
2400 MARBOURNE,Baltimore,MD,
2400 MARBOURNE,Baltimore,MD,
2400 MARBOURNE,Baltimore,MD,
2400 MARBOURNE,Baltimore,MD,
300 N STRICKER ST,Baltimore,MD,
2800 W COLD SPRING LA,Baltimore,MD,
800 E JEFFREY ST,Baltimore,MD,
5100 REISTERSTOWN RD,Baltimore,MD,
1100 MONTCALM CT,Baltimore,MD,
1100 MONTCALM CT,Baltimore,MD,
4500 SHAMROCK AV,Baltimore,MD,
4900 EASTERN AV,Baltimore,MD,
4900 EASTERN AV,Baltimore,MD,
5800 NARCISSUS AVE,Baltimore,MD,
3200 ANNAPOLIS RD,Baltimore,MD,
3300 CARLISLE AV,Baltimore,MD,
500 BENNINGHAUS RD,Baltimore,MD,
2900 E MADISON ST,Baltimore,MD,
1100 E FORT AV,Baltimore,MD,
400 S HOWARD ST,Baltimore,MD,
2700 BAUERNWOOD AV,Baltimore,MD,
900 N BOND ST,Baltimore,MD,
900 N BOND ST,Baltimore,MD,
900 N BOND ST,Baltimore,MD,
900 N BOND ST,Baltimore,MD,
3800 E LOMBARD ST,Baltimore,MD,
0 S BROADWAY,Baltimore,MD,
500 CHATEAU AV,Baltimore,MD,
600 MAUDE AVE,Baltimore,MD,
200 W LORRAINE AV,Baltimore,MD,
900 W SARATOGA ST,Baltimore,MD,
1400 HOMESTEAD ST,Baltimore,MD,
4700 PARK HEIGHTS AV,Baltimore,MD,
100 N LAKEWOOD AV,Baltimore,MD,
3800 WINDSOR MILL RD,Baltimore,MD,
1300 MARYLAND AV,Baltimore,MD,
1200 KITMORE RD,Baltimore,MD,
700 POPLAR GROVE ST,Baltimore,MD,
4400 FRANKFORD AV,Baltimore,MD,
1700 N PULASKI ST,Baltimore,MD,
1400 E MADISON ST,Baltimore,MD,
200 S REGESTER ST,Baltimore,MD,
100 N HOWARD ST,Baltimore,MD,
0 SOUTH ST,Baltimore,MD,
400 W LEXINGTON ST,Baltimore,MD,
1300 W PRATT ST,Baltimore,MD,
3000 VIRGINIA AV,Baltimore,MD,
2100 HOMEWOOD AV,Baltimore,MD,
3400 KENYON AVE,Baltimore,MD,
3800 E LOMBARD ST,Baltimore,MD,
2100 HOMEWOOD AV,Baltimore,MD,
1200 N CURLEY ST,Baltimore,MD,
1900 W LAFAYETTE AV,Baltimore,MD,
3400 LYNDALE AV,Baltimore,MD,
700 YALE AV,Baltimore,MD,
1600 W NORTH AV,Baltimore,MD,
3200 CHELSEA TER,Baltimore,MD,
1300 N PATTERSON PARK AV,Baltimore,MD,
2900 EDISON HW,Baltimore,MD,
3400 LYNDALE AV,Baltimore,MD,
2100 PENROSE AVE,Baltimore,MD,
1000 HARGROVE STREET,Baltimore,MD,
400 S BENTALOU ST,Baltimore,MD,
2900 PRESBURY ST,Baltimore,MD,
6700 REISTERSTOWN RD,Baltimore,MD,
4700 LOCH RAVEN BLVD,Baltimore,MD,
5200 CROWSON AV,Baltimore,MD,
5200 CROWSON AV,Baltimore,MD,
300 S REGESTER ST,Baltimore,MD,
100 S GRUNDY ST,Baltimore,MD,
3300 FAIT AV,Baltimore,MD,
1700 DUNDALK AV,Baltimore,MD,
2100 GARRISON BD,Baltimore,MD,
1800 N CAROLINE ST,Baltimore,MD,
400 N ROBINSON ST,Baltimore,MD,
1100 E BELVEDERE AV,Baltimore,MD,
600 CHERRYCREST RD,Baltimore,MD,
4500 MARBLE HALL RD,Baltimore,MD,
3800 EASTERN AV,Baltimore,MD,
3800 EASTERN AV,Baltimore,MD,
800 MCHENRY ST,Baltimore,MD,
1700 PENNSYLVANIA AV,Baltimore,MD,
2500 W BELVEDERE AV,Baltimore,MD,
800 MCHENRY ST,Baltimore,MD,
0 W 20TH ST,Baltimore,MD,
3100 RAVENWOOD AV,Baltimore,MD,
800 E 35TH ST,Baltimore,MD,
500 W HOFFMAN ST,Baltimore,MD,
1600 WAVERLY WY,Baltimore,MD,
3200 SAINT PAUL ST,Baltimore,MD,
1200 GLENEAGLE RD,Baltimore,MD,
500 W HOFFMAN ST,Baltimore,MD,
1200 GLENEAGLE RD,Baltimore,MD,
2500 CHRISTIAN ST,Baltimore,MD,
0 E BALTIMORE ST,Baltimore,MD,
1000 EVESHAM AV,Baltimore,MD,
6400 HARFORD RD,Baltimore,MD,
1500 WHITELOCK ST,Baltimore,MD,
1200 GLENEAGLE RD,Baltimore,MD,
300 FOLCROFT ST,Baltimore,MD,
0 E BALTIMORE ST,Baltimore,MD,
1700 N BETHEL ST,Baltimore,MD,
900 S CATON AV,Baltimore,MD,
1900 ARGONNE DR,Baltimore,MD,
1900 ARGONNE DR,Baltimore,MD,
1900 ARGONNE DR,Baltimore,MD,
1600 THAMES ST,Baltimore,MD,
700 S WOLFE ST,Baltimore,MD,
2700 E MADISON ST,Baltimore,MD,
4400 PARK HEIGHTS AVE,Baltimore,MD,
1800 N PULASKI ST,Baltimore,MD,
6000 WALTHER AV,Baltimore,MD,
6000 WALTHER AV,Baltimore,MD,
3500 LUCILLE AV,Baltimore,MD,
5300 Bowleys Ln,Baltimore,MD,
5800 PULASKI HW,Baltimore,MD,
800 E CHASE ST,Baltimore,MD,
1300 WHATCOAT ST,Baltimore,MD,
2600 ROUND RD,Baltimore,MD,
300 WHITRIDGE AV,Baltimore,MD,
0 E READ ST,Baltimore,MD,
6600 BELAIR RD,Baltimore,MD,
3500 ROUND RD,Baltimore,MD,
400 DOLPHIN ST,Baltimore,MD,
800 N CAROLINE ST,Baltimore,MD,
200 MARION ST,Baltimore,MD,
1100 NEW HOPE CIR,Baltimore,MD,
3800 E LOMBARD ST,Baltimore,MD,
600 E 37TH ST,Baltimore,MD,
1800 N MOUNT ST,Baltimore,MD,
700 RESERVOIR ST,Baltimore,MD,
2900 GUILFORD AV,Baltimore,MD,
500 N CALHOUN ST,Baltimore,MD,
2700 W BELVEDERE AV,Baltimore,MD,
2300 WHITTIER AV,Baltimore,MD,
1700 E Lombard,Baltimore,MD,
1800 ENSOR ST,Baltimore,MD,
500 SANFORD PL,Baltimore,MD,
500 SANFORD PL,Baltimore,MD,
3700 ELLERSLIE AV,Baltimore,MD,
2800 ST LO DR,Baltimore,MD,
400 N KENWOOD AV,Baltimore,MD,
2100 E MONUMENT ST,Baltimore,MD,
2900 RAYSHIRE RD,Baltimore,MD,
4900 GOODNOW RD,Baltimore,MD,
800 HILLMAN CT,Baltimore,MD,
1200 MERIDENE DR,Baltimore,MD,
3300 E FAYETTE ST,Baltimore,MD,
5100 ARBUTUS AV,Baltimore,MD,
400 N LAKEWOOD AV,Baltimore,MD,
2400 E NORTH AV,Baltimore,MD,
1700 LAMONT AV,Baltimore,MD,
1100 BAYARD ST,Baltimore,MD,
200 S PAYSON ST,Baltimore,MD,
3200 MC ELDERRY ST,Baltimore,MD,
2300 E FAIRMOUNT AV,Baltimore,MD,
500 W UNIVERSITY PW,Baltimore,MD,
2800 REISTERSTOWN RD,Baltimore,MD,
6200 REISTERSTOWN RD,Baltimore,MD,
4100 W ROGERS AV,Baltimore,MD,
2000 PARK AV,Baltimore,MD,
400 WATER ST,Baltimore,MD,
4900 HARFORD RD,Baltimore,MD,
HEIGHTS AV & W BELVEDERE AV,Baltimore,MD,
600 TUNBRIDGE RD,Baltimore,MD,
5800 HILLEN RD,Baltimore,MD,
2400 WESTPORT ST,Baltimore,MD,
1600 NORMAL AV,Baltimore,MD,
3000 SPAULDING AV,Baltimore,MD,
900 ABBOTT CT,Baltimore,MD,
1300 LAURENS ST,Baltimore,MD,
2500 E FAYETTE ST,Baltimore,MD,
4800 EASTERN AV,Baltimore,MD,
900 SAINT DUNSTANS RD,Baltimore,MD,
5271 Reisterstown Rd,Baltimore,MD,
1600 NORMAL AVE,Baltimore,MD,
2800 SPELMAN RD,Baltimore,MD,
2700 ELLICOTT DR,Baltimore,MD,
1600 NORMAL AVE,Baltimore,MD,
2800 HARFORD RD,Baltimore,MD,
4900 BELAIR RD,Baltimore,MD,
4900 BELAIR RD,Baltimore,MD,
4900 BELAIR RD,Baltimore,MD,
4900 BELAIR RD,Baltimore,MD,
6500 EBERLE DR,Baltimore,MD,
2200 N FOREST PARK AV,Baltimore,MD,
100 W NORTH AV,Baltimore,MD,
200 S GRUNDY ST,Baltimore,MD,
2000 WHISTLER AV,Baltimore,MD,
5100 WILLISTON ST,Baltimore,MD,
1000 W NORTH AVE,Baltimore,MD,
500 E 33RD ST,Baltimore,MD,
300 ST PAUL PL,Baltimore,MD,
300 ST PAUL PL,Baltimore,MD,
2900 EDISON HW,Baltimore,MD,
5500 MINNOKA AV,Baltimore,MD,
3300 N CHARLES ST,Baltimore,MD,
400 S NEWKIRK ST,Baltimore,MD,
900 ALRICKS WY,Baltimore,MD,
2300 ORLEANS ST,Baltimore,MD,
0 E BALTIMORE ST,Baltimore,MD,
3500 TIVOLY AVE,Baltimore,MD,
800 BRIDGEVIEW RD,Baltimore,MD,
7000 HAMLET AV,Baltimore,MD,
3700 WINDSOR MILL RD,Baltimore,MD,
500 WOODBOURNE AV,Baltimore,MD,
2400 FREDERICK AV,Baltimore,MD,
200 E SARATOGA ST,Baltimore,MD,
1700 MCCULLOH ST,Baltimore,MD,
2800 SAINT LO DR,Baltimore,MD,
3200 E LOMBARD ST,Baltimore,MD,
2900 E MONUMENT ST,Baltimore,MD,
6000 HARFORD RD,Baltimore,MD,
4900 LANIER AV,Baltimore,MD,
2000 MC ELDERRY ST,Baltimore,MD,
3700 W GARRISON AV,Baltimore,MD,
3600 EDMONDSON AV,Baltimore,MD,
2500 W FRANKLIN ST,Baltimore,MD,
1600 E PRATT ST,Baltimore,MD,
3400 DORITHAN RD,Baltimore,MD,
4000 EDGEWOOD RD,Baltimore,MD,
3400 JUNEWAY,Baltimore,MD,
2200 N FULTON AVE,Baltimore,MD,
1800 BLOOMINGDALE RD,Baltimore,MD,
300 PENN ST,Baltimore,MD,
2600 E CHASE ST,Baltimore,MD,
200 S BROADWAY,Baltimore,MD,
3500 ROYSTON AVE,Baltimore,MD,
4300 WAKEFIELD RD,Baltimore,MD,
200 S BROADWAY,Baltimore,MD,
200 S BROADWAY,Baltimore,MD,
1800 BLOOMINGDALE RD,Baltimore,MD,
5400 SUMMERFIELD AVE,Baltimore,MD,
5200 BOWLEYS LA,Baltimore,MD,
500 N WHEELER AVE,Baltimore,MD,
2400 PENNSYLVANIA AVE,Baltimore,MD,
800 N LAKEWOOD AVE,Baltimore,MD,
4000 KESWICK RD,Baltimore,MD,
1 SHRODER ST,Baltimore,MD,
RD & CEDARDALE RD,Baltimore,MD,
900 WASHINGTON BLVD,Baltimore,MD,
1700 PENNSYLVANIA AV,Baltimore,MD,
RD & CEDARDALE RD,Baltimore,MD,
2800 BOOKERT DR,Baltimore,MD,
4700 PARKSIDE DR,Baltimore,MD,
1800 RAMBLEWOOD RD,Baltimore,MD,
2200 E FAIRMOUNT AV,Baltimore,MD,
100 N CONKLING ST,Baltimore,MD,
4500 SHAMROCK AV,Baltimore,MD,
3800 E LOMBARD ST,Baltimore,MD,
0 W BALTIMORE ST,Baltimore,MD,
4700 SHAMROCK AVE,Baltimore,MD,
1700 RAMBLEWOOD RD,Baltimore,MD,
2400 FREDERICK AV,Baltimore,MD,
4200 E MONUMENT ST,Baltimore,MD,
3700 CLAREMONT AV,Baltimore,MD,
5400 SINCLAIR LA,Baltimore,MD,
2400 FREDERICK AV,Baltimore,MD,
100 S BETHEL ST,Baltimore,MD,
3600 FORDS LA,Baltimore,MD,
3300 BELAIR RD,Baltimore,MD,
1100 SAINT PAUL ST,Baltimore,MD,
2400 N CHARLES ST,Baltimore,MD,
300 S BROADWAY,Baltimore,MD,
1600 E CHASE ST,Baltimore,MD,
1500 S CATON AVE,Baltimore,MD,
2200 RAMSAY ST,Baltimore,MD,
100 S BETHEL ST,Baltimore,MD,
3100 NORTHWAY RD,Baltimore,MD,
4300 FURLEY AV,Baltimore,MD,
1000 W LANVALE ST,Baltimore,MD,
500 W PRATT ST,Baltimore,MD,
600 TUNBRIDGE RD,Baltimore,MD,
3500 E FAYETTE ST,Baltimore,MD,
2600 E FAYETTE ST,Baltimore,MD,
900 RAMSAY ST,Baltimore,MD,
600 WYANOKE AV,Baltimore,MD,
2000 W LEXINGTON ST,Baltimore,MD,
100 N CURLEY ST,Baltimore,MD,
200 E NORTH AV,Baltimore,MD,
800 HERNDON CT,Baltimore,MD,
4300 SEIDEL AV,Baltimore,MD,
300 LIGHT ST,Baltimore,MD,
600 TUNBRIDGE RD,Baltimore,MD,
2000 W LEXINGTON ST,Baltimore,MD,
3600 DOLFIELD AV,Baltimore,MD,
0 N CALVERT ST,Baltimore,MD,
2900 INDEPENDENCE ST,Baltimore,MD,
1600 E PRESTON ST,Baltimore,MD,
7000 FIELDCREST RD,Baltimore,MD,
4100 CURTIS AV,Baltimore,MD,
100 N CURLEY ST,Baltimore,MD,
500 N CALHOUN ST,Baltimore,MD,
4500 ERDMAN AV,Baltimore,MD,
1400 N MONROE ST,Baltimore,MD,
100 N CENTRAL AV,Baltimore,MD,
2900 W COLD SPRING LN,Baltimore,MD,
5800 FALKIRK RD,Baltimore,MD,
5200 ST CHARLES AV,Baltimore,MD,
3700 REISTERSTOWN RD,Baltimore,MD,
2100 PRESSTMAN ST,Baltimore,MD,
1500 E 28TH ST,Baltimore,MD,
4500 ERDMAN AV,Baltimore,MD,
4800 EASTERN AV,Baltimore,MD,
800 S BROADWAY,Baltimore,MD,
200 W CLAY ST,Baltimore,MD,
6300 ODONNELL ST,Baltimore,MD,
3500 PELHAM AVE,Baltimore,MD,
300 S EAST AVE,Baltimore,MD,
3600 ELMLEY AV,Baltimore,MD,
1600 RETREAT ST,Baltimore,MD,
800 N BELNORD AV,Baltimore,MD,
2200 WINDSOR AV,Baltimore,MD,
3200 BAKER ST,Baltimore,MD,
3900 PENNINGTON AV,Baltimore,MD,
100 W LEXINGTON ST,Baltimore,MD,
900 N CAREY ST,Baltimore,MD,
1300 WELDON AVE,Baltimore,MD,
1000 REVERDY RD,Baltimore,MD,
3300 PIEDMONT AV,Baltimore,MD,
200 W READ ST,Baltimore,MD,
1800 GUILFORD AVE,Baltimore,MD,
1000 S KENWOOD AV,Baltimore,MD,
1000 S KENWOOD AV,Baltimore,MD,
1800 WASHINGTON BD,Baltimore,MD,
4500 EDMONDSON AV,Baltimore,MD,
4500 EDMONDSON AV,Baltimore,MD,
2900 CARVER RD,Baltimore,MD,
2800 PELHAM AVE,Baltimore,MD,
4200 PARKTON ST,Baltimore,MD,
2500 TOLLEY ST,Baltimore,MD,
200 SILVER CT,Baltimore,MD,
800 N BELNORD AV,Baltimore,MD,
100 S ARLINGTON AV,Baltimore,MD,
1600 BUSH ST,Baltimore,MD,
800 N BELNORD AV,Baltimore,MD,
3600 W GARRISON AV,Baltimore,MD,
3400 PIEDMONT AV,Baltimore,MD,
3500 WINDSOR MILL RD,Baltimore,MD,
3600 DOLFIELD AV,Baltimore,MD,
800 S MILTON AVE,Baltimore,MD,
2700 FENWICK AV,Baltimore,MD,
600 E FORT AVE,Baltimore,MD,
200 S BROADWAY,Baltimore,MD,
6200 BELAIR RD,Baltimore,MD,
600 S BROADWAY,Baltimore,MD,
2900 HILLSDALE RD,Baltimore,MD,
600 N ROSE ST,Baltimore,MD,
2200 CEDLEY ST,Baltimore,MD,
200 N MONASTERY AV,Baltimore,MD,
1500 BARCLAY ST,Baltimore,MD,
1100 DRUID HILL AV,Baltimore,MD,
2800 HOLLINS FERRY RD,Baltimore,MD,
800 ENSOR ST,Baltimore,MD,
700 EASTERN AV,Baltimore,MD,
2300 POPLAR GROVE ST,Baltimore,MD,
2900 REISTERSTOWN RD,Baltimore,MD,
800 BELLE TERRE AV,Baltimore,MD,
0 PRATT ST,Baltimore,MD,
2200 ROSLYN AV,Baltimore,MD,
1000 N KENWOOD AV,Baltimore,MD,
100 S PRESIDENT ST,Baltimore,MD,
200 S BROADWAY,Baltimore,MD,
1600 N HILTON ST,Baltimore,MD,
1900 W NORTH AV,Baltimore,MD,
2500 GREENMOUNT AV,Baltimore,MD,
600 CHERRYCREST RD,Baltimore,MD,
5300 GOODNOW RD,Baltimore,MD,
2900 DENHAM CIRCLE SOUTH,Baltimore,MD,
700 POPLAR GROVE ST,Baltimore,MD,
1600 N GILMOR ST,Baltimore,MD,
3000 RAYNER AV,Baltimore,MD,
600 N BELNORD AVE,Baltimore,MD,
1500 N MOUNT ST,Baltimore,MD,
5000 QUEENSBERRY AV,Baltimore,MD,
5900 REISTERSTOWN RD,Baltimore,MD,
2900 REISTERSTOWN RD,Baltimore,MD,
0 N HILTON ST,Baltimore,MD,
300 MOUNT HOLLY ST,Baltimore,MD,
600 POPLAR GROVE ST,Baltimore,MD,
2400 W LANVALE ST,Baltimore,MD,
3500 JUNEWAY,Baltimore,MD,
0 N HILTON ST,Baltimore,MD,
2400 N CHARLES ST,Baltimore,MD,
600 N CAREY ST,Baltimore,MD,
2000 ORLEANS ST,Baltimore,MD,
2400 LOYOLA NORTHW,Baltimore,MD,
2800 W LAFAYETTE AVE,Baltimore,MD,
5300 DENMORE AV,Baltimore,MD,
4600 SHAMROCK AV,Baltimore,MD,
500 ROSE HILL TR,Baltimore,MD,
5300 DENMORE AV,Baltimore,MD,
2400 ALLENDALE RD,Baltimore,MD,
2400 ALLENDALE RD,Baltimore,MD,
2400 ALLENDALE RD,Baltimore,MD,
1000 GREENMOUNT AV,Baltimore,MD,
3500 JUNEWAY,Baltimore,MD,
800 BRIDGEVIEW RD,Baltimore,MD,
4900 GOODNOW RD,Baltimore,MD,
0 E READ ST,Baltimore,MD,
3700 BONVIEW AV,Baltimore,MD,
1800 W LOMBARD ST,Baltimore,MD,
400 JACK ST,Baltimore,MD,
2100 BOOTH ST,Baltimore,MD,
800 W LOMBARD ST,Baltimore,MD,
100 N ROCK GLEN RD,Baltimore,MD,
2600 LIBERTY HGTS AVE,Baltimore,MD,
100 E CROSS ST,Baltimore,MD,
3300 E FAYETTE ST,Baltimore,MD,
2500 VIOLET AV,Baltimore,MD,
1500 N COLLINGTON AV,Baltimore,MD,
1800 W NORTH AV,Baltimore,MD,
900 BOOTH ST,Baltimore,MD,
300 MARTINGALE AV,Baltimore,MD,
5500 HILLEN RD,Baltimore,MD,
2700 MC ELDERRY ST,Baltimore,MD,
4700 FRANKFORD AV,Baltimore,MD,
1900 EUTAW PL,Baltimore,MD,
1600 HAZEL ST,Baltimore,MD,
1600 HAZEL ST,Baltimore,MD,
1400 PENNSYLVANIA AV,Baltimore,MD,
1000 PARK AV,Baltimore,MD,
3300 E FAYETTE ST,Baltimore,MD,
800 N PORT ST,Baltimore,MD,
3300 ESTHER PL,Baltimore,MD,
5400 LOCH RAVEN BD,Baltimore,MD,
3500 MOUNT PLEASANT AV,Baltimore,MD,
3300 ESTHER PL,Baltimore,MD,
800 ARGONNE DR,Baltimore,MD,
3900 DOLFIELD AV,Baltimore,MD,
3500 DOLFIELD AV,Baltimore,MD,
2400 PICKERING DR,Baltimore,MD,
5700 REISTERSTOWN RD,Baltimore,MD,
1000 PARKSLEY AV,Baltimore,MD,
1000 FLEET ST,Baltimore,MD,
5600 THE ALAMEDA,Baltimore,MD,
2900 FEDERAL ST,Baltimore,MD,
1200 E LANVALE ST,Baltimore,MD,
5400 LOCH RAVEN BD,Baltimore,MD,
5400 LOCH RAVEN BD,Baltimore,MD,
600 DUMBARTON AV,Baltimore,MD,
2500 E MONUMENT ST,Baltimore,MD,
2600 E CHASE ST,Baltimore,MD,
1000 N CAROLINE ST,Baltimore,MD,
3300 E PRATT ST,Baltimore,MD,
1600 GWYNNS FALLS PW,Baltimore,MD,
700 E BELVEDERE AV,Baltimore,MD,
1200 SHERIDAN AV,Baltimore,MD,
2900 WYNHAM RD,Baltimore,MD,
5100 PARK HEIGHTS AV,Baltimore,MD,
3300 ELMLEY AV,Baltimore,MD,
2200 ANNAPOLIS RD,Baltimore,MD,
800 RAMSAY ST,Baltimore,MD,
1200 E LAFAYETTE AV,Baltimore,MD,
3500 BERWYN AV,Baltimore,MD,
1700 N CAREY ST,Baltimore,MD,
1400 W PRATT ST,Baltimore,MD,
1900 WOODBOURNE AV,Baltimore,MD,
1800 N FULTON AV,Baltimore,MD,
500 MOSHER ST,Baltimore,MD,
3300 E FAIRMOUNT,Baltimore,MD,
0 S MONASTERY AV,Baltimore,MD,
3300 W NORTH AV,Baltimore,MD,
2800 FOSTER AV,Baltimore,MD,
1800 N FULTON AV,Baltimore,MD,
100 S FRANKLINTOWN RD,Baltimore,MD,
3400 W GARRISON AVE,Baltimore,MD,
5000 E BIDDLE ST,Baltimore,MD,
1700 CHERRY HILL RD,Baltimore,MD,
1500 EUTAW PL,Baltimore,MD,
2600 W FAYETTE ST,Baltimore,MD,
3400 PARK HEIGHTS AV,Baltimore,MD,
3500 E FAYETTE ST,Baltimore,MD,
2500 GREENMOUNT AV,Baltimore,MD,
2700 E BIDDLE ST,Baltimore,MD,
1500 EUTAW PL,Baltimore,MD,
2400 HARLEM AV,Baltimore,MD,
3800 8TH ST,Baltimore,MD,
3000 MALLVIEW RD,Baltimore,MD,
3000 S HANOVER ST,Baltimore,MD,
1500 N LUZERNE AV,Baltimore,MD,
300 FURROW ST,Baltimore,MD,
5000 E BIDDLE ST,Baltimore,MD,
1600 W NORTH AV,Baltimore,MD,
1900 N DUKELAND ST,Baltimore,MD,
2800 EDMONDSON AV,Baltimore,MD,
2800 EDMONDSON AV,Baltimore,MD,
3400 VIRGINIA AV,Baltimore,MD,
4300 MAINE AV,Baltimore,MD,
3100 WOODLAND AV,Baltimore,MD,
1400 E FAYETTE ST,Baltimore,MD,
5200 SAINT GEORGES AVE,Baltimore,MD,
5600 FRANKFORD AV,Baltimore,MD,
2100 BRYANT AV,Baltimore,MD,
1100 E BELVEDERE AV,Baltimore,MD,
1400 E FAYETTE ST,Baltimore,MD,
2800 WINCHESTER AVE,Baltimore,MD,
5000 DENMORE AV,Baltimore,MD,
3200 FLEET ST,Baltimore,MD,
4700 HARFORD RD,Baltimore,MD,
3200 FLEET ST,Baltimore,MD,
2800 WINCHESTER AVE,Baltimore,MD,
200 W READ ST,Baltimore,MD,
1200 E NORTH AV,Baltimore,MD,
400 WATTY CT,Baltimore,MD,
800 N HOWARD ST,Baltimore,MD,
3400 VIRGINIA AV,Baltimore,MD,
2300 MC ELDERRY ST,Baltimore,MD,
5000 CARMINE AV,Baltimore,MD,
1900 N DUKELAND ST,Baltimore,MD,
2700 W COLD SPRING LA,Baltimore,MD,
2700 W COLD SPRING LA,Baltimore,MD,
2700 W COLD SPRING LA,Baltimore,MD,
2700 W COLD SPRING LA,Baltimore,MD,
2700 W COLD SPRING LA,Baltimore,MD,
2700 W COLD SPRING LA,Baltimore,MD,
900 SEAGULL AV,Baltimore,MD,
2600 DENISON ST,Baltimore,MD,
2400 LOYOLA NORTHWAY,Baltimore,MD,
400 E 23RD ST,Baltimore,MD,
1800 ORLEANS ST,Baltimore,MD,
700 S BROADWAY,Baltimore,MD,
500 S SMALLWOOD ST,Baltimore,MD,
400 E 23RD ST,Baltimore,MD,
3300 DORITHAN RD,Baltimore,MD,
2900 PULASKI HW,Baltimore,MD,
500 N ATHOL AV,Baltimore,MD,
2200 PENNSYLVANNIA AVE,Baltimore,MD,
500 S SMALLWOOD ST,Baltimore,MD,
2500 WOODBROOK AV,Baltimore,MD,
2500 WOODBROOK AVE,Baltimore,MD,
700 W 36TH ST,Baltimore,MD,
200 N Gilmore St,Baltimore,MD,
200 N CAREY ST,Baltimore,MD,
1600 E 25TH ST,Baltimore,MD,
900 GLENWOOD AV,Baltimore,MD,
2800 POTEE ST,Baltimore,MD,
5100 HICKORY AVE,Baltimore,MD,
200 N CAREY ST,Baltimore,MD,
700 Caroline St,Baltimore,MD,
2400 FREDERICK AVE,Baltimore,MD,
5000 ARBUTUS AVE,Baltimore,MD,
5000 ARBUTUS AVE,Baltimore,MD,
600 E PRATT ST,Baltimore,MD,
5600 THE ALAMEDA,Baltimore,MD,
100 S STOCKTON ST,Baltimore,MD,
2400 GWYNNS FALLS PW,Baltimore,MD,
6600 BELAIR RD,Baltimore,MD,
ST & S FRANKLINTOWN RD,Baltimore,MD,
400 E 33RD ST,Baltimore,MD,
200 N CAREY ST,Baltimore,MD,
100 S EAST AV,Baltimore,MD,
2000 DRUID PARK DR,Baltimore,MD,
3200 WASHINGTON BD,Baltimore,MD,
3900 TIVOLY AV,Baltimore,MD,
2500 HOLLINS ST,Baltimore,MD,
2500 HOLLINS ST,Baltimore,MD,
400 N BRADFORD ST,Baltimore,MD,
900 E BALTIMORE ST,Baltimore,MD,
1700 PARK AV,Baltimore,MD,
500 W FAYETTE ST,Baltimore,MD,
3900 TIVOLY AVE,Baltimore,MD,
1100 LIGHT ST,Baltimore,MD,
5600 THE ALAMEDA,Baltimore,MD,
1100 BAYARD ST,Baltimore,MD,
4600 EDMONDSON AV,Baltimore,MD,
4600 EDMONDSON AV,Baltimore,MD,
2100 WASHINGTON BLVD,Baltimore,MD,
2500 CHRISTIAN ST,Baltimore,MD,
0 W 28TH ST,Baltimore,MD,
600 W NORTH AV,Baltimore,MD,
6400 FAIR OAKS AV,Baltimore,MD,
1500 W MADISON AVE,Baltimore,MD,
1900 N CHARLES ST,Baltimore,MD,
200 N BRADFORD ST,Baltimore,MD,
2500 HOLLINS ST,Baltimore,MD,
1200 N MILTON AVE,Baltimore,MD,
1500 N CALHOUN ST,Baltimore,MD,
0 N HIGHLAND AV,Baltimore,MD,
200 E UNIVERSITY PW,Baltimore,MD,
2500 HOLLINS ST,Baltimore,MD,
2200 W SARATOGA ST,Baltimore,MD,
1600 N MONROE ST,Baltimore,MD,
3600 E LOMBARD ST,Baltimore,MD,
1600 UNION AV,Baltimore,MD,
4000 CRANSTON AV,Baltimore,MD,
2700 BOSTON ST,Baltimore,MD,
1600 N MONROE ST,Baltimore,MD,
4200 PIMLICO RD,Baltimore,MD,
4200 LOCH RAVEN BLVD,Baltimore,MD,
2200 W SARATOGA ST,Baltimore,MD,
2200 W SARATOGA ST,Baltimore,MD,
300 N EUTAW ST,Baltimore,MD,
1100 E COLD SPRING LA,Baltimore,MD,
4200 PIMLICO RD,Baltimore,MD,
4000 CRANSTON AV,Baltimore,MD,
5900 RADECKE AV,Baltimore,MD,
900 FAGLEY ST,Baltimore,MD,
4200 NICHOLAS AV,Baltimore,MD,
2100 EASTERN AV,Baltimore,MD,
2100 MADISON AV,Baltimore,MD,
4700 GREENSPRING AV,Baltimore,MD,
800 E JEFFREY ST,Baltimore,MD,
2700 HOLLINS FERRY RD,Baltimore,MD,
300 S CENTRAL AV,Baltimore,MD,
1900 BLOOMINGDALE RD,Baltimore,MD,
1900 W FAYETTE ST,Baltimore,MD,
3600 E PRATT ST,Baltimore,MD,
6500 EASTERN AV,Baltimore,MD,
200 DENISON ST,Baltimore,MD,
0 N PAYSON ST,Baltimore,MD,
3700 EDMONDSON AVE,Baltimore,MD,
3700 KIMBLE RD,Baltimore,MD,
1000 STODDARD CT,Baltimore,MD,
1000 STODDARD CT,Baltimore,MD,
1000 STODDARD CT,Baltimore,MD,
1000 STODDARD CT,Baltimore,MD,
1000 STODDARD CT,Baltimore,MD,
5300 LOTHIAN RD,Baltimore,MD,
200 HENRIETTA ST,Baltimore,MD,
2500 CYLBURN AV,Baltimore,MD,
6500 EASTERN AV,Baltimore,MD,
0 W 20TH ST,Baltimore,MD,
400 N ROBINSON ST,Baltimore,MD,
400 S DURHAM ST,Baltimore,MD,
3300 WALBROOK AV,Baltimore,MD,
2100 N LONGWOOD ST,Baltimore,MD,
1600 N GILMORE ST,Baltimore,MD,
2500 FRANCIS ST,Baltimore,MD,
3000 EDMONDSON AV,Baltimore,MD,
700 N GLOVER ST,Baltimore,MD,
5200 SPRINGLAKE WY,Baltimore,MD,
3000 EDMONDSON AV,Baltimore,MD,
3600 CHESTERFIELD AV,Baltimore,MD,
200 DIENER PL,Baltimore,MD,
500 S LONGWOOD ST,Baltimore,MD,
4700 SIMMS AV,Baltimore,MD,
4200 LABYRINTH RD,Baltimore,MD,
3600 KENYON AV,Baltimore,MD,
2500 CYLBURN AV,Baltimore,MD,
1100 W 41ST ST,Baltimore,MD,
4200 ROKEBY RD,Baltimore,MD,
500 S BOND ST,Baltimore,MD,
5300 GOODNOW RD,Baltimore,MD,
6800 REISTERSTOWN RD,Baltimore,MD,
2700 FENWICK AV,Baltimore,MD,
4200 FRANKFORD AV,Baltimore,MD,
0 N HOWARD ST,Baltimore,MD,
2400 FREDERICK AV,Baltimore,MD,
1400 E NORTH AVE,Baltimore,MD,
1400 W LOMBARD ST,Baltimore,MD,
2000 FLEET ST,Baltimore,MD,
3500 OAKMONT AVE,Baltimore,MD,
3400 7TH ST,Baltimore,MD,
1500 NORTH AVE,Baltimore,MD,
900 ENSOR ST,Baltimore,MD,
2400 FREDERICK AV,Baltimore,MD,
900 LYNDHURST ST,Baltimore,MD,
500 OLD ORCHARD RD,Baltimore,MD,
1700 W LANVALE ST,Baltimore,MD,
200 W 29TH ST,Baltimore,MD,
300 N ARLINGTON AVE,Baltimore,MD,
2300 E MONUMENT ST,Baltimore,MD,
4400 REISTERSTOWN RD,Baltimore,MD,
300 N ARLINGTON AV,Baltimore,MD,
0 CUSTOM HOUSE AV,Baltimore,MD,
5100 YORK RD,Baltimore,MD,
1000 N EUTAW ST,Baltimore,MD,
1200 N CAROLINE ST,Baltimore,MD,
3700 BAYONNE AV,Baltimore,MD,
400 E COLD SPRING LA,Baltimore,MD,
2900 GREENMOUNT AV,Baltimore,MD,
300 N ARLINGTON AVE,Baltimore,MD,
100 S EDEN ST,Baltimore,MD,
900 E BIDDLE ST,Baltimore,MD,
3900 LOWNDES AV,Baltimore,MD,
1200 ROSSITER AVE,Baltimore,MD,
5000 EDMONDSON AV,Baltimore,MD,
200 N HOWARD ST,Baltimore,MD,
300 N ARLINGTON AV,Baltimore,MD,
900 E BIDDLE ST,Baltimore,MD,
400 WALTON CT,Baltimore,MD,
200 N HOWARD ST,Baltimore,MD,
3600 GLEN AV,Baltimore,MD,
4900 CHALGROVE AVE,Baltimore,MD,
1200 BUSH ST,Baltimore,MD,
300 PRESSTMAN ST,Baltimore,MD,
6900 REISTERSTOWN RD,Baltimore,MD,
100 W LOMBARD ST,Baltimore,MD,
1100 W CROSS ST,Baltimore,MD,
4900 REISTERSTOWN RD,Baltimore,MD,
5000 GWYNN OAK AV,Baltimore,MD,
4900 REISTERSTOWN RD,Baltimore,MD,
2500 W BALTIMORE ST,Baltimore,MD,
5000 GWYNN OAK AV,Baltimore,MD,
700 S CONKLING ST,Baltimore,MD,
600 N BELNORD AV,Baltimore,MD,
4900 GOODNOW RD,Baltimore,MD,
400 PRESSTMAN ST,Baltimore,MD,
100 E 23RD ST,Baltimore,MD,
400 FAWCETT ST,Baltimore,MD,
2500 W BALTIMORE ST,Baltimore,MD,
2400 W BALTIMORE ST,Baltimore,MD,
2400 DRUID PARK DR,Baltimore,MD,
4900 REISTERSTOWN RD,Baltimore,MD,
1300 N CAROLINE ST,Baltimore,MD,
1100 W CROSS ST,Baltimore,MD,
4300 GREENHILL AV,Baltimore,MD,
200 PARKIN ST,Baltimore,MD,
2600 GWYNNS FALLS PW,Baltimore,MD,
2500 E HOFFMAN ST,Baltimore,MD,
2400 ASHLAND AV,Baltimore,MD,
5000 GWYNN OAK AV,Baltimore,MD,
5000 GWYNN OAK AV,Baltimore,MD,
1800 BAKER ST,Baltimore,MD,
6300 BELAIR RD,Baltimore,MD,
1300 N CAROLINE ST,Baltimore,MD,
4100 NORFOLK AV,Baltimore,MD,
900 N MONROE ST,Baltimore,MD,
900 N MONROE ST,Baltimore,MD,
2300 E BALTIMORE ST,Baltimore,MD,
300 LIGHT ST,Baltimore,MD,
3100 WOLCOTT AV,Baltimore,MD,
300 W SARATOGA ST,Baltimore,MD,
3300 BOSTON ST,Baltimore,MD,
500 E 37TH ST,Baltimore,MD,
4500 PATTERSON AV,Baltimore,MD,
1000 ASHLAND CT,Baltimore,MD,
3500 N CALVERT ST,Baltimore,MD,
6600 EBERLE DR,Baltimore,MD,
2400 W FRANKLIN ST,Baltimore,MD,
4700 WILERN AV,Baltimore,MD,
4100 NORFOLK AVE,Baltimore,MD,
1300 W LAFAYETTE AV,Baltimore,MD,
4700 WILERN AV,Baltimore,MD,
900 N MONROE ST,Baltimore,MD,
4100 NORFOLK AVE,Baltimore,MD,
4100 NORFOLK AVE,Baltimore,MD,
4700 WILERN AVE,Baltimore,MD,
900 N MONROE ST,Baltimore,MD,
1200 W BALTIMORE ST,Baltimore,MD,
2400 W FRANKLIN ST,Baltimore,MD,
3200 WASHINGTON BD,Baltimore,MD,
700 MELVILLE AVE,Baltimore,MD,
4400 BELVIEU AV,Baltimore,MD,
600 POPLAR GROVE ST,Baltimore,MD,
5500 BOWLEYS LA,Baltimore,MD,
1800 DUNDALK AV,Baltimore,MD,
2400 FREDERICK AV,Baltimore,MD,
3000 ELIZABETH AVE,Baltimore,MD,
600 N MONROE ST,Baltimore,MD,
1100 MADISON AV,Baltimore,MD,
4700 GREENSPRING AV,Baltimore,MD,
1200 KITMORE RD,Baltimore,MD,
3600 OLD YORK RD,Baltimore,MD,
500 YALE AV,Baltimore,MD,
3600 OLD YORK RD,Baltimore,MD,
4200 FENWICK AV,Baltimore,MD,
3600 OLD YORK RD,Baltimore,MD,
1800 EDMONDSON AV,Baltimore,MD,
3000 ELIZABETH AV,Baltimore,MD,
0 MARKET PL,Baltimore,MD,
6000 AMBERWOOD RD,Baltimore,MD,
1100 DEXTER ST,Baltimore,MD,
RD & PATTERSON AV,Baltimore,MD,
400 39TH ST,Baltimore,MD,
500 CHATEAU AVE,Baltimore,MD,
4300 CONNECTICUT AV,Baltimore,MD,
3800 W FOREST PARK AV,Baltimore,MD,
1800 FLEET ST,Baltimore,MD,
2300 MCCULLOH ST,Baltimore,MD,
1900 E PRATT ST,Baltimore,MD,
3600 OLD YORK RD,Baltimore,MD,
1100 DEXTER ST,Baltimore,MD,
700 S BROADWAY,Baltimore,MD,
1600 PENNSYLVANIA AV,Baltimore,MD,
600 ENSOR ST,Baltimore,MD,
1600 E CHASE ST,Baltimore,MD,
2400 FREDERICK AVE,Baltimore,MD,
600 E FAYETTE ST,Baltimore,MD,
5600 LOCH RAVEN BD,Baltimore,MD,
500 EVERGREEN ST,Baltimore,MD,
1200 W PRATT ST,Baltimore,MD,
2300 FREDERICK AV,Baltimore,MD,
2500 PERRING MANOR RD,Baltimore,MD,
3600 OLD YORK RD,Baltimore,MD,
2500 PERRING MANOR RD,Baltimore,MD,
300 N CALHOUN ST,Baltimore,MD,
5100 PARK HEIGHTS AV,Baltimore,MD,
200 E NORTH AVE,Baltimore,MD,
400 E NORTH AV,Baltimore,MD,
1600 PARKMAN AVE,Baltimore,MD,
1600 PARKMAN AVE,Baltimore,MD,
3200 BARCLAY ST,Baltimore,MD,
2400 FEDERAL ST,Baltimore,MD,
2900 HUNTINGDON AVE,Baltimore,MD,
2600 ROSEWOOD AV,Baltimore,MD,
200 N WASHINGTON ST,Baltimore,MD,
1100 WEDGEWOOD RD,Baltimore,MD,
700 N EDEN ST,Baltimore,MD,
900 N PATTERSON PK AV,Baltimore,MD,
1200 KITMORE RD,Baltimore,MD,
5200 BEAUFORT AV,Baltimore,MD,
4400 PALL MALL RD,Baltimore,MD,
2600 HAMPDEN AVE,Baltimore,MD,
3300 WINTERBOURNE RD,Baltimore,MD,
400 BONSAL ST,Baltimore,MD,
700 W SARATOGA ST,Baltimore,MD,
2600 PENSSYLVANIA AVE,Baltimore,MD,
6100 OLD HARFORD RD,Baltimore,MD,
1600 W SARATOGA ST,Baltimore,MD,
2400 WOODBROOK AV,Baltimore,MD,
500 SHERIDAN AV,Baltimore,MD,
1300 MADISON AV,Baltimore,MD,
1500 ABBOTSTON ST,Baltimore,MD,
1300 N KENWOOD AV,Baltimore,MD,
1900 FALLS RD,Baltimore,MD,
1000 LEADENHALL ST,Baltimore,MD,
1000 LEADENHALL ST,Baltimore,MD,
2700 W NORTH AV,Baltimore,MD,
3400 GARRISON BD,Baltimore,MD,
4100 EIERMAN AV,Baltimore,MD,
4100 EIERMAN AV,Baltimore,MD,
4100 EIERMAN AV,Baltimore,MD,
4100 EIERMAN AV,Baltimore,MD,
1000 LEADENHALL ST,Baltimore,MD,
1000 ORLEANS ST,Baltimore,MD,
1500 EUTAW PL,Baltimore,MD,
1700 MCCULLOH ST,Baltimore,MD,
2200 E PRATT ST,Baltimore,MD,
1100 PARK AV,Baltimore,MD,
200 S PRESIDENT ST,Baltimore,MD,
4500 EASTERN AV,Baltimore,MD,
4500 EASTERN AV,Baltimore,MD,
300 CORNWALL ST,Baltimore,MD,
700 N MILTON AV,Baltimore,MD,
900 N LAKEWOOD AV,Baltimore,MD,
0 LIGHT ST,Baltimore,MD,
1500 CHESTER ST,Baltimore,MD,
5000 SINCLAIR LA,Baltimore,MD,
5300 CARRIAGE CT,Baltimore,MD,
NORTH AV & HILTON PW,Baltimore,MD,
200 S HIGHLAND AV,Baltimore,MD,
3700 BOSTON ST,Baltimore,MD,
2900 REISTERSTOWN RD,Baltimore,MD,
4200 FORDS LN,Baltimore,MD,
1700 E BIDDLE ST,Baltimore,MD,
4100 ELSA TER,Baltimore,MD,
300 MCMECHEN ST,Baltimore,MD,
300 MC MECHEN ST,Baltimore,MD,
900 E 20TH ST,Baltimore,MD,
1500 HAVENWOOD RD,Baltimore,MD,
NORTH AV & HILTON PW,Baltimore,MD,
2000 W LANVALE ST,Baltimore,MD,
0 N CAREY ST,Baltimore,MD,
1600 N MONROE ST,Baltimore,MD,
5500 Bowleys Ln,Baltimore,MD,
4800 LORELLY AV,Baltimore,MD,
300 MCMECHEN ST,Baltimore,MD,
0 E HEATH ST,Baltimore,MD,
0 E HEATH ST,Baltimore,MD,
4100 REISTERSTOWN RD,Baltimore,MD,
3600 FORDS LA,Baltimore,MD,
1900 SHERWOOD AV,Baltimore,MD,
3200 THE ALAMEDA,Baltimore,MD,
5800 EASTERN AVE,Baltimore,MD,
200 S CONKLING ST,Baltimore,MD,
1200 N DECKER AV,Baltimore,MD,
500 N MONROE ST,Baltimore,MD,
400 WATTY CT,Baltimore,MD,
1100 WINCHESTER ST,Baltimore,MD,
3300 ENGLSH CONSUL AV,Baltimore,MD,
1700 AISQUITH ST,Baltimore,MD,
1200 N DECKER AV,Baltimore,MD,
600 N PULASKI ST,Baltimore,MD,
500 E 33RD ST,Baltimore,MD,
4900 PIMLICO RD,Baltimore,MD,
5700 MAPLEHILL RD,Baltimore,MD,
4900 GOODNOW RD,Baltimore,MD,
2500 MARYLAND AV,Baltimore,MD,
3500 OLD YORK RD,Baltimore,MD,
2500 WINCHESTER ST,Baltimore,MD,
1900 BREITWERT ST,Baltimore,MD,
1600 DIVISION ST,Baltimore,MD,
700 W LEXINGTON ST,Baltimore,MD,
1500 E MONUMENT ST,Baltimore,MD,
1800 WALBROOK AV,Baltimore,MD,
1700 CARSWELL ST,Baltimore,MD,
5400 HARFORD RD,Baltimore,MD,
5400 HARFORD RD,Baltimore,MD,
6200 WALTHER AVE,Baltimore,MD,
3400 SPRINGDALE AV,Baltimore,MD,
1200 COMET MEWS,Baltimore,MD,
2700 W BELVEDERE AV,Baltimore,MD,
1200 COMET MEWS,Baltimore,MD,
2100 PARK AV,Baltimore,MD,
1200 GLYNDON AV,Baltimore,MD,
2800 GREENMOUNT AV,Baltimore,MD,
6000 HARFORD RD,Baltimore,MD,
4500 PIMLICO RD,Baltimore,MD,
1900 BREITWERT ST,Baltimore,MD,
1200 COMET MEWS,Baltimore,MD,
1200 COMET MEWS,Baltimore,MD,
1200 COMET MEWS,Baltimore,MD,
1200 COMET MEWS,Baltimore,MD,
1200 COMET MEWS,Baltimore,MD,
0 E NORTH AVE,Baltimore,MD,
1500 E 35TH ST,Baltimore,MD,
2500 JEFFERSON ST,Baltimore,MD,
4100 CHATHAM RD,Baltimore,MD,
3600 9TH ST,Baltimore,MD,
4100 CHATHAM RD,Baltimore,MD,
1600 CHERRY HILL RD,Baltimore,MD,
3300 WINTERBOURNE RD,Baltimore,MD,
600 MOSHER ST,Baltimore,MD,
3900 ERDMAN AV,Baltimore,MD,
2400 GREENMOUNT AV,Baltimore,MD,
900 SEAGULL AV,Baltimore,MD,
3600 9TH ST,Baltimore,MD,
2000 JUBILEE CT,Baltimore,MD,
1500 OAKRIDGE RD,Baltimore,MD,
1300 WASHINGTON BD,Baltimore,MD,
200 N HIGHLAND AV,Baltimore,MD,
1700 BANK ST,Baltimore,MD,
200 S BROADWAY,Baltimore,MD,
1600 GWYNNS FALLS PW,Baltimore,MD,
6800 REISTERSTOWN RD,Baltimore,MD,
500 TUNBRIDGE RD,Baltimore,MD,
4300 ELDORADO AV,Baltimore,MD,
2300 HOMEWOOD ST,Baltimore,MD,
900 BAYARD,Baltimore,MD,
3600 POTEE ST,Baltimore,MD,
2000 WASHINGTON BD,Baltimore,MD,
700 W LEXINGTON ST,Baltimore,MD,
2400 LAURETTA AVE,Baltimore,MD,
3000 WHITE AV,Baltimore,MD,
4400 KAVON AV,Baltimore,MD,
2000 HARFORD RD,Baltimore,MD,
700 ST PAUL ST,Baltimore,MD,
2100 GREENVIEW AVE,Baltimore,MD,
1100 N LAKEWOOD AV,Baltimore,MD,
1900 PENROSE AV,Baltimore,MD,
4200 SHAMROCK AVE,Baltimore,MD,
1900 W LOMBARD ST,Baltimore,MD,
1600 W NORTH AV,Baltimore,MD,
2300 MOUNT ROYAL TR,Baltimore,MD,
200 N MOUNT ST,Baltimore,MD,
2000 DENISON ST,Baltimore,MD,
3300 GARRISON BLVD,Baltimore,MD,
5500 PARK HEIGHTS AV,Baltimore,MD,
700 N EDEN ST,Baltimore,MD,
6100 ALTA AV,Baltimore,MD,
1100 N LAKEWOOD AVE,Baltimore,MD,
400 N BRADFORD ST,Baltimore,MD,
4200 THAYER CT,Baltimore,MD,
0 ALBEMARLE ST,Baltimore,MD,
1300 PRESSTMAN ST,Baltimore,MD,
200 N CULVER ST,Baltimore,MD,
0 ALBEMARLE ST,Baltimore,MD,
100 N KENWOOD AV,Baltimore,MD,
100 N POTOMAC ST,Baltimore,MD,
1600 W NORTH AV,Baltimore,MD,
200 S ARLINGTON AV,Baltimore,MD,
2200 E 32ND,Baltimore,MD,
3800 LIBERTY HEIGHTS AVE,Baltimore,MD,
400 N BRADFORD ST,Baltimore,MD,
1600 W NORTH AV,Baltimore,MD,
3000 S HANOVER ST,Baltimore,MD,
3100 MARY AV,Baltimore,MD,
4700 LIBERTY HEIGHTS RD,Baltimore,MD,
800 MANGOLD ST,Baltimore,MD,
1300 E LAFAYETTE AV,Baltimore,MD,
0 WASHBURN AV,Baltimore,MD,
4100 E MONUMENT ST,Baltimore,MD,
1500 MARSHALL ST,Baltimore,MD,
2500 VIOLET AV,Baltimore,MD,
800 MANGOLD ST,Baltimore,MD,
3900 PINKNEY RD,Baltimore,MD,
1500 N PAYSON ST,Baltimore,MD,
800 E 43RD ST,Baltimore,MD,
3900 COLBORNE RD,Baltimore,MD,
0 S CALVERT ST,Baltimore,MD,
AV & READY AV,Baltimore,MD,
4400 FRANCONIA DR,Baltimore,MD,
5300 CARRIAGE CT,Baltimore,MD,
1800 PARK AV,Baltimore,MD,
3200 GULFPORT DR,Baltimore,MD,
6600 BELAIR RD,Baltimore,MD,
2300 EUTAW PL,Baltimore,MD,
1400 GITTINGS AV,Baltimore,MD,
2700 INGLEWOOD AV,Baltimore,MD,
4100 8TH ST,Baltimore,MD,
100 S EAST AV,Baltimore,MD,
200 N FULTON AV,Baltimore,MD,
4800 LIBERTY HGTS AV,Baltimore,MD,
4800 LIBERTY HGTS AV,Baltimore,MD,
4200 PRIMROSE AV,Baltimore,MD,
3100 WALBROOK AV,Baltimore,MD,
4300 ADELLE TR,Baltimore,MD,
RD & AILSA AV,Baltimore,MD,
700 W LAFAYETTE AV,Baltimore,MD,
2500 TERRA FIRMA RD,Baltimore,MD,
900 S CATON AV,Baltimore,MD,
3300 DUDLEY AV,Baltimore,MD,
3300 PATON AV,Baltimore,MD,
3300 DUDLEY AV,Baltimore,MD,
1600 E MADISON ST,Baltimore,MD,
3900 GREENMOUNT AV,Baltimore,MD,
400 E NORTH AVE,Baltimore,MD,
1800 N CAROLINE ST,Baltimore,MD,
1800 N CAROLINE ST,Baltimore,MD,
500 E BALTIMORE ST,Baltimore,MD,
4900 SCHAUB AVE,Baltimore,MD,
3300 DUDLEY AV,Baltimore,MD,
200 S WOODYEAR ST,Baltimore,MD,
3500 E FAIRMOUNT AV,Baltimore,MD,
1700 E LOMBARD ST,Baltimore,MD,
600 WATER ST,Baltimore,MD,
5300 BELAIR RD,Baltimore,MD,
1000 N ELLAMONT ST,Baltimore,MD,
2300 N ROSEDALE ST,Baltimore,MD,
4900 FREDERICK AV,Baltimore,MD,
900 S CATON AV,Baltimore,MD,
6000 AMBERWOOD RD,Baltimore,MD,
5600 THE ALAMEDA,Baltimore,MD,
2400 GWYNNS FALLS,Baltimore,MD,
2700 W NORTH AV,Baltimore,MD,
1500 E 36TH ST,Baltimore,MD,
2900 BRIGHTON ST,Baltimore,MD,
1600 DELANO CT,Baltimore,MD,
1100 WICKLOW RD,Baltimore,MD,
6000 BELAIR RD,Baltimore,MD,
2700 W NORTH AV,Baltimore,MD,
2300 WINCHESTER ST,Baltimore,MD,
1700 PRESSTMAN ST,Baltimore,MD,
900 STODDARD CT,Baltimore,MD,
1800 N MOUNT ST,Baltimore,MD,
600 S BROADWAY,Baltimore,MD,
400 S BROADWAY,Baltimore,MD,
1700 PRESSTMAN ST,Baltimore,MD,
5400 MORAVIA RD,Baltimore,MD,
1500 E 36TH ST,Baltimore,MD,
4400 LA PLATA AV,Baltimore,MD,
4600 PIMLICO RD,Baltimore,MD,
4100 ROCKFIELD AVE,Baltimore,MD,
1600 DELANO CT,Baltimore,MD,
800 ARGONNE DR,Baltimore,MD,
5400 DAYWALT AV,Baltimore,MD,
2700 W NORTH,Baltimore,MD,
4300 LIBERTY HGTS AV,Baltimore,MD,
2400 GWYNNS FALLS,Baltimore,MD,
1800 N MOUNT ST,Baltimore,MD,
2800 ST LO DR,Baltimore,MD,
0 W BARNEY ST,Baltimore,MD,
700 LINDEN AV,Baltimore,MD,
3300 GREENMOUNT AV,Baltimore,MD,
6800 STURBRIDGE DR,Baltimore,MD,
2000 CLIFTON AV,Baltimore,MD,
3000 GREENMOUNT AV,Baltimore,MD,
4500 REISTERSTOWN RD,Baltimore,MD,
3400 RAVENWOOD AV,Baltimore,MD,
2100 CLIFTON AV,Baltimore,MD,
1500 N WOODYEAR ST,Baltimore,MD,
600 E PATAPSCO AV,Baltimore,MD,
5500 RICHARD AVE,Baltimore,MD,
3500 REISTERSTOWN RD,Baltimore,MD,
1600 N CAREY ST,Baltimore,MD,
4500 REISTERSTOWN RD,Baltimore,MD,
100 S BROADWAY,Baltimore,MD,
2300 ARGONNE DR,Baltimore,MD,
3800 E LOMBARD ST,Baltimore,MD,
2300 E NORTHERN PW,Baltimore,MD,
5900 RADECKE AV,Baltimore,MD,
700 EDGEWOOD ST,Baltimore,MD,
1500 PENNSYLVANIA AV,Baltimore,MD,
3100 PULASKI HW,Baltimore,MD,
6500 PARNELL AV,Baltimore,MD,
700 HOMESTEAD ST,Baltimore,MD,
800 N FRANKLINTOWN RD,Baltimore,MD,
4100 GRACE CT,Baltimore,MD,
400 N BOULDIN ST,Baltimore,MD,
400 N BOULDIN ST,Baltimore,MD,
3100 SWAN DR,Baltimore,MD,
400 ROBERT ST,Baltimore,MD,
300 LIGHT ST,Baltimore,MD,
1100 POPLAR GROVE ST,Baltimore,MD,
2700 PRESBURY ST,Baltimore,MD,
3300 REISTERSTOWN RD,Baltimore,MD,
0 S HILTON ST,Baltimore,MD,
300 ST PAUL PL,Baltimore,MD,
1600 BRUCE CT,Baltimore,MD,
2700 PRESBURY ST,Baltimore,MD,
2500 GARRISON BD,Baltimore,MD,
300 LIGHT ST,Baltimore,MD,
6700 REISTERSTOWN RD,Baltimore,MD,
3100 SWAN DR,Baltimore,MD,
4700 ELISON AV,Baltimore,MD,
1900 W BALTIMORE ST,Baltimore,MD,
5000 DENMORE AV,Baltimore,MD,
1600 DRUID HILL AV,Baltimore,MD,
200 W MADISON ST,Baltimore,MD,
2200 GREENMOUNT AV,Baltimore,MD,
0 W 20TH ST,Baltimore,MD,
400 POPLAR GROVE ST,Baltimore,MD,
3300 CARDENAS AV,Baltimore,MD,
1000 WICKLOW RD,Baltimore,MD,
1300 N CAREY ST,Baltimore,MD,
1300 Pratt St,Baltimore,MD,
1300 N STOCKTON ST,Baltimore,MD,
1800 MANSION HOUSE DR,Baltimore,MD,
2100 E MONUMENT ST,Baltimore,MD,
0 N STRICKER ST,Baltimore,MD,
200 S MLK JR BD,Baltimore,MD,
4700 CURTIS AV,Baltimore,MD,
200 S ELLWOOD AV,Baltimore,MD,
600 E 33RD ST,Baltimore,MD,
6500 QUAD AV,Baltimore,MD,
300 N CALVERT ST,Baltimore,MD,
2900 MATHEWS ST,Baltimore,MD,
2900 MATHEWS ST,Baltimore,MD,
5200 FRANKFORD AV,Baltimore,MD,
2700 FENWICK AVE,Baltimore,MD,
4100 FERNHILL AV,Baltimore,MD,
2800 ASHLAND AV,Baltimore,MD,
900 DANTREY CT,Baltimore,MD,
100 S BROADWAY,Baltimore,MD,
300 S MONROE ST,Baltimore,MD,
800 HOLLINS ST,Baltimore,MD,
700 PONTIAC AV,Baltimore,MD,
2600 W PATAPSCO AVE,Baltimore,MD,
1600 ABBOSTON,Baltimore,MD,
100 S BROADWAY,Baltimore,MD,
300 LIGHT ST,Baltimore,MD,
3400 CLIFTON AV,Baltimore,MD,
5200 FRANKFORD AV,Baltimore,MD,
600 JEFFERY ST,Baltimore,MD,
2700 LAWINA RD,Baltimore,MD,
6500 REISTERSTOWN RD,Baltimore,MD,
5100 SINCLAIR LA,Baltimore,MD,
4600 PARK HEIGHTS AV,Baltimore,MD,
2800 E BALTIMORE ST,Baltimore,MD,
700 W PATAPSCO AV,Baltimore,MD,
1000 EASTERN AV,Baltimore,MD,
300 E NORTH AV,Baltimore,MD,
500 S BOND ST,Baltimore,MD,
1400 GORSUCH AV,Baltimore,MD,
200 N EUTAW ST,Baltimore,MD,
700 W PATAPSCO AV,Baltimore,MD,
700 W PATAPSCO AV,Baltimore,MD,
500 S OLDHAM ST,Baltimore,MD,
300 N GAY ST,Baltimore,MD,
1200 ENSOR ST,Baltimore,MD,
0 S CALVERT ST,Baltimore,MD,
400 YALE AV,Baltimore,MD,
3400 CLIFTON AV,Baltimore,MD,
2800 GREENMOUNT AV,Baltimore,MD,
200 N EUTAW ST,Baltimore,MD,
1300 DIVISION ST,Baltimore,MD,
1100 N FULTON AV,Baltimore,MD,
5200 YORK RD,Baltimore,MD,
3800 SHANNON DR,Baltimore,MD,
1100 CARROLL ST,Baltimore,MD,
6100 TOONE ST,Baltimore,MD,
6100 TOONE ST,Baltimore,MD,
100 S MONASTERY AV,Baltimore,MD,
400 E 33RD ST,Baltimore,MD,
900 BRUNSWICK ST,Baltimore,MD,
1900 E OLIVER ST,Baltimore,MD,
1200 WALL ST,Baltimore,MD,
2900 ODONNELL ST,Baltimore,MD,
400 S BOND ST,Baltimore,MD,
PAUL PL & E SARATOGA ST,Baltimore,MD,
1300 N LUZERNE AV,Baltimore,MD,
1600 W MULBERRY ST,Baltimore,MD,
3900 HILTON RD,Baltimore,MD,
3900 HILTON RD,Baltimore,MD,
1500 W BALTIMORE ST,Baltimore,MD,
1500 PRESSER CT,Baltimore,MD,
3500 BELAIR RD,Baltimore,MD,
3800 SHANNON DR,Baltimore,MD,
0 W BALTIMORE ST,Baltimore,MD,
4700 NORTHWOOD DR,Baltimore,MD,
400 RUSSELL ST,Baltimore,MD,
800 BOYD ST,Baltimore,MD,
600 W 33RD ST,Baltimore,MD,
1200 WALL ST,Baltimore,MD,
Middle East,Baltimore,MD,
2800 ASHLAND AV,Baltimore,MD,
4200 PRIMROSE AV,Baltimore,MD,
2400 N CHARLES ST,Baltimore,MD,
2300 KOKO LN,Baltimore,MD,
1600 E OLIVER ST,Baltimore,MD,
2900 ODONNELL ST,Baltimore,MD,
5200 LOCH RAVEN BLVD,Baltimore,MD,
3100 PUGET ST,Baltimore,MD,
6600 PARK HEIGHTS AVE,Baltimore,MD,
3300 EDMONDSON AVE,Baltimore,MD,
5500 LOTHIAN RD,Baltimore,MD,
1700 E 31ST ST,Baltimore,MD,
2100 EAGLE ST,Baltimore,MD,
700 N HOWARD ST,Baltimore,MD,
3100 E MONUMENT ST,Baltimore,MD,
3100 GOUGH ST,Baltimore,MD,
500 S LEHIGH ST,Baltimore,MD,
0 ALBEMARLE ST,Baltimore,MD,
1300 PENNSYLVANIA AV,Baltimore,MD,
5100 FREDERICK AV,Baltimore,MD,
5100 FREDERICK AV,Baltimore,MD,
0 ALBEMARLE ST,Baltimore,MD,
6700 HOLABIRD AV,Baltimore,MD,
6700 HOLABIRD AV,Baltimore,MD,
2000 BRYANT AV,Baltimore,MD,
0 ALBEMARLE ST,Baltimore,MD,
2100 EAGLE ST,Baltimore,MD,
2000 BRYANT AV,Baltimore,MD,
2300 E NORTHERN PKWY,Baltimore,MD,
500 S LEHIGH ST,Baltimore,MD,
0 S POTOMAC ST,Baltimore,MD,
5100 EASTERN AVE,Baltimore,MD,
4200 MARIBAN CT,Baltimore,MD,
1400 CYPRESS ST,Baltimore,MD,
2900 ST PAUL ST,Baltimore,MD,
600 S MACON ST,Baltimore,MD,
600 S MACON ST,Baltimore,MD,
600 S MACON ST,Baltimore,MD,
4900 GOODNOW RD,Baltimore,MD,
4200 AUDREY AV,Baltimore,MD,
3100 PUGET ST,Baltimore,MD,
0 W BALTIMORE ST,Baltimore,MD,
6100 TOONE ST,Baltimore,MD,
1500 PENROSE AV,Baltimore,MD,
800 N GLOVER ST,Baltimore,MD,
2500 GARRISON BD,Baltimore,MD,
6500 EASTERN AV,Baltimore,MD,
3200 BELAIR RD,Baltimore,MD,
1000 E 25TH ST,Baltimore,MD,
2200 LINDEN AV,Baltimore,MD,
4900 TODD AV,Baltimore,MD,
1100 GUILFORD AV,Baltimore,MD,
3200 GREENMOUNT AV,Baltimore,MD,
2800 JEFFERSON ST,Baltimore,MD,
3200 WALBROOK AV,Baltimore,MD,
3000 BARCLAY AVE,Baltimore,MD,
0 N KOSSUTH ST,Baltimore,MD,
3200 AVON AVE,Baltimore,MD,
1300 W NORTH AV,Baltimore,MD,
1800 BAKER ST,Baltimore,MD,
1600 N SMALLWOOD ST,Baltimore,MD,
4000 ERDMAN AV,Baltimore,MD,
800 N GLOVER ST,Baltimore,MD,
400 N EUTAW ST,Baltimore,MD,
900 N BROADWAY,Baltimore,MD,
4200 SEIDEL AV,Baltimore,MD,
500 E PATAPSCO AV,Baltimore,MD,
3900 W BELVEDERE AV,Baltimore,MD,
1000 E 25TH ST,Baltimore,MD,
800 SEAGULL AV,Baltimore,MD,
200 N BENTALOU ST,Baltimore,MD,
0 W 20TH ST,Baltimore,MD,
1300 N BENTALOU ST,Baltimore,MD,
1300 N BENTALOU ST,Baltimore,MD,
1600 MAY CT,Baltimore,MD,
2600 WOODBROOK AV,Baltimore,MD,
600 N HIGHLAND AV,Baltimore,MD,
100 N EAST AVE,Baltimore,MD,
4500 EDMONDSON AVE,Baltimore,MD,
1200 STEUART ST     #731,Baltimore,MD,
500 BALTIC AV,Baltimore,MD,
2400 N MONROE ST,Baltimore,MD,
1300 N BENTALOU ST,Baltimore,MD,
1800 N MOUNT ST,Baltimore,MD,
400 N LINWOOD AVE,Baltimore,MD,
6900 REISTERSTOWN RD,Baltimore,MD,
0 W SARATOGA ST,Baltimore,MD,
1400 ANGLESEA ST,Baltimore,MD,
400 ST PAUL PL,Baltimore,MD,
5400 PARK HEIGHTS AV,Baltimore,MD,
1100 W CROSS ST,Baltimore,MD,
2200 E COLD SPRING LA,Baltimore,MD,
0 S PATTERSON PK AV,Baltimore,MD,
0 S PATTERSON PK AV,Baltimore,MD,
100 W MONTGOMERY ST,Baltimore,MD,
500 GLENWOOD AV,Baltimore,MD,
1400 E MONUMENT ST,Baltimore,MD,
1600 INGRAM RD,Baltimore,MD,
6800 MCCLEAN BD,Baltimore,MD,
3500 EDMONDSON AVE,Baltimore,MD,
1200 SLATER RD,Baltimore,MD,
2000 DENISON ST,Baltimore,MD,
1600 INGRAM RD,Baltimore,MD,
3400 RAMONA AV,Baltimore,MD,
700 LENNOX ST,Baltimore,MD,
500 ORCHARD ST,Baltimore,MD,
1100 N FREMONT AV,Baltimore,MD,
5300 CEDONIA AVE,Baltimore,MD,
900 BENNETT PL,Baltimore,MD,
2100 ST PAUL ST,Baltimore,MD,
3100 E MADISON ST,Baltimore,MD,
400 N HIGH ST,Baltimore,MD,
200 S President St,Baltimore,MD,
3200 PIEDMONT AV,Baltimore,MD,
4000 EASTERN AV,Baltimore,MD,
2200 LIBERTY HGTS AV,Baltimore,MD,
3300 GARRISON BD,Baltimore,MD,
5700 REISTERSTOWN RD,Baltimore,MD,
4400 NORFOLK AV,Baltimore,MD,
5700 WINNER AVE,Baltimore,MD,
4200 SHAMROCK AV,Baltimore,MD,
2300 E PRESTON ST,Baltimore,MD,
4300 KAVON AV,Baltimore,MD,
2300 E PRESTON ST,Baltimore,MD,
4200 SHAMROCK AV,Baltimore,MD,
2000 LINDEN AV,Baltimore,MD,
3300 HUDSON ST,Baltimore,MD,
5700 WINNER AV,Baltimore,MD,
2600 BOSTON ST,Baltimore,MD,
2600 BOSTON ST,Baltimore,MD,
600 S MACON ST,Baltimore,MD,
3000 MATHEWS ST,Baltimore,MD,
900 N CAROLINE ST,Baltimore,MD,
600 AISQUITH ST,Baltimore,MD,
1800 THAMES ST,Baltimore,MD,
2400 FOSTER AV,Baltimore,MD,
6600 MAPLE AV,Baltimore,MD,
3300 HUDSON ST,Baltimore,MD,
3300 HUDSON ST,Baltimore,MD,
100 N KRESSON ST,Baltimore,MD,
200 S EAST AV,Baltimore,MD,
1900 W LOMBARD ST,Baltimore,MD,
4000 W BELVEDERE AV,Baltimore,MD,
2200 AIKEN ST,Baltimore,MD,
2900 W LAFAYETTE AV,Baltimore,MD,
400 E 25TH ST,Baltimore,MD,
700 Hamburg Street,Baltimore,MD,
900 BEAUMONT AV,Baltimore,MD,
1100 BRADDISH AV,Baltimore,MD,
3700 ELMORA AV,Baltimore,MD,
4500 PIMLICO RD,Baltimore,MD,
5900 LOCH RAVEN BD,Baltimore,MD,
7600 HARFORD RD,Baltimore,MD,
1100 N KENWOOD AVE,Baltimore,MD,
2800 W LANVALE ST,Baltimore,MD,
400 DENISON ST,Baltimore,MD,
900 ASHBURTON ST,Baltimore,MD,
100 W PRESTON ST,Baltimore,MD,
700 W HAMBURG ST,Baltimore,MD,
2500 HERMOSA AV,Baltimore,MD,
2600 MOSHER ST,Baltimore,MD,
0 S CALVERTON RD,Baltimore,MD,
1900 E COLD SPRING LA,Baltimore,MD,
1800 W SARATOGA ST,Baltimore,MD,
900 E MADISON ST,Baltimore,MD,
2300 E MADISON ST,Baltimore,MD,
3200 BELAIR RD,Baltimore,MD,
3000 LOCH RAVEN RD,Baltimore,MD,
3300 GREENMOUNT AVE,Baltimore,MD,
700 E 37TH ST,Baltimore,MD,
3300 GREENMOUNT AVE,Baltimore,MD,
6500 ARMSTRONG AV,Baltimore,MD,
3000 BELAIR RD,Baltimore,MD,
4400 REISTERSTOWN RD,Baltimore,MD,
2700 MARBOURNE AV,Baltimore,MD,
2200 AIKEN ST,Baltimore,MD,
3000 MATHEWS ST,Baltimore,MD,
400 E 29TH ST,Baltimore,MD,
1500 GORSUCH AV,Baltimore,MD,
3700 MILFORD AV,Baltimore,MD,
2600 KIRK AV,Baltimore,MD,
2800 RIGGS AV,Baltimore,MD,
5300 YORK RD,Baltimore,MD,
1900 MARYLAND AV,Baltimore,MD,
1000 PARKSLEY AV,Baltimore,MD,
3100 BRIGHTON ST,Baltimore,MD,
400 E 29TH ST,Baltimore,MD,
2000 RUXTON AVE,Baltimore,MD,
1700 WAVERLY WY,Baltimore,MD,
1600 E CHASE ST,Baltimore,MD,
200 S SPRING CT,Baltimore,MD,
200 S WOODYEAR ST,Baltimore,MD,
2600 KIRK AV,Baltimore,MD,
1500 DIVISION ST,Baltimore,MD,
1500 DIVISION ST,Baltimore,MD,
500 E NORTH AV,Baltimore,MD,
2100 N FULTON AV,Baltimore,MD,
2100 N FULTON AV,Baltimore,MD,
2100 N FULTON AV,Baltimore,MD,
600 WINSTON AV,Baltimore,MD,
4200 WEST BAY AV,Baltimore,MD,
3300 E MONUMENT ST,Baltimore,MD,
3300 KENYON AV,Baltimore,MD,
600 E FAYETTE ST,Baltimore,MD,
1700 W LOMBARD ST,Baltimore,MD,
1700 E Cold Spring Ln,Baltimore,MD,
400 DREW ST,Baltimore,MD,
1700 CHILTON ST,Baltimore,MD,
600 MELVILLE AV,Baltimore,MD,
4000 GREENSPRING AV,Baltimore,MD,
1100 N WARWICK AV,Baltimore,MD,
1800 N FULTON AV,Baltimore,MD,
700 E COLD SPRING LA,Baltimore,MD,
800 N EDEN ST,Baltimore,MD,
1700 SHERWOOD AV,Baltimore,MD,
5400 REISTERSTOWN RD,Baltimore,MD,
5400 REISTERSTOWN RD,Baltimore,MD,
3100 PULASKI HW,Baltimore,MD,
3100 ERDMAN VE,Baltimore,MD,
2600 PENNSYLVANIA AVE,Baltimore,MD,
4500 EDMONDSON AV,Baltimore,MD,
1000 N EDEN ST,Baltimore,MD,
1900 E LAFAYETTE AVE,Baltimore,MD,
1500 E 33RD ST,Baltimore,MD,
800 E MADISON ST,Baltimore,MD,
3000 GARRISON BD,Baltimore,MD,
4700 PARKSIDE GA DR,Baltimore,MD,
2600 ASHLAND AVE,Baltimore,MD,
1900 N PATTERSON PK AV,Baltimore,MD,
2800 EDISON HW,Baltimore,MD,
1100 LIGHT ST,Baltimore,MD,
3100 ERDMAN VE,Baltimore,MD,
900 ELLICOTT DW,Baltimore,MD,
400 W LEXINGTON ST,Baltimore,MD,
2400 GREENMOUNT AV,Baltimore,MD,
500 MOSHER ST,Baltimore,MD,
0 E LAFAYETTE AV,Baltimore,MD,
800 W MADISON ST,Baltimore,MD,
800 W MADISON ST,Baltimore,MD,
4400 ASBURY AV,Baltimore,MD,
500 E COLD SPRING LA,Baltimore,MD,
4200 PENNINGTON AV,Baltimore,MD,
2900 EDMONDSON AVE,Baltimore,MD,
600 POPLAR GROVE ST,Baltimore,MD,
400 N LINWOOD AV,Baltimore,MD,
NORTHERN PW & FLEETWOOD AV,Baltimore,MD,
0 S EXETER ST,Baltimore,MD,
5500 HARFORD RD,Baltimore,MD,
900 ELLICOTT DW,Baltimore,MD,
1100 N MILTON AV,Baltimore,MD,
300 S CAROLINE ST,Baltimore,MD,
3000 E FAYETTE ST,Baltimore,MD,
0 S EXETER ST,Baltimore,MD,
0 S EXETER ST,Baltimore,MD,
3500 HARFORD RD,Baltimore,MD,
4100 PATTERSON AVE,Baltimore,MD,
4400 ASBURY AV,Baltimore,MD,
4900 GUNTHER AV,Baltimore,MD,
1000 S CHARLES ST,Baltimore,MD,
3100 WYLIE AV,Baltimore,MD,
1900 W NORTH AV,Baltimore,MD,
4100 PATTERSON AV,Baltimore,MD,
2500 Terra Firma,Baltimore,MD,
3800 RAVENWOOD AV,Baltimore,MD,
4300 ELDERON AV,Baltimore,MD,
700 EASTERN AV,Baltimore,MD,
2100 W NORTH AV,Baltimore,MD,
2600 GUILFORD AV,Baltimore,MD,
2400 E MADISON ST,Baltimore,MD,
2400 E MADISON ST,Baltimore,MD,
2800 HILLDALE AV,Baltimore,MD,
2200 MOUNT ROYAL TR,Baltimore,MD,
2600 W FAIRMOUNT AV,Baltimore,MD,
5600 BELLE AV,Baltimore,MD,
2400 E MADISON ST,Baltimore,MD,
2400 E MADISON ST,Baltimore,MD,
1600 W NORTH AV,Baltimore,MD,
1600 BOOKER CT,Baltimore,MD,
1400 MOUNTMOR CT,Baltimore,MD,
5600 BELLE AV,Baltimore,MD,
3400 PARK HEIGHTS AV,Baltimore,MD,
2600 PENNSYLVANIA AV,Baltimore,MD,
3600 TOWANDA AV,Baltimore,MD,
3600 TOWANDA AV,Baltimore,MD,
3600 TOWANDA AV,Baltimore,MD,
5710 Eastern Ave,Baltimore,MD,
800 E FORT AV,Baltimore,MD,
2400 E MADISON ST,Baltimore,MD,
2400 LIBERTY HGTS AV,Baltimore,MD,
0 E 23RD ST,Baltimore,MD,
1200 ORLEANS ST,Baltimore,MD,
100 W JEFFREY ST,Baltimore,MD,
1800 ORLEANS ST,Baltimore,MD,
5700 CEDELLA AV,Baltimore,MD,
2700 HARFORD RD,Baltimore,MD,
100 W PATAPSCO AV,Baltimore,MD,
1600 ROUNDHILL RD,Baltimore,MD,
900 E LOMBARD ST,Baltimore,MD,
2400 E MADISON ST,Baltimore,MD,
1900 MOUNT ROYAL TR,Baltimore,MD,
2600 GUILFORD AV,Baltimore,MD,
2600 GUILFORD AV,Baltimore,MD,
900 JACK ST,Baltimore,MD,
400 W BALTIMORE ST,Baltimore,MD,
2600 ORLEANS ST,Baltimore,MD,
2600 ORLEANS ST,Baltimore,MD,
400 E CHASE ST,Baltimore,MD,
1600 SPRAY CT,Baltimore,MD,
3800 W GARRISON AVE,Baltimore,MD,
5300 PARK HEIGHTS AV,Baltimore,MD,
2900 E FAYETTE ST,Baltimore,MD,
2900 E FAYETTE ST,Baltimore,MD,
500 E 23RD ST,Baltimore,MD,
4000 BARRINGTON AVE,Baltimore,MD,
4700 HARFORD RD,Baltimore,MD,
1600 SPRAY CT,Baltimore,MD,
400 ILCHESTER AVE,Baltimore,MD,
2300 W MULBERRY ST,Baltimore,MD,
1200 HARFORD AV,Baltimore,MD,
0 S JANNEY ST,Baltimore,MD,
2200 WINCHESTER ST,Baltimore,MD,
200 W LANVALE ST,Baltimore,MD,
RD & ASCENSION ST,Baltimore,MD,
4700 LAUREL AV,Baltimore,MD,
800 RESERVOIR ST,Baltimore,MD,
6600 VINCENT LN,Baltimore,MD,
0 E CENTRE ST,Baltimore,MD,
700 LIGHT ST,Baltimore,MD,
100 N GILMOR ST,Baltimore,MD,
0 E FAYETTE ST,Baltimore,MD,
100 N LUZERNE AV,Baltimore,MD,
0 E 21ST ST,Baltimore,MD,
2400 FLEET ST,Baltimore,MD,
3500 HARFORD RD,Baltimore,MD,
3200 THE ALAMEDA,Baltimore,MD,
200 N HOWARD ST,Baltimore,MD,
4800 LORELLY AVE,Baltimore,MD,
1300 E FAYETTE ST,Baltimore,MD,
2600 WEGWORTH LA,Baltimore,MD,
2600 WEGWORTH LA,Baltimore,MD,
100 N HILTON ST,Baltimore,MD,
700 S WOLFE ST,Baltimore,MD,
4200 PRIMROSE AV,Baltimore,MD,
AV & REISTERSTO     #ALLE,Baltimore,MD,
3800 E LOMBARD ST,Baltimore,MD,
500 E 38TH ST,Baltimore,MD,
2500 W FAYETTE ST,Baltimore,MD,
1300 EUTAW PL,Baltimore,MD,
4200 LABYRINTH RD,Baltimore,MD,
400 N EUTAW ST,Baltimore,MD,
300 W 28TH ST,Baltimore,MD,
5900 RADECKE AVE,Baltimore,MD,
1400 Barnes St,Baltimore,MD,
100 5 1 ST,Baltimore,MD,
1700 W PRATT ST,Baltimore,MD,
500 E PATAPSCO AV,Baltimore,MD,
1400 Barnes St,Baltimore,MD,
200 LINWOOD ST,Baltimore,MD,
5200 FRANKFORD AV,Baltimore,MD,
700 E PRATT ST,Baltimore,MD,
1000 N FREMONT AV,Baltimore,MD,
0 N CAROLINE ST,Baltimore,MD,
1700 N BETHEL ST,Baltimore,MD,
2800 HARFORD RD,Baltimore,MD,
6100 HARFORD RD,Baltimore,MD,
1700 E NORTHERN PW,Baltimore,MD,
500 CUMBERLAND ST,Baltimore,MD,
1200 HARWOOD AV,Baltimore,MD,
3000 KESWICK RD,Baltimore,MD,
1800 SPENCE ST,Baltimore,MD,
5000 DICKEY HILL RD,Baltimore,MD,
5500 REISTERSTOWN RD,Baltimore,MD,
0 CHARLES ST,Baltimore,MD,
200 N LAKEWOOD AV,Baltimore,MD,
100 S HIGHLAND AV,Baltimore,MD,
400 S AUGUSTA AV,Baltimore,MD,
3300 W BELVEDERE AV,Baltimore,MD,
4200 BERGER AV,Baltimore,MD,
400 S AUGUSTA AV,Baltimore,MD,
300 ELRINO ST,Baltimore,MD,
3600 3RD ST,Baltimore,MD,
100 N CLINTON ST,Baltimore,MD,
1700 S HANOVER ST,Baltimore,MD,
1400 N WASHINGTON ST,Baltimore,MD,
3500 SHANNON DR,Baltimore,MD,
3300 EDMONDSON AVE,Baltimore,MD,
3800 BELLE AV,Baltimore,MD,
4200 BERGER AV,Baltimore,MD,
3300 EDMONDSON AV,Baltimore,MD,
4200 BERGER AV,Baltimore,MD,
1900 ST PAUL ST,Baltimore,MD,
0 W LEXINGTON ST,Baltimore,MD,
200 N STREEPER ST,Baltimore,MD,
2800 W BALTIMORE ST,Baltimore,MD,
2800 W BALTIMORE ST,Baltimore,MD,
300 E 21ST ST,Baltimore,MD,
2400 FREDERICK AV,Baltimore,MD,
3300 W BELVEDERE AVE,Baltimore,MD,
2400 FREDERICK AV,Baltimore,MD,
2400 FREDERICK AV,Baltimore,MD,
1100 E NORTH AV,Baltimore,MD,
200 E LEXINGTON ST,Baltimore,MD,
800 N HOWARD ST,Baltimore,MD,
RD & E COLD SPRING LA,Baltimore,MD,
1900 ST PAUL ST,Baltimore,MD,
3200 E FAYETTE ST,Baltimore,MD,
100 N GLOVER ST,Baltimore,MD,
100 N GLOVER ST,Baltimore,MD,
1200 N CAROLINE ST,Baltimore,MD,
400 LYNDHURST ST,Baltimore,MD,
100 N GLOVER ST,Baltimore,MD,
200 S BROADWAY,Baltimore,MD,
1500 HARFORD AV,Baltimore,MD,
6100 DANVILLE AV,Baltimore,MD,
2300 W FRANKLIN ST,Baltimore,MD,
2300 W FRANKLIN ST,Baltimore,MD,
300 S ROBINSON ST,Baltimore,MD,
3300 CARDENAS AV,Baltimore,MD,
3300 CARDENAS AV,Baltimore,MD,
100 S CARROLLTON AV,Baltimore,MD,
500 S SMALLWOOD ST,Baltimore,MD,
5400 FRANKFORD AVE,Baltimore,MD,
700 LINNARD ST,Baltimore,MD,
700 LINNARD ST,Baltimore,MD,
1800 DRUID HILL AV,Baltimore,MD,
2600 HARLEM AV,Baltimore,MD,
1500 RETREAT ST,Baltimore,MD,
700 LINNARD ST,Baltimore,MD,
3000 S HANOVER ST,Baltimore,MD,
0 LIBERTY HEIGHTS AVE,Baltimore,MD,
2100 W FRANKLIN ST,Baltimore,MD,
4900 GOODNOW RD,Baltimore,MD,
4900 GOODNOW RD,Baltimore,MD,
1100 DRUID HILL AV,Baltimore,MD,
600 TUNBRIDGE RD,Baltimore,MD,
2100 W FRANKLIN ST,Baltimore,MD,
6100 DANVILLE AV,Baltimore,MD,
2000 E LAFAYETTE AVE,Baltimore,MD,
0 S MORLEY ST,Baltimore,MD,
2100 W FRANKLIN ST,Baltimore,MD,
3900 ELMORA AV,Baltimore,MD,
2100 W FRANKLIN ST,Baltimore,MD,
2700 THE ALAMEDA,Baltimore,MD,
2500 W FRANKLIN ST,Baltimore,MD,
2500 W FRANKLIN ST,Baltimore,MD,
400 W NORTH AVE,Baltimore,MD,
500 S ANN ST,Baltimore,MD,
1900 FREDERICK AV,Baltimore,MD,
2600 E PRESTON ST,Baltimore,MD,
THE FALLSWAY,Baltimore,MD,
2500 W FRANKLIN ST,Baltimore,MD,
300 ROBERT ST,Baltimore,MD,
600 E 35TH ST,Baltimore,MD,
1800 MCCULLOH ST,Baltimore,MD,
1000 BRANCHWATER CT,Baltimore,MD,
2300 RUSKIN AV,Baltimore,MD,
2300 RUSKIN AV,Baltimore,MD,
5400 RADECKE AV,Baltimore,MD,
1700 PRESSTMAN ST,Baltimore,MD,
4700 PARK HEIGHTS AV,Baltimore,MD,
800 W LOMBARD ST,Baltimore,MD,
600 W FRANKLIN ST,Baltimore,MD,
1800 DOVER ST,Baltimore,MD,
1800 DOVER ST,Baltimore,MD,
1000 COVINGTON ST,Baltimore,MD,
3200 HARFORD RD,Baltimore,MD,
100 S GILMOR ST,Baltimore,MD,
1800 DOVER ST,Baltimore,MD,
2400 WESTPORT ST,Baltimore,MD,
1400 DIVISION ST,Baltimore,MD,
1800 DOVER ST,Baltimore,MD,
200 S VINCENT ST,Baltimore,MD,
2800 W LAFAYETTE AV,Baltimore,MD,
1500 BUSH ST,Baltimore,MD,
4200 BELAIR RD,Baltimore,MD,
3000 OAKFORD AV,Baltimore,MD,
3000 OAKFORD AV,Baltimore,MD,
1600 W LOMBARD ST,Baltimore,MD,
1100 DRUID HILL AV,Baltimore,MD,
1000 BRANCHWATER CT,Baltimore,MD,
100 N LINWOOD AV,Baltimore,MD,
3400 BATEMAN AVE,Baltimore,MD,
1600 E 28TH ST,Baltimore,MD,
700 N ROSE ST,Baltimore,MD,
2500 ERDMAN AVE,Baltimore,MD,
3900 REISTERSTOWN RD,Baltimore,MD,
6500 PARSON AVE,Baltimore,MD,
1800 MCCULLOH ST,Baltimore,MD,
0 W 24TH ST,Baltimore,MD,
0 W 24TH ST,Baltimore,MD,
500 WOODBOURNE AVE,Baltimore,MD,
4500 OLD FREDERICK RD,Baltimore,MD,
400 AISQUITH ST,Baltimore,MD,
3400 BATEMAN AVE,Baltimore,MD,
5200 DENMORE AV,Baltimore,MD,
1300 W MADISON ST,Baltimore,MD,
1300 W MADISON ST,Baltimore,MD,
5300 PARK HEIGHTS AVE,Baltimore,MD,
100 S MOUNT ST,Baltimore,MD,
5200 DENMORE AV,Baltimore,MD,
3200 SPAULDING AV,Baltimore,MD,
4900 PARK HEIGHTS AV,Baltimore,MD,
800 E PATAPSCO AV,Baltimore,MD,
800 E PATAPSCO AVE,Baltimore,MD,
6300 WALTHER AVE,Baltimore,MD,
1000 W BALTIMORE ST,Baltimore,MD,
600 N CHARLES ST,Baltimore,MD,
3000 W COLD SPRING LA,Baltimore,MD,
6300 WALTHER AVE,Baltimore,MD,
2900 WINDSOR AV,Baltimore,MD,
3000 PULASKI HW,Baltimore,MD,
700 N HILTON ST,Baltimore,MD,
2800 WESTFIELD AVE,Baltimore,MD,
2800 ROSELAWN AV,Baltimore,MD,
2500 PERRING MANOR RD,Baltimore,MD,
900 RODMAN WY,Baltimore,MD,
6500 ROSEMONT AV,Baltimore,MD,
1000 N FULTON AV,Baltimore,MD,
4400 CHALET CT,Baltimore,MD,
1500 HARLEM AV,Baltimore,MD,
1600 ABBOTSTON ST,Baltimore,MD,
5500 BOWLEYS LA,Baltimore,MD,
2800 S EDGECOMBE CIR,Baltimore,MD,
3000 NORTHWAY DR,Baltimore,MD,
2500 PENNSYLVANIA AV,Baltimore,MD,
5600 GOVANE AV,Baltimore,MD,
5600 GOVANE AV,Baltimore,MD,
2800 KIRK AV,Baltimore,MD,
700 EASTERN AV,Baltimore,MD,
1600 S MONROE ST,Baltimore,MD,
700 EASTERN AV,Baltimore,MD,
7300 HARFORD RD,Baltimore,MD,
2900 THE ALAMEDA,Baltimore,MD,
4600 PARK HEIGHTS AV,Baltimore,MD,
400 HORNEL ST,Baltimore,MD,
3000 E BALTIMORE ST,Baltimore,MD,
2200 BERLIN ST,Baltimore,MD,
2900 W COLD SPRING LA,Baltimore,MD,
700 ARGONNE DR,Baltimore,MD,
4700 EASTERN AVE,Baltimore,MD,
3000 THORNDALE AV,Baltimore,MD,
1300 SARGEANT ST,Baltimore,MD,
2000 FLEET ST,Baltimore,MD,
0 ALBEMARLE ST,Baltimore,MD,
300 S SPRING CT,Baltimore,MD,
2400 KEYWORTH AV,Baltimore,MD,
1100 BATTERY AV,Baltimore,MD,
4000 PARK HEIGHTS AV,Baltimore,MD,
6200 BELAIR RD,Baltimore,MD,
3000 GARRISON BD,Baltimore,MD,
600 E FAYETTE ST,Baltimore,MD,
PAUL ST & E 24TH ST,Baltimore,MD,
2300 WILKENS AV,Baltimore,MD,
3500 CLIFTON AV,Baltimore,MD,
1100 N STRICKER ST,Baltimore,MD,
1900 WHEELER AV,Baltimore,MD,
6900 FAIRHILL AVE,Baltimore,MD,
1100 WHITMORE AV,Baltimore,MD,
3800 RIDGEWOOD AV,Baltimore,MD,
3800 RIDGEWOOD AV,Baltimore,MD,
200 N EUTAW ST,Baltimore,MD,
1700 N ROSEDALE ST,Baltimore,MD,
1400 W 36TH ST,Baltimore,MD,
1400 W 36TH ST,Baltimore,MD,
1400 W 36TH ST,Baltimore,MD,
1200 N BOND ST,Baltimore,MD,
3600 REISTERSTOWN RD,Baltimore,MD,
500 ENSOR ST,Baltimore,MD,
6200 LOCH RAVEN BLVD,Baltimore,MD,
3100 E NORTHERN PW,Baltimore,MD,
3000 ECHODALE AV,Baltimore,MD,
700 RAPPOLLA ST,Baltimore,MD,
2200 ST PAUL ST,Baltimore,MD,
3000 ECHODALE AV,Baltimore,MD,
2000 CECIL AV,Baltimore,MD,
1800 N WOODYEAR ST,Baltimore,MD,
2000 CECIL AV,Baltimore,MD,
2000 W PRATT ST,Baltimore,MD,
0 N DECKER ST,Baltimore,MD,
3200 TIVOLY AV,Baltimore,MD,
400 WATTY CT,Baltimore,MD,
2800 BOOKER DR,Baltimore,MD,
2000 GWYNNS FALLS PW,Baltimore,MD,
2000 N CHARLES ST,Baltimore,MD,
100 N CARROLLTON AV,Baltimore,MD,
2000 CECIL AVE,Baltimore,MD,
1800 DESOTO RD,Baltimore,MD,
4900 PEMBRIDGE AV,Baltimore,MD,
NORTH AVE,Baltimore,MD,
400 N SCHROEDER ST,Baltimore,MD,
5000 SINCLAIR LA,Baltimore,MD,
5000 SINCLAIR LA,Baltimore,MD,
4900 PEMBRIDGE AV,Baltimore,MD,
2000 W PRATT ST,Baltimore,MD,
1600 N SMALLWOOD ST,Baltimore,MD,
3100 SWAN DR,Baltimore,MD,
4200 ROLAND AV,Baltimore,MD,
4200 ROLAND AV,Baltimore,MD,